<?xml version="1.0" encoding="UTF-8"?>
<gpx version="1.1" creator="Strava (via strava-mcp)" xmlns="http://www.topografix.com/GPX/1/1">
 <metadata><name>Ajusco (summit)</name><time>2020-06-06T14:26:44.000Z</time></metadata>
 <trk>
  <name>Ajusco (summit)</name>
  <type>Hike</type>
  <trkseg>
   <trkpt lat="19.228903" lon="-99.267758"><ele>3260.5</ele><time>2020-06-06T14:26:44.000Z</time></trkpt>
   <trkpt lat="19.228281" lon="-99.267835"><ele>3268.0</ele><time>2020-06-06T14:27:46.000Z</time></trkpt>
   <trkpt lat="19.227864" lon="-99.267395"><ele>3277.1</ele><time>2020-06-06T14:28:46.000Z</time></trkpt>
   <trkpt lat="19.227184" lon="-99.267118"><ele>3292.9</ele><time>2020-06-06T14:29:48.000Z</time></trkpt>
   <trkpt lat="19.226925" lon="-99.267320"><ele>3299.6</ele><time>2020-06-06T14:30:54.000Z</time></trkpt>
   <trkpt lat="19.226598" lon="-99.267338"><ele>3305.4</ele><time>2020-06-06T14:31:48.000Z</time></trkpt>
   <trkpt lat="19.226546" lon="-99.267445"><ele>3307.4</ele><time>2020-06-06T14:32:13.000Z</time></trkpt>
   <trkpt lat="19.226197" lon="-99.267500"><ele>3310.9</ele><time>2020-06-06T14:35:31.000Z</time></trkpt>
   <trkpt lat="19.225869" lon="-99.267202"><ele>3317.1</ele><time>2020-06-06T14:37:27.000Z</time></trkpt>
   <trkpt lat="19.225786" lon="-99.266883"><ele>3324.3</ele><time>2020-06-06T14:40:49.000Z</time></trkpt>
   <trkpt lat="19.225849" lon="-99.266879"><ele>3327.7</ele><time>2020-06-06T14:41:10.000Z</time></trkpt>
   <trkpt lat="19.225358" lon="-99.267007"><ele>3341.0</ele><time>2020-06-06T14:43:38.000Z</time></trkpt>
   <trkpt lat="19.225401" lon="-99.267078"><ele>3342.7</ele><time>2020-06-06T14:43:48.000Z</time></trkpt>
   <trkpt lat="19.225266" lon="-99.267088"><ele>3345.6</ele><time>2020-06-06T14:43:58.000Z</time></trkpt>
   <trkpt lat="19.225044" lon="-99.267469"><ele>3355.9</ele><time>2020-06-06T14:45:07.000Z</time></trkpt>
   <trkpt lat="19.224603" lon="-99.267534"><ele>3361.9</ele><time>2020-06-06T14:45:51.000Z</time></trkpt>
   <trkpt lat="19.224484" lon="-99.267631"><ele>3362.9</ele><time>2020-06-06T14:46:07.000Z</time></trkpt>
   <trkpt lat="19.223679" lon="-99.267024"><ele>3370.1</ele><time>2020-06-06T14:47:46.000Z</time></trkpt>
   <trkpt lat="19.223516" lon="-99.267238"><ele>3373.5</ele><time>2020-06-06T14:48:07.000Z</time></trkpt>
   <trkpt lat="19.223331" lon="-99.267265"><ele>3375.9</ele><time>2020-06-06T14:48:23.000Z</time></trkpt>
   <trkpt lat="19.222995" lon="-99.267091"><ele>3381.0</ele><time>2020-06-06T14:49:04.000Z</time></trkpt>
   <trkpt lat="19.222889" lon="-99.266837"><ele>3383.4</ele><time>2020-06-06T14:49:37.000Z</time></trkpt>
   <trkpt lat="19.222955" lon="-99.266461"><ele>3390.1</ele><time>2020-06-06T14:50:51.000Z</time></trkpt>
   <trkpt lat="19.222785" lon="-99.266335"><ele>3395.0</ele><time>2020-06-06T14:51:21.000Z</time></trkpt>
   <trkpt lat="19.222788" lon="-99.266227"><ele>3397.0</ele><time>2020-06-06T14:51:34.000Z</time></trkpt>
   <trkpt lat="19.222982" lon="-99.265912"><ele>3400.6</ele><time>2020-06-06T14:52:20.000Z</time></trkpt>
   <trkpt lat="19.223599" lon="-99.265731"><ele>3407.6</ele><time>2020-06-06T14:53:46.000Z</time></trkpt>
   <trkpt lat="19.223945" lon="-99.265455"><ele>3413.5</ele><time>2020-06-06T14:54:39.000Z</time></trkpt>
   <trkpt lat="19.223961" lon="-99.265207"><ele>3416.3</ele><time>2020-06-06T14:55:07.000Z</time></trkpt>
   <trkpt lat="19.223867" lon="-99.265046"><ele>3417.5</ele><time>2020-06-06T14:55:24.000Z</time></trkpt>
   <trkpt lat="19.223347" lon="-99.264723"><ele>3416.1</ele><time>2020-06-06T14:56:36.000Z</time></trkpt>
   <trkpt lat="19.222978" lon="-99.264364"><ele>3413.2</ele><time>2020-06-06T14:57:17.000Z</time></trkpt>
   <trkpt lat="19.222639" lon="-99.264302"><ele>3411.4</ele><time>2020-06-06T14:58:01.000Z</time></trkpt>
   <trkpt lat="19.222371" lon="-99.263864"><ele>3406.9</ele><time>2020-06-06T14:59:27.000Z</time></trkpt>
   <trkpt lat="19.221800" lon="-99.263331"><ele>3405.8</ele><time>2020-06-06T15:00:46.000Z</time></trkpt>
   <trkpt lat="19.221288" lon="-99.263379"><ele>3408.6</ele><time>2020-06-06T15:01:40.000Z</time></trkpt>
   <trkpt lat="19.220681" lon="-99.263083"><ele>3418.1</ele><time>2020-06-06T15:03:00.000Z</time></trkpt>
   <trkpt lat="19.220358" lon="-99.263081"><ele>3423.1</ele><time>2020-06-06T15:04:00.000Z</time></trkpt>
   <trkpt lat="19.220109" lon="-99.262844"><ele>3425.8</ele><time>2020-06-06T15:04:39.000Z</time></trkpt>
   <trkpt lat="19.219744" lon="-99.262702"><ele>3428.4</ele><time>2020-06-06T15:05:19.000Z</time></trkpt>
   <trkpt lat="19.219583" lon="-99.262416"><ele>3428.6</ele><time>2020-06-06T15:05:51.000Z</time></trkpt>
   <trkpt lat="19.219208" lon="-99.262328"><ele>3430.4</ele><time>2020-06-06T15:06:29.000Z</time></trkpt>
   <trkpt lat="19.219120" lon="-99.262157"><ele>3431.4</ele><time>2020-06-06T15:06:48.000Z</time></trkpt>
   <trkpt lat="19.218907" lon="-99.261998"><ele>3433.0</ele><time>2020-06-06T15:07:16.000Z</time></trkpt>
   <trkpt lat="19.218837" lon="-99.261692"><ele>3433.9</ele><time>2020-06-06T15:07:49.000Z</time></trkpt>
   <trkpt lat="19.218880" lon="-99.261515"><ele>3434.5</ele><time>2020-06-06T15:08:04.000Z</time></trkpt>
   <trkpt lat="19.218730" lon="-99.261110"><ele>3437.0</ele><time>2020-06-06T15:08:56.000Z</time></trkpt>
   <trkpt lat="19.218774" lon="-99.260909"><ele>3438.6</ele><time>2020-06-06T15:09:17.000Z</time></trkpt>
   <trkpt lat="19.219035" lon="-99.260994"><ele>3440.4</ele><time>2020-06-06T15:09:55.000Z</time></trkpt>
   <trkpt lat="19.219291" lon="-99.260947"><ele>3446.8</ele><time>2020-06-06T15:10:27.000Z</time></trkpt>
   <trkpt lat="19.219398" lon="-99.260644"><ele>3455.9</ele><time>2020-06-06T15:11:57.000Z</time></trkpt>
   <trkpt lat="19.219406" lon="-99.260310"><ele>3463.5</ele><time>2020-06-06T15:12:05.000Z</time></trkpt>
   <trkpt lat="19.219503" lon="-99.260463"><ele>3468.8</ele><time>2020-06-06T15:12:28.000Z</time></trkpt>
   <trkpt lat="19.219555" lon="-99.260384"><ele>3471.2</ele><time>2020-06-06T15:13:35.000Z</time></trkpt>
   <trkpt lat="19.219768" lon="-99.259779"><ele>3490.4</ele><time>2020-06-06T15:17:46.000Z</time></trkpt>
   <trkpt lat="19.219760" lon="-99.259611"><ele>3496.4</ele><time>2020-06-06T15:18:29.000Z</time></trkpt>
   <trkpt lat="19.219931" lon="-99.259613"><ele>3504.1</ele><time>2020-06-06T15:20:52.000Z</time></trkpt>
   <trkpt lat="19.219961" lon="-99.259426"><ele>3506.0</ele><time>2020-06-06T15:32:04.000Z</time></trkpt>
   <trkpt lat="19.219300" lon="-99.258852"><ele>3526.3</ele><time>2020-06-06T15:36:05.000Z</time></trkpt>
   <trkpt lat="19.219287" lon="-99.258746"><ele>3531.4</ele><time>2020-06-06T15:36:59.000Z</time></trkpt>
   <trkpt lat="19.219087" lon="-99.258640"><ele>3543.1</ele><time>2020-06-06T15:38:31.000Z</time></trkpt>
   <trkpt lat="19.218794" lon="-99.258260"><ele>3573.1</ele><time>2020-06-06T15:42:36.000Z</time></trkpt>
   <trkpt lat="19.218402" lon="-99.258199"><ele>3589.0</ele><time>2020-06-06T15:47:09.000Z</time></trkpt>
   <trkpt lat="19.218055" lon="-99.257976"><ele>3597.0</ele><time>2020-06-06T15:48:17.000Z</time></trkpt>
   <trkpt lat="19.217786" lon="-99.257917"><ele>3605.4</ele><time>2020-06-06T15:50:17.000Z</time></trkpt>
   <trkpt lat="19.217633" lon="-99.257975"><ele>3613.6</ele><time>2020-06-06T15:52:53.000Z</time></trkpt>
   <trkpt lat="19.217497" lon="-99.257660"><ele>3622.4</ele><time>2020-06-06T15:54:36.000Z</time></trkpt>
   <trkpt lat="19.217289" lon="-99.257470"><ele>3630.3</ele><time>2020-06-06T15:56:17.000Z</time></trkpt>
   <trkpt lat="19.217025" lon="-99.257417"><ele>3644.9</ele><time>2020-06-06T15:59:06.000Z</time></trkpt>
   <trkpt lat="19.216933" lon="-99.257253"><ele>3656.2</ele><time>2020-06-06T16:00:37.000Z</time></trkpt>
   <trkpt lat="19.216696" lon="-99.257284"><ele>3671.6</ele><time>2020-06-06T16:03:18.000Z</time></trkpt>
   <trkpt lat="19.216541" lon="-99.257137"><ele>3680.2</ele><time>2020-06-06T16:05:19.000Z</time></trkpt>
   <trkpt lat="19.216193" lon="-99.257048"><ele>3693.5</ele><time>2020-06-06T16:09:11.000Z</time></trkpt>
   <trkpt lat="19.215876" lon="-99.257137"><ele>3713.0</ele><time>2020-06-06T16:12:47.000Z</time></trkpt>
   <trkpt lat="19.215852" lon="-99.257033"><ele>3717.5</ele><time>2020-06-06T16:13:18.000Z</time></trkpt>
   <trkpt lat="19.215791" lon="-99.257093"><ele>3721.3</ele><time>2020-06-06T16:13:46.000Z</time></trkpt>
   <trkpt lat="19.215398" lon="-99.256933"><ele>3757.4</ele><time>2020-06-06T16:20:21.000Z</time></trkpt>
   <trkpt lat="19.215234" lon="-99.256958"><ele>3770.2</ele><time>2020-06-06T16:22:21.000Z</time></trkpt>
   <trkpt lat="19.214822" lon="-99.256656"><ele>3800.1</ele><time>2020-06-06T16:35:41.000Z</time></trkpt>
   <trkpt lat="19.214670" lon="-99.256701"><ele>3807.0</ele><time>2020-06-06T16:36:44.000Z</time></trkpt>
   <trkpt lat="19.214493" lon="-99.256584"><ele>3818.5</ele><time>2020-06-06T16:38:35.000Z</time></trkpt>
   <trkpt lat="19.214365" lon="-99.256629"><ele>3825.5</ele><time>2020-06-06T16:39:51.000Z</time></trkpt>
   <trkpt lat="19.214298" lon="-99.256540"><ele>3830.3</ele><time>2020-06-06T16:40:47.000Z</time></trkpt>
   <trkpt lat="19.213259" lon="-99.256868"><ele>3855.4</ele><time>2020-06-06T16:49:40.000Z</time></trkpt>
   <trkpt lat="19.212939" lon="-99.257058"><ele>3865.8</ele><time>2020-06-06T16:51:42.000Z</time></trkpt>
   <trkpt lat="19.212923" lon="-99.257010"><ele>3867.0</ele><time>2020-06-06T16:52:08.000Z</time></trkpt>
   <trkpt lat="19.212984" lon="-99.257034"><ele>3868.0</ele><time>2020-06-06T16:52:46.000Z</time></trkpt>
   <trkpt lat="19.212874" lon="-99.257121"><ele>3871.4</ele><time>2020-06-06T16:56:52.000Z</time></trkpt>
   <trkpt lat="19.212470" lon="-99.257090"><ele>3875.4</ele><time>2020-06-06T16:59:06.000Z</time></trkpt>
   <trkpt lat="19.212495" lon="-99.257143"><ele>3875.4</ele><time>2020-06-06T16:59:19.000Z</time></trkpt>
   <trkpt lat="19.212327" lon="-99.257245"><ele>3875.7</ele><time>2020-06-06T17:03:27.000Z</time></trkpt>
   <trkpt lat="19.212368" lon="-99.257328"><ele>3876.2</ele><time>2020-06-06T17:04:17.000Z</time></trkpt>
   <trkpt lat="19.212273" lon="-99.257503"><ele>3872.3</ele><time>2020-06-06T17:07:02.000Z</time></trkpt>
   <trkpt lat="19.211910" lon="-99.257380"><ele>3847.4</ele><time>2020-06-06T17:09:37.000Z</time></trkpt>
   <trkpt lat="19.211752" lon="-99.257470"><ele>3838.5</ele><time>2020-06-06T17:10:24.000Z</time></trkpt>
   <trkpt lat="19.211536" lon="-99.257445"><ele>3828.7</ele><time>2020-06-06T17:10:51.000Z</time></trkpt>
   <trkpt lat="19.210407" lon="-99.257009"><ele>3822.9</ele><time>2020-06-06T17:14:54.000Z</time></trkpt>
   <trkpt lat="19.209899" lon="-99.257005"><ele>3843.8</ele><time>2020-06-06T17:17:13.000Z</time></trkpt>
   <trkpt lat="19.209438" lon="-99.257300"><ele>3863.5</ele><time>2020-06-06T17:21:55.000Z</time></trkpt>
   <trkpt lat="19.208571" lon="-99.257279"><ele>3889.8</ele><time>2020-06-06T17:25:07.000Z</time></trkpt>
   <trkpt lat="19.208400" lon="-99.257331"><ele>3897.4</ele><time>2020-06-06T17:25:36.000Z</time></trkpt>
   <trkpt lat="19.207983" lon="-99.257772"><ele>3915.1</ele><time>2020-06-06T17:27:40.000Z</time></trkpt>
   <trkpt lat="19.207719" lon="-99.257929"><ele>3925.4</ele><time>2020-06-06T17:28:38.000Z</time></trkpt>
   <trkpt lat="19.207565" lon="-99.258216"><ele>3929.3</ele><time>2020-06-06T17:29:31.000Z</time></trkpt>
   <trkpt lat="19.207673" lon="-99.258312"><ele>3930.2</ele><time>2020-06-06T17:30:48.000Z</time></trkpt>
   <trkpt lat="19.207519" lon="-99.258208"><ele>3924.4</ele><time>2020-06-06T17:59:01.000Z</time></trkpt>
   <trkpt lat="19.208041" lon="-99.258876"><ele>3899.4</ele><time>2020-06-06T18:02:10.000Z</time></trkpt>
   <trkpt lat="19.208021" lon="-99.259164"><ele>3889.9</ele><time>2020-06-06T18:03:10.000Z</time></trkpt>
   <trkpt lat="19.208582" lon="-99.260227"><ele>3862.9</ele><time>2020-06-06T18:05:51.000Z</time></trkpt>
   <trkpt lat="19.208564" lon="-99.260581"><ele>3857.2</ele><time>2020-06-06T18:06:57.000Z</time></trkpt>
   <trkpt lat="19.209061" lon="-99.261002"><ele>3855.1</ele><time>2020-06-06T18:08:23.000Z</time></trkpt>
   <trkpt lat="19.209350" lon="-99.261354"><ele>3853.9</ele><time>2020-06-06T18:09:18.000Z</time></trkpt>
   <trkpt lat="19.209671" lon="-99.261950"><ele>3849.8</ele><time>2020-06-06T18:10:29.000Z</time></trkpt>
   <trkpt lat="19.209879" lon="-99.262155"><ele>3848.6</ele><time>2020-06-06T18:11:06.000Z</time></trkpt>
   <trkpt lat="19.210389" lon="-99.262359"><ele>3841.0</ele><time>2020-06-06T18:12:24.000Z</time></trkpt>
   <trkpt lat="19.210625" lon="-99.262583"><ele>3836.8</ele><time>2020-06-06T18:13:08.000Z</time></trkpt>
   <trkpt lat="19.210724" lon="-99.262581"><ele>3835.2</ele><time>2020-06-06T18:13:30.000Z</time></trkpt>
   <trkpt lat="19.211009" lon="-99.262894"><ele>3829.1</ele><time>2020-06-06T18:14:16.000Z</time></trkpt>
   <trkpt lat="19.211552" lon="-99.263093"><ele>3832.6</ele><time>2020-06-06T18:16:09.000Z</time></trkpt>
   <trkpt lat="19.211889" lon="-99.264127"><ele>3828.6</ele><time>2020-06-06T18:18:18.000Z</time></trkpt>
   <trkpt lat="19.212213" lon="-99.264293"><ele>3821.2</ele><time>2020-06-06T18:19:23.000Z</time></trkpt>
   <trkpt lat="19.212683" lon="-99.264888"><ele>3811.4</ele><time>2020-06-06T18:21:18.000Z</time></trkpt>
   <trkpt lat="19.212952" lon="-99.265089"><ele>3810.3</ele><time>2020-06-06T18:22:09.000Z</time></trkpt>
   <trkpt lat="19.213356" lon="-99.265192"><ele>3799.6</ele><time>2020-06-06T18:23:48.000Z</time></trkpt>
   <trkpt lat="19.213616" lon="-99.265388"><ele>3788.8</ele><time>2020-06-06T18:25:03.000Z</time></trkpt>
   <trkpt lat="19.214695" lon="-99.265671"><ele>3763.1</ele><time>2020-06-06T18:29:13.000Z</time></trkpt>
   <trkpt lat="19.214921" lon="-99.265560"><ele>3758.0</ele><time>2020-06-06T18:29:39.000Z</time></trkpt>
   <trkpt lat="19.215252" lon="-99.265618"><ele>3750.8</ele><time>2020-06-06T18:30:54.000Z</time></trkpt>
   <trkpt lat="19.215787" lon="-99.265508"><ele>3742.7</ele><time>2020-06-06T18:32:27.000Z</time></trkpt>
   <trkpt lat="19.216476" lon="-99.265577"><ele>3719.1</ele><time>2020-06-06T18:34:45.000Z</time></trkpt>
   <trkpt lat="19.217031" lon="-99.265484"><ele>3683.8</ele><time>2020-06-06T18:38:26.000Z</time></trkpt>
   <trkpt lat="19.217120" lon="-99.265375"><ele>3684.4</ele><time>2020-06-06T18:45:16.000Z</time></trkpt>
   <trkpt lat="19.217268" lon="-99.265416"><ele>3674.3</ele><time>2020-06-06T18:46:50.000Z</time></trkpt>
   <trkpt lat="19.217310" lon="-99.265537"><ele>3668.6</ele><time>2020-06-06T18:47:45.000Z</time></trkpt>
   <trkpt lat="19.217750" lon="-99.265397"><ele>3641.5</ele><time>2020-06-06T18:53:44.000Z</time></trkpt>
   <trkpt lat="19.217741" lon="-99.265343"><ele>3636.0</ele><time>2020-06-06T18:57:20.000Z</time></trkpt>
   <trkpt lat="19.217790" lon="-99.265381"><ele>3633.6</ele><time>2020-06-06T18:57:43.000Z</time></trkpt>
   <trkpt lat="19.217834" lon="-99.265257"><ele>3627.3</ele><time>2020-06-06T18:59:07.000Z</time></trkpt>
   <trkpt lat="19.218002" lon="-99.265326"><ele>3617.9</ele><time>2020-06-06T19:01:06.000Z</time></trkpt>
   <trkpt lat="19.218126" lon="-99.265263"><ele>3608.8</ele><time>2020-06-06T19:03:01.000Z</time></trkpt>
   <trkpt lat="19.218166" lon="-99.265333"><ele>3606.3</ele><time>2020-06-06T19:03:13.000Z</time></trkpt>
   <trkpt lat="19.218661" lon="-99.265141"><ele>3579.6</ele><time>2020-06-06T19:08:21.000Z</time></trkpt>
   <trkpt lat="19.218776" lon="-99.265240"><ele>3572.3</ele><time>2020-06-06T19:09:52.000Z</time></trkpt>
   <trkpt lat="19.219083" lon="-99.265180"><ele>3555.2</ele><time>2020-06-06T19:15:13.000Z</time></trkpt>
   <trkpt lat="19.219277" lon="-99.265283"><ele>3547.7</ele><time>2020-06-06T19:16:00.000Z</time></trkpt>
   <trkpt lat="19.219226" lon="-99.265248"><ele>3545.5</ele><time>2020-06-06T19:17:10.000Z</time></trkpt>
   <trkpt lat="19.219517" lon="-99.265131"><ele>3532.7</ele><time>2020-06-06T19:19:38.000Z</time></trkpt>
   <trkpt lat="19.219624" lon="-99.265233"><ele>3527.5</ele><time>2020-06-06T19:20:42.000Z</time></trkpt>
   <trkpt lat="19.219699" lon="-99.265143"><ele>3523.6</ele><time>2020-06-06T19:22:09.000Z</time></trkpt>
   <trkpt lat="19.219799" lon="-99.265244"><ele>3517.1</ele><time>2020-06-06T19:23:18.000Z</time></trkpt>
   <trkpt lat="19.219873" lon="-99.265189"><ele>3513.6</ele><time>2020-06-06T19:25:51.000Z</time></trkpt>
   <trkpt lat="19.219996" lon="-99.265279"><ele>3508.3</ele><time>2020-06-06T19:27:10.000Z</time></trkpt>
   <trkpt lat="19.220304" lon="-99.265213"><ele>3499.2</ele><time>2020-06-06T19:28:26.000Z</time></trkpt>
   <trkpt lat="19.220411" lon="-99.265303"><ele>3495.8</ele><time>2020-06-06T19:28:45.000Z</time></trkpt>
   <trkpt lat="19.220633" lon="-99.265281"><ele>3487.2</ele><time>2020-06-06T19:30:56.000Z</time></trkpt>
   <trkpt lat="19.220632" lon="-99.265190"><ele>3484.6</ele><time>2020-06-06T19:31:20.000Z</time></trkpt>
   <trkpt lat="19.220713" lon="-99.265305"><ele>3479.8</ele><time>2020-06-06T19:31:52.000Z</time></trkpt>
   <trkpt lat="19.220904" lon="-99.265192"><ele>3470.3</ele><time>2020-06-06T19:33:21.000Z</time></trkpt>
   <trkpt lat="19.221151" lon="-99.265351"><ele>3462.6</ele><time>2020-06-06T19:35:54.000Z</time></trkpt>
   <trkpt lat="19.221132" lon="-99.265288"><ele>3459.4</ele><time>2020-06-06T19:36:31.000Z</time></trkpt>
   <trkpt lat="19.221261" lon="-99.265276"><ele>3454.7</ele><time>2020-06-06T19:37:17.000Z</time></trkpt>
   <trkpt lat="19.221529" lon="-99.265348"><ele>3443.8</ele><time>2020-06-06T19:39:02.000Z</time></trkpt>
   <trkpt lat="19.221663" lon="-99.265476"><ele>3438.2</ele><time>2020-06-06T19:39:57.000Z</time></trkpt>
   <trkpt lat="19.221622" lon="-99.265428"><ele>3436.0</ele><time>2020-06-06T19:40:20.000Z</time></trkpt>
   <trkpt lat="19.221753" lon="-99.265401"><ele>3432.0</ele><time>2020-06-06T19:43:44.000Z</time></trkpt>
   <trkpt lat="19.221693" lon="-99.265439"><ele>3430.5</ele><time>2020-06-06T19:43:52.000Z</time></trkpt>
   <trkpt lat="19.221851" lon="-99.265495"><ele>3425.6</ele><time>2020-06-06T19:44:43.000Z</time></trkpt>
   <trkpt lat="19.221911" lon="-99.265670"><ele>3421.7</ele><time>2020-06-06T19:45:04.000Z</time></trkpt>
   <trkpt lat="19.222007" lon="-99.265617"><ele>3418.7</ele><time>2020-06-06T19:45:30.000Z</time></trkpt>
   <trkpt lat="19.222132" lon="-99.265752"><ele>3414.8</ele><time>2020-06-06T19:46:05.000Z</time></trkpt>
   <trkpt lat="19.222519" lon="-99.265792"><ele>3408.9</ele><time>2020-06-06T19:47:57.000Z</time></trkpt>
   <trkpt lat="19.222713" lon="-99.265978"><ele>3405.7</ele><time>2020-06-06T19:48:26.000Z</time></trkpt>
   <trkpt lat="19.222780" lon="-99.265944"><ele>3404.8</ele><time>2020-06-06T19:48:38.000Z</time></trkpt>
   <trkpt lat="19.222875" lon="-99.266182"><ele>3399.3</ele><time>2020-06-06T19:52:31.000Z</time></trkpt>
   <trkpt lat="19.222817" lon="-99.266169"><ele>3398.7</ele><time>2020-06-06T19:52:38.000Z</time></trkpt>
   <trkpt lat="19.222748" lon="-99.266416"><ele>3393.4</ele><time>2020-06-06T19:53:14.000Z</time></trkpt>
   <trkpt lat="19.223030" lon="-99.266512"><ele>3386.4</ele><time>2020-06-06T19:53:39.000Z</time></trkpt>
   <trkpt lat="19.222875" lon="-99.266681"><ele>3383.0</ele><time>2020-06-06T19:54:02.000Z</time></trkpt>
   <trkpt lat="19.222891" lon="-99.267053"><ele>3379.5</ele><time>2020-06-06T19:54:24.000Z</time></trkpt>
   <trkpt lat="19.222997" lon="-99.267261"><ele>3376.4</ele><time>2020-06-06T19:54:45.000Z</time></trkpt>
   <trkpt lat="19.223320" lon="-99.267333"><ele>3372.1</ele><time>2020-06-06T19:55:11.000Z</time></trkpt>
   <trkpt lat="19.224137" lon="-99.267184"><ele>3366.8</ele><time>2020-06-06T19:56:37.000Z</time></trkpt>
   <trkpt lat="19.224455" lon="-99.266750"><ele>3377.7</ele><time>2020-06-06T19:57:15.000Z</time></trkpt>
   <trkpt lat="19.224811" lon="-99.266724"><ele>3371.9</ele><time>2020-06-06T19:57:50.000Z</time></trkpt>
   <trkpt lat="19.224826" lon="-99.266353"><ele>3376.4</ele><time>2020-06-06T19:58:27.000Z</time></trkpt>
   <trkpt lat="19.224742" lon="-99.266708"><ele>3373.7</ele><time>2020-06-06T19:59:17.000Z</time></trkpt>
   <trkpt lat="19.224946" lon="-99.266967"><ele>3367.1</ele><time>2020-06-06T20:00:02.000Z</time></trkpt>
   <trkpt lat="19.225234" lon="-99.266941"><ele>3364.5</ele><time>2020-06-06T20:00:39.000Z</time></trkpt>
   <trkpt lat="19.225707" lon="-99.267034"><ele>3348.5</ele><time>2020-06-06T20:01:50.000Z</time></trkpt>
   <trkpt lat="19.225654" lon="-99.267082"><ele>3351.4</ele><time>2020-06-06T20:02:33.000Z</time></trkpt>
   <trkpt lat="19.225827" lon="-99.266922"><ele>3344.3</ele><time>2020-06-06T20:03:00.000Z</time></trkpt>
   <trkpt lat="19.226005" lon="-99.267022"><ele>3331.2</ele><time>2020-06-06T20:07:02.000Z</time></trkpt>
   <trkpt lat="19.225860" lon="-99.267256"><ele>3335.2</ele><time>2020-06-06T20:08:02.000Z</time></trkpt>
   <trkpt lat="19.225933" lon="-99.267358"><ele>3326.1</ele><time>2020-06-06T20:08:27.000Z</time></trkpt>
   <trkpt lat="19.225982" lon="-99.267317"><ele>3326.6</ele><time>2020-06-06T20:08:46.000Z</time></trkpt>
   <trkpt lat="19.225949" lon="-99.267382"><ele>3325.1</ele><time>2020-06-06T20:09:04.000Z</time></trkpt>
   <trkpt lat="19.226020" lon="-99.267414"><ele>3322.9</ele><time>2020-06-06T20:10:35.000Z</time></trkpt>
   <trkpt lat="19.226045" lon="-99.267326"><ele>3324.3</ele><time>2020-06-06T20:10:47.000Z</time></trkpt>
   <trkpt lat="19.226003" lon="-99.267398"><ele>3322.9</ele><time>2020-06-06T20:11:09.000Z</time></trkpt>
   <trkpt lat="19.226401" lon="-99.267573"><ele>3318.3</ele><time>2020-06-06T20:11:56.000Z</time></trkpt>
   <trkpt lat="19.226635" lon="-99.267392"><ele>3315.0</ele><time>2020-06-06T20:12:26.000Z</time></trkpt>
  </trkseg>
 </trk>
</gpx>
