<?xml version="1.0" encoding="UTF-8"?>
<gpx version="1.1" creator="Strava (via strava-mcp)" xmlns="http://www.topografix.com/GPX/1/1">
 <metadata><name>Cerro Pelón (monarchs)</name><time>2021-03-13T17:11:31.000Z</time></metadata>
 <trk>
  <name>Cerro Pelón (monarchs)</name>
  <type>Hike</type>
  <trkseg>
   <trkpt lat="19.365534" lon="-100.287836"><ele>2470.8</ele><time>2021-03-13T17:11:31.000Z</time></trkpt>
   <trkpt lat="19.365692" lon="-100.287639"><ele>2475.4</ele><time>2021-03-13T17:12:10.000Z</time></trkpt>
   <trkpt lat="19.366192" lon="-100.287439"><ele>2485.0</ele><time>2021-03-13T17:13:12.000Z</time></trkpt>
   <trkpt lat="19.366397" lon="-100.287093"><ele>2492.1</ele><time>2021-03-13T17:13:51.000Z</time></trkpt>
   <trkpt lat="19.366726" lon="-100.286864"><ele>2497.6</ele><time>2021-03-13T17:14:35.000Z</time></trkpt>
   <trkpt lat="19.366931" lon="-100.286487"><ele>2502.9</ele><time>2021-03-13T17:15:52.000Z</time></trkpt>
   <trkpt lat="19.366947" lon="-100.286041"><ele>2507.9</ele><time>2021-03-13T17:16:41.000Z</time></trkpt>
   <trkpt lat="19.367264" lon="-100.285685"><ele>2513.5</ele><time>2021-03-13T17:17:32.000Z</time></trkpt>
   <trkpt lat="19.367241" lon="-100.285326"><ele>2517.9</ele><time>2021-03-13T17:18:19.000Z</time></trkpt>
   <trkpt lat="19.367410" lon="-100.285068"><ele>2521.4</ele><time>2021-03-13T17:18:49.000Z</time></trkpt>
   <trkpt lat="19.367710" lon="-100.284904"><ele>2525.4</ele><time>2021-03-13T17:19:16.000Z</time></trkpt>
   <trkpt lat="19.367829" lon="-100.284625"><ele>2528.8</ele><time>2021-03-13T17:19:41.000Z</time></trkpt>
   <trkpt lat="19.368172" lon="-100.284266"><ele>2534.6</ele><time>2021-03-13T17:20:38.000Z</time></trkpt>
   <trkpt lat="19.368351" lon="-100.284141"><ele>2537.3</ele><time>2021-03-13T17:21:08.000Z</time></trkpt>
   <trkpt lat="19.368939" lon="-100.284096"><ele>2546.0</ele><time>2021-03-13T17:22:36.000Z</time></trkpt>
   <trkpt lat="19.369217" lon="-100.283800"><ele>2552.4</ele><time>2021-03-13T17:23:06.000Z</time></trkpt>
   <trkpt lat="19.369158" lon="-100.283642"><ele>2551.1</ele><time>2021-03-13T17:23:26.000Z</time></trkpt>
   <trkpt lat="19.369213" lon="-100.283456"><ele>2554.4</ele><time>2021-03-13T17:23:42.000Z</time></trkpt>
   <trkpt lat="19.369419" lon="-100.283391"><ele>2557.1</ele><time>2021-03-13T17:24:10.000Z</time></trkpt>
   <trkpt lat="19.369528" lon="-100.283176"><ele>2561.6</ele><time>2021-03-13T17:24:33.000Z</time></trkpt>
   <trkpt lat="19.369637" lon="-100.283124"><ele>2563.4</ele><time>2021-03-13T17:24:47.000Z</time></trkpt>
   <trkpt lat="19.369795" lon="-100.283181"><ele>2564.8</ele><time>2021-03-13T17:25:05.000Z</time></trkpt>
   <trkpt lat="19.370450" lon="-100.282548"><ele>2585.7</ele><time>2021-03-13T17:27:04.000Z</time></trkpt>
   <trkpt lat="19.370931" lon="-100.282362"><ele>2594.8</ele><time>2021-03-13T17:28:07.000Z</time></trkpt>
   <trkpt lat="19.371162" lon="-100.281976"><ele>2605.7</ele><time>2021-03-13T17:29:02.000Z</time></trkpt>
   <trkpt lat="19.371615" lon="-100.281621"><ele>2619.2</ele><time>2021-03-13T17:30:33.000Z</time></trkpt>
   <trkpt lat="19.371647" lon="-100.281520"><ele>2621.3</ele><time>2021-03-13T17:30:42.000Z</time></trkpt>
   <trkpt lat="19.371547" lon="-100.281258"><ele>2624.9</ele><time>2021-03-13T17:31:09.000Z</time></trkpt>
   <trkpt lat="19.371636" lon="-100.281143"><ele>2627.8</ele><time>2021-03-13T17:31:42.000Z</time></trkpt>
   <trkpt lat="19.371725" lon="-100.281161"><ele>2630.3</ele><time>2021-03-13T17:32:02.000Z</time></trkpt>
   <trkpt lat="19.371776" lon="-100.280988"><ele>2635.0</ele><time>2021-03-13T17:32:24.000Z</time></trkpt>
   <trkpt lat="19.372210" lon="-100.280789"><ele>2653.0</ele><time>2021-03-13T17:34:13.000Z</time></trkpt>
   <trkpt lat="19.372395" lon="-100.280791"><ele>2658.7</ele><time>2021-03-13T17:34:38.000Z</time></trkpt>
   <trkpt lat="19.372565" lon="-100.280617"><ele>2657.9</ele><time>2021-03-13T17:35:17.000Z</time></trkpt>
   <trkpt lat="19.373265" lon="-100.280472"><ele>2670.8</ele><time>2021-03-13T17:36:29.000Z</time></trkpt>
   <trkpt lat="19.374071" lon="-100.279813"><ele>2684.9</ele><time>2021-03-13T17:38:30.000Z</time></trkpt>
   <trkpt lat="19.374439" lon="-100.279774"><ele>2696.9</ele><time>2021-03-13T17:39:43.000Z</time></trkpt>
   <trkpt lat="19.374356" lon="-100.279721"><ele>2692.9</ele><time>2021-03-13T17:39:50.000Z</time></trkpt>
   <trkpt lat="19.374398" lon="-100.279559"><ele>2692.8</ele><time>2021-03-13T17:40:07.000Z</time></trkpt>
   <trkpt lat="19.374509" lon="-100.279512"><ele>2696.2</ele><time>2021-03-13T17:40:31.000Z</time></trkpt>
   <trkpt lat="19.374546" lon="-100.279581"><ele>2698.7</ele><time>2021-03-13T17:40:42.000Z</time></trkpt>
   <trkpt lat="19.374641" lon="-100.279374"><ele>2706.5</ele><time>2021-03-13T17:41:03.000Z</time></trkpt>
   <trkpt lat="19.374864" lon="-100.279254"><ele>2715.9</ele><time>2021-03-13T17:41:36.000Z</time></trkpt>
   <trkpt lat="19.375603" lon="-100.278969"><ele>2748.6</ele><time>2021-03-13T17:42:57.000Z</time></trkpt>
   <trkpt lat="19.375770" lon="-100.279029"><ele>2760.5</ele><time>2021-03-13T17:43:38.000Z</time></trkpt>
   <trkpt lat="19.375597" lon="-100.279197"><ele>2749.6</ele><time>2021-03-13T17:44:44.000Z</time></trkpt>
   <trkpt lat="19.375716" lon="-100.278989"><ele>2755.9</ele><time>2021-03-13T17:45:52.000Z</time></trkpt>
   <trkpt lat="19.376085" lon="-100.279008"><ele>2774.2</ele><time>2021-03-13T17:47:17.000Z</time></trkpt>
   <trkpt lat="19.376449" lon="-100.278806"><ele>2785.2</ele><time>2021-03-13T17:47:35.000Z</time></trkpt>
   <trkpt lat="19.376549" lon="-100.278808"><ele>2789.3</ele><time>2021-03-13T17:48:08.000Z</time></trkpt>
   <trkpt lat="19.376585" lon="-100.278901"><ele>2791.0</ele><time>2021-03-13T17:48:35.000Z</time></trkpt>
   <trkpt lat="19.376820" lon="-100.278737"><ele>2799.0</ele><time>2021-03-13T17:49:04.000Z</time></trkpt>
   <trkpt lat="19.376909" lon="-100.278829"><ele>2804.1</ele><time>2021-03-13T17:49:27.000Z</time></trkpt>
   <trkpt lat="19.377176" lon="-100.278495"><ele>2811.4</ele><time>2021-03-13T17:50:09.000Z</time></trkpt>
   <trkpt lat="19.377127" lon="-100.278907"><ele>2813.2</ele><time>2021-03-13T17:51:38.000Z</time></trkpt>
   <trkpt lat="19.377712" lon="-100.278617"><ele>2831.0</ele><time>2021-03-13T17:53:22.000Z</time></trkpt>
   <trkpt lat="19.377490" lon="-100.278444"><ele>2821.2</ele><time>2021-03-13T17:53:52.000Z</time></trkpt>
   <trkpt lat="19.377357" lon="-100.278434"><ele>2817.4</ele><time>2021-03-13T17:53:58.000Z</time></trkpt>
   <trkpt lat="19.377716" lon="-100.278421"><ele>2832.0</ele><time>2021-03-13T17:54:17.000Z</time></trkpt>
   <trkpt lat="19.378355" lon="-100.278144"><ele>2852.9</ele><time>2021-03-13T17:56:52.000Z</time></trkpt>
   <trkpt lat="19.378426" lon="-100.278041"><ele>2856.7</ele><time>2021-03-13T17:57:03.000Z</time></trkpt>
   <trkpt lat="19.378614" lon="-100.278004"><ele>2862.4</ele><time>2021-03-13T17:57:17.000Z</time></trkpt>
   <trkpt lat="19.378764" lon="-100.277778"><ele>2869.7</ele><time>2021-03-13T17:58:06.000Z</time></trkpt>
   <trkpt lat="19.378912" lon="-100.277766"><ele>2874.8</ele><time>2021-03-13T17:58:39.000Z</time></trkpt>
   <trkpt lat="19.378812" lon="-100.277683"><ele>2873.8</ele><time>2021-03-13T17:58:51.000Z</time></trkpt>
   <trkpt lat="19.378998" lon="-100.277650"><ele>2879.1</ele><time>2021-03-13T17:59:01.000Z</time></trkpt>
   <trkpt lat="19.379157" lon="-100.277696"><ele>2880.6</ele><time>2021-03-13T17:59:29.000Z</time></trkpt>
   <trkpt lat="19.379273" lon="-100.277964"><ele>2882.8</ele><time>2021-03-13T18:00:08.000Z</time></trkpt>
   <trkpt lat="19.379493" lon="-100.278070"><ele>2889.8</ele><time>2021-03-13T18:00:44.000Z</time></trkpt>
   <trkpt lat="19.379773" lon="-100.277971"><ele>2895.1</ele><time>2021-03-13T18:01:53.000Z</time></trkpt>
   <trkpt lat="19.380420" lon="-100.278161"><ele>2902.7</ele><time>2021-03-13T18:03:09.000Z</time></trkpt>
   <trkpt lat="19.380493" lon="-100.278252"><ele>2901.9</ele><time>2021-03-13T18:03:44.000Z</time></trkpt>
   <trkpt lat="19.380599" lon="-100.278201"><ele>2903.7</ele><time>2021-03-13T18:03:57.000Z</time></trkpt>
   <trkpt lat="19.381020" lon="-100.278470"><ele>2913.8</ele><time>2021-03-13T18:04:42.000Z</time></trkpt>
   <trkpt lat="19.381135" lon="-100.278459"><ele>2915.0</ele><time>2021-03-13T18:05:00.000Z</time></trkpt>
   <trkpt lat="19.381494" lon="-100.278647"><ele>2915.1</ele><time>2021-03-13T18:06:03.000Z</time></trkpt>
   <trkpt lat="19.382094" lon="-100.278403"><ele>2908.3</ele><time>2021-03-13T18:08:20.000Z</time></trkpt>
   <trkpt lat="19.382158" lon="-100.278256"><ele>2910.3</ele><time>2021-03-13T18:08:36.000Z</time></trkpt>
   <trkpt lat="19.382526" lon="-100.278007"><ele>2916.5</ele><time>2021-03-13T18:09:29.000Z</time></trkpt>
   <trkpt lat="19.382821" lon="-100.277671"><ele>2935.1</ele><time>2021-03-13T18:11:07.000Z</time></trkpt>
   <trkpt lat="19.382997" lon="-100.277639"><ele>2942.2</ele><time>2021-03-13T18:12:00.000Z</time></trkpt>
   <trkpt lat="19.383230" lon="-100.277466"><ele>2951.0</ele><time>2021-03-13T18:13:09.000Z</time></trkpt>
   <trkpt lat="19.383767" lon="-100.277496"><ele>2958.8</ele><time>2021-03-13T18:15:08.000Z</time></trkpt>
   <trkpt lat="19.384085" lon="-100.277639"><ele>2961.5</ele><time>2021-03-13T18:15:46.000Z</time></trkpt>
   <trkpt lat="19.384546" lon="-100.277631"><ele>2965.5</ele><time>2021-03-13T18:16:56.000Z</time></trkpt>
   <trkpt lat="19.384880" lon="-100.277742"><ele>2968.7</ele><time>2021-03-13T18:17:56.000Z</time></trkpt>
   <trkpt lat="19.385425" lon="-100.277770"><ele>2973.3</ele><time>2021-03-13T18:19:13.000Z</time></trkpt>
   <trkpt lat="19.386048" lon="-100.277962"><ele>2978.7</ele><time>2021-03-13T18:20:45.000Z</time></trkpt>
   <trkpt lat="19.386162" lon="-100.278068"><ele>2980.0</ele><time>2021-03-13T18:21:07.000Z</time></trkpt>
   <trkpt lat="19.386307" lon="-100.278053"><ele>2981.2</ele><time>2021-03-13T18:21:28.000Z</time></trkpt>
   <trkpt lat="19.386554" lon="-100.277914"><ele>2983.6</ele><time>2021-03-13T18:22:33.000Z</time></trkpt>
   <trkpt lat="19.386832" lon="-100.277910"><ele>2986.0</ele><time>2021-03-13T18:23:07.000Z</time></trkpt>
   <trkpt lat="19.387083" lon="-100.277791"><ele>2988.2</ele><time>2021-03-13T18:23:30.000Z</time></trkpt>
   <trkpt lat="19.387287" lon="-100.277359"><ele>2992.1</ele><time>2021-03-13T18:24:18.000Z</time></trkpt>
   <trkpt lat="19.387209" lon="-100.276727"><ele>2997.5</ele><time>2021-03-13T18:25:56.000Z</time></trkpt>
   <trkpt lat="19.386662" lon="-100.276094"><ele>3002.4</ele><time>2021-03-13T18:27:38.000Z</time></trkpt>
   <trkpt lat="19.386660" lon="-100.275998"><ele>3001.2</ele><time>2021-03-13T18:28:34.000Z</time></trkpt>
   <trkpt lat="19.387168" lon="-100.275966"><ele>2999.5</ele><time>2021-03-13T18:29:26.000Z</time></trkpt>
   <trkpt lat="19.387415" lon="-100.276202"><ele>2998.2</ele><time>2021-03-13T18:29:57.000Z</time></trkpt>
   <trkpt lat="19.387661" lon="-100.276255"><ele>3002.5</ele><time>2021-03-13T18:30:22.000Z</time></trkpt>
   <trkpt lat="19.388052" lon="-100.276490"><ele>3002.7</ele><time>2021-03-13T18:31:19.000Z</time></trkpt>
   <trkpt lat="19.388579" lon="-100.276497"><ele>3003.5</ele><time>2021-03-13T18:32:20.000Z</time></trkpt>
   <trkpt lat="19.389339" lon="-100.276206"><ele>3005.2</ele><time>2021-03-13T18:34:19.000Z</time></trkpt>
   <trkpt lat="19.389981" lon="-100.275802"><ele>3016.5</ele><time>2021-03-13T18:35:46.000Z</time></trkpt>
   <trkpt lat="19.390445" lon="-100.275646"><ele>3023.8</ele><time>2021-03-13T18:36:31.000Z</time></trkpt>
   <trkpt lat="19.390639" lon="-100.275443"><ele>3027.8</ele><time>2021-03-13T18:37:11.000Z</time></trkpt>
   <trkpt lat="19.390624" lon="-100.275201"><ele>3029.5</ele><time>2021-03-13T18:37:35.000Z</time></trkpt>
   <trkpt lat="19.390890" lon="-100.274672"><ele>3026.9</ele><time>2021-03-13T18:38:30.000Z</time></trkpt>
   <trkpt lat="19.390870" lon="-100.274109"><ele>3032.9</ele><time>2021-03-13T18:40:00.000Z</time></trkpt>
   <trkpt lat="19.390709" lon="-100.273690"><ele>3047.7</ele><time>2021-03-13T18:40:52.000Z</time></trkpt>
   <trkpt lat="19.390733" lon="-100.273562"><ele>3051.8</ele><time>2021-03-13T18:41:21.000Z</time></trkpt>
   <trkpt lat="19.390511" lon="-100.273435"><ele>3060.7</ele><time>2021-03-13T18:42:18.000Z</time></trkpt>
   <trkpt lat="19.390424" lon="-100.273197"><ele>3068.9</ele><time>2021-03-13T18:42:57.000Z</time></trkpt>
   <trkpt lat="19.390063" lon="-100.272794"><ele>3083.7</ele><time>2021-03-13T18:44:58.000Z</time></trkpt>
   <trkpt lat="19.389709" lon="-100.272589"><ele>3100.1</ele><time>2021-03-13T18:45:31.000Z</time></trkpt>
   <trkpt lat="19.389567" lon="-100.272627"><ele>3104.0</ele><time>2021-03-13T18:45:50.000Z</time></trkpt>
   <trkpt lat="19.389286" lon="-100.272454"><ele>3105.1</ele><time>2021-03-13T18:46:39.000Z</time></trkpt>
   <trkpt lat="19.389184" lon="-100.272588"><ele>3105.4</ele><time>2021-03-13T18:47:04.000Z</time></trkpt>
   <trkpt lat="19.388901" lon="-100.272425"><ele>3105.7</ele><time>2021-03-13T18:48:12.000Z</time></trkpt>
   <trkpt lat="19.388871" lon="-100.272324"><ele>3106.8</ele><time>2021-03-13T18:48:55.000Z</time></trkpt>
   <trkpt lat="19.388908" lon="-100.272528"><ele>3105.8</ele><time>2021-03-13T18:50:01.000Z</time></trkpt>
   <trkpt lat="19.388756" lon="-100.272378"><ele>3104.8</ele><time>2021-03-13T18:50:36.000Z</time></trkpt>
   <trkpt lat="19.388519" lon="-100.272410"><ele>3103.2</ele><time>2021-03-13T18:51:12.000Z</time></trkpt>
   <trkpt lat="19.388354" lon="-100.272545"><ele>3102.0</ele><time>2021-03-13T18:51:27.000Z</time></trkpt>
   <trkpt lat="19.388103" lon="-100.272570"><ele>3100.5</ele><time>2021-03-13T18:51:53.000Z</time></trkpt>
   <trkpt lat="19.387822" lon="-100.272469"><ele>3098.7</ele><time>2021-03-13T18:52:24.000Z</time></trkpt>
   <trkpt lat="19.387560" lon="-100.272685"><ele>3096.8</ele><time>2021-03-13T18:52:48.000Z</time></trkpt>
   <trkpt lat="19.387204" lon="-100.272667"><ele>3094.2</ele><time>2021-03-13T18:53:54.000Z</time></trkpt>
   <trkpt lat="19.386628" lon="-100.272418"><ele>3090.6</ele><time>2021-03-13T18:54:53.000Z</time></trkpt>
   <trkpt lat="19.386406" lon="-100.272228"><ele>3088.9</ele><time>2021-03-13T18:55:20.000Z</time></trkpt>
   <trkpt lat="19.386245" lon="-100.272227"><ele>3088.0</ele><time>2021-03-13T18:55:39.000Z</time></trkpt>
   <trkpt lat="19.385854" lon="-100.271948"><ele>3085.2</ele><time>2021-03-13T18:56:41.000Z</time></trkpt>
   <trkpt lat="19.385504" lon="-100.271925"><ele>3087.6</ele><time>2021-03-13T18:57:22.000Z</time></trkpt>
   <trkpt lat="19.385305" lon="-100.271749"><ele>3089.8</ele><time>2021-03-13T18:57:53.000Z</time></trkpt>
   <trkpt lat="19.384914" lon="-100.271801"><ele>3093.0</ele><time>2021-03-13T18:58:26.000Z</time></trkpt>
   <trkpt lat="19.384575" lon="-100.271437"><ele>3098.0</ele><time>2021-03-13T19:00:03.000Z</time></trkpt>
   <trkpt lat="19.384233" lon="-100.271299"><ele>3101.0</ele><time>2021-03-13T19:00:53.000Z</time></trkpt>
   <trkpt lat="19.384258" lon="-100.271156"><ele>3102.2</ele><time>2021-03-13T19:01:18.000Z</time></trkpt>
   <trkpt lat="19.384042" lon="-100.271469"><ele>3105.2</ele><time>2021-03-13T19:02:12.000Z</time></trkpt>
   <trkpt lat="19.383936" lon="-100.271862"><ele>3111.0</ele><time>2021-03-13T19:04:01.000Z</time></trkpt>
   <trkpt lat="19.383908" lon="-100.271605"><ele>3106.2</ele><time>2021-03-13T19:04:26.000Z</time></trkpt>
   <trkpt lat="19.384084" lon="-100.271302"><ele>3108.4</ele><time>2021-03-13T19:04:59.000Z</time></trkpt>
   <trkpt lat="19.383823" lon="-100.271183"><ele>3106.9</ele><time>2021-03-13T19:05:35.000Z</time></trkpt>
   <trkpt lat="19.383748" lon="-100.271065"><ele>3106.5</ele><time>2021-03-13T19:05:43.000Z</time></trkpt>
   <trkpt lat="19.383774" lon="-100.270897"><ele>3105.1</ele><time>2021-03-13T19:06:31.000Z</time></trkpt>
   <trkpt lat="19.383709" lon="-100.270955"><ele>3104.7</ele><time>2021-03-13T19:06:43.000Z</time></trkpt>
   <trkpt lat="19.383634" lon="-100.270610"><ele>3094.0</ele><time>2021-03-13T19:07:01.000Z</time></trkpt>
   <trkpt lat="19.383625" lon="-100.269839"><ele>3076.3</ele><time>2021-03-13T19:08:40.000Z</time></trkpt>
   <trkpt lat="19.383491" lon="-100.269494"><ele>3058.5</ele><time>2021-03-13T19:09:11.000Z</time></trkpt>
   <trkpt lat="19.383373" lon="-100.269539"><ele>3051.6</ele><time>2021-03-13T19:09:50.000Z</time></trkpt>
   <trkpt lat="19.383329" lon="-100.269485"><ele>3048.6</ele><time>2021-03-13T19:10:05.000Z</time></trkpt>
   <trkpt lat="19.383292" lon="-100.269131"><ele>3045.9</ele><time>2021-03-13T19:11:36.000Z</time></trkpt>
   <trkpt lat="19.383123" lon="-100.268971"><ele>3036.2</ele><time>2021-03-13T19:42:57.000Z</time></trkpt>
   <trkpt lat="19.383194" lon="-100.268989"><ele>3041.7</ele><time>2021-03-13T19:43:37.000Z</time></trkpt>
   <trkpt lat="19.383240" lon="-100.268826"><ele>3043.5</ele><time>2021-03-13T19:44:41.000Z</time></trkpt>
   <trkpt lat="19.383018" lon="-100.268509"><ele>3026.5</ele><time>2021-03-13T19:45:50.000Z</time></trkpt>
   <trkpt lat="19.383240" lon="-100.268325"><ele>3030.1</ele><time>2021-03-13T19:46:31.000Z</time></trkpt>
   <trkpt lat="19.383499" lon="-100.268327"><ele>3038.0</ele><time>2021-03-13T19:47:02.000Z</time></trkpt>
   <trkpt lat="19.383354" lon="-100.268354"><ele>3034.6</ele><time>2021-03-13T19:47:27.000Z</time></trkpt>
   <trkpt lat="19.383447" lon="-100.268210"><ele>3031.0</ele><time>2021-03-13T19:47:57.000Z</time></trkpt>
   <trkpt lat="19.383237" lon="-100.268223"><ele>3025.8</ele><time>2021-03-13T19:48:33.000Z</time></trkpt>
   <trkpt lat="19.382893" lon="-100.268088"><ele>3010.9</ele><time>2021-03-13T19:48:55.000Z</time></trkpt>
   <trkpt lat="19.382597" lon="-100.268165"><ele>3004.9</ele><time>2021-03-13T19:49:34.000Z</time></trkpt>
   <trkpt lat="19.382303" lon="-100.268085"><ele>2992.7</ele><time>2021-03-13T19:50:26.000Z</time></trkpt>
   <trkpt lat="19.382199" lon="-100.268237"><ele>2990.6</ele><time>2021-03-13T19:51:00.000Z</time></trkpt>
   <trkpt lat="19.382288" lon="-100.268562"><ele>2996.5</ele><time>2021-03-13T19:52:10.000Z</time></trkpt>
   <trkpt lat="19.382259" lon="-100.269002"><ele>2987.4</ele><time>2021-03-13T19:53:16.000Z</time></trkpt>
   <trkpt lat="19.382213" lon="-100.268960"><ele>2986.9</ele><time>2021-03-13T19:53:25.000Z</time></trkpt>
   <trkpt lat="19.381975" lon="-100.269327"><ele>2974.8</ele><time>2021-03-13T19:55:18.000Z</time></trkpt>
   <trkpt lat="19.381831" lon="-100.269373"><ele>2969.1</ele><time>2021-03-13T19:55:29.000Z</time></trkpt>
   <trkpt lat="19.381767" lon="-100.269590"><ele>2969.0</ele><time>2021-03-13T19:55:45.000Z</time></trkpt>
   <trkpt lat="19.381366" lon="-100.269470"><ele>2951.5</ele><time>2021-03-13T19:56:31.000Z</time></trkpt>
   <trkpt lat="19.381216" lon="-100.269670"><ele>2950.7</ele><time>2021-03-13T19:56:51.000Z</time></trkpt>
   <trkpt lat="19.380678" lon="-100.269926"><ele>2944.9</ele><time>2021-03-13T19:57:59.000Z</time></trkpt>
   <trkpt lat="19.380496" lon="-100.270125"><ele>2948.4</ele><time>2021-03-13T19:58:30.000Z</time></trkpt>
   <trkpt lat="19.380219" lon="-100.270159"><ele>2940.7</ele><time>2021-03-13T19:59:09.000Z</time></trkpt>
   <trkpt lat="19.379965" lon="-100.270379"><ele>2943.1</ele><time>2021-03-13T20:00:20.000Z</time></trkpt>
   <trkpt lat="19.379357" lon="-100.270422"><ele>2937.5</ele><time>2021-03-13T20:00:53.000Z</time></trkpt>
   <trkpt lat="19.379354" lon="-100.270349"><ele>2931.1</ele><time>2021-03-13T20:01:10.000Z</time></trkpt>
   <trkpt lat="19.378913" lon="-100.270272"><ele>2908.6</ele><time>2021-03-13T20:03:15.000Z</time></trkpt>
   <trkpt lat="19.378685" lon="-100.270340"><ele>2908.4</ele><time>2021-03-13T20:03:52.000Z</time></trkpt>
   <trkpt lat="19.378755" lon="-100.270384"><ele>2914.2</ele><time>2021-03-13T20:03:59.000Z</time></trkpt>
   <trkpt lat="19.378654" lon="-100.270432"><ele>2913.4</ele><time>2021-03-13T20:04:09.000Z</time></trkpt>
   <trkpt lat="19.378429" lon="-100.270247"><ele>2892.2</ele><time>2021-03-13T20:04:24.000Z</time></trkpt>
   <trkpt lat="19.378419" lon="-100.270398"><ele>2899.7</ele><time>2021-03-13T20:04:41.000Z</time></trkpt>
   <trkpt lat="19.378078" lon="-100.270339"><ele>2888.1</ele><time>2021-03-13T20:05:21.000Z</time></trkpt>
   <trkpt lat="19.377838" lon="-100.270456"><ele>2888.6</ele><time>2021-03-13T20:06:17.000Z</time></trkpt>
   <trkpt lat="19.377563" lon="-100.270475"><ele>2884.7</ele><time>2021-03-13T20:06:49.000Z</time></trkpt>
   <trkpt lat="19.377247" lon="-100.270305"><ele>2852.7</ele><time>2021-03-13T20:07:33.000Z</time></trkpt>
   <trkpt lat="19.377135" lon="-100.270360"><ele>2846.6</ele><time>2021-03-13T20:08:05.000Z</time></trkpt>
   <trkpt lat="19.377199" lon="-100.270412"><ele>2855.7</ele><time>2021-03-13T20:08:16.000Z</time></trkpt>
   <trkpt lat="19.376953" lon="-100.270723"><ele>2853.2</ele><time>2021-03-13T20:08:46.000Z</time></trkpt>
   <trkpt lat="19.376829" lon="-100.271113"><ele>2843.3</ele><time>2021-03-13T20:09:22.000Z</time></trkpt>
   <trkpt lat="19.376827" lon="-100.271623"><ele>2852.5</ele><time>2021-03-13T20:10:01.000Z</time></trkpt>
   <trkpt lat="19.376645" lon="-100.271775"><ele>2841.4</ele><time>2021-03-13T20:10:18.000Z</time></trkpt>
   <trkpt lat="19.376638" lon="-100.272273"><ele>2857.3</ele><time>2021-03-13T20:11:05.000Z</time></trkpt>
   <trkpt lat="19.376228" lon="-100.272143"><ele>2832.9</ele><time>2021-03-13T20:12:08.000Z</time></trkpt>
   <trkpt lat="19.376045" lon="-100.272321"><ele>2833.6</ele><time>2021-03-13T20:12:36.000Z</time></trkpt>
   <trkpt lat="19.375132" lon="-100.272336"><ele>2802.7</ele><time>2021-03-13T20:14:19.000Z</time></trkpt>
   <trkpt lat="19.374982" lon="-100.272498"><ele>2808.1</ele><time>2021-03-13T20:14:54.000Z</time></trkpt>
   <trkpt lat="19.374857" lon="-100.272513"><ele>2803.0</ele><time>2021-03-13T20:15:10.000Z</time></trkpt>
   <trkpt lat="19.374888" lon="-100.272456"><ele>2801.5</ele><time>2021-03-13T20:15:50.000Z</time></trkpt>
   <trkpt lat="19.374589" lon="-100.272566"><ele>2798.8</ele><time>2021-03-13T20:17:14.000Z</time></trkpt>
   <trkpt lat="19.373889" lon="-100.272506"><ele>2765.1</ele><time>2021-03-13T20:18:37.000Z</time></trkpt>
   <trkpt lat="19.373536" lon="-100.273030"><ele>2750.3</ele><time>2021-03-13T20:20:01.000Z</time></trkpt>
   <trkpt lat="19.373735" lon="-100.273645"><ele>2767.0</ele><time>2021-03-13T20:21:14.000Z</time></trkpt>
   <trkpt lat="19.373689" lon="-100.273514"><ele>2760.3</ele><time>2021-03-13T20:21:18.000Z</time></trkpt>
   <trkpt lat="19.373539" lon="-100.273499"><ele>2745.9</ele><time>2021-03-13T20:21:31.000Z</time></trkpt>
   <trkpt lat="19.373177" lon="-100.273787"><ele>2724.5</ele><time>2021-03-13T20:22:06.000Z</time></trkpt>
   <trkpt lat="19.373228" lon="-100.273974"><ele>2733.2</ele><time>2021-03-13T20:22:35.000Z</time></trkpt>
   <trkpt lat="19.373115" lon="-100.273957"><ele>2723.9</ele><time>2021-03-13T20:23:44.000Z</time></trkpt>
   <trkpt lat="19.372792" lon="-100.274177"><ele>2715.3</ele><time>2021-03-13T20:24:14.000Z</time></trkpt>
   <trkpt lat="19.372982" lon="-100.274854"><ele>2709.2</ele><time>2021-03-13T20:25:14.000Z</time></trkpt>
   <trkpt lat="19.372939" lon="-100.274813"><ele>2708.4</ele><time>2021-03-13T20:25:21.000Z</time></trkpt>
   <trkpt lat="19.372898" lon="-100.274980"><ele>2705.0</ele><time>2021-03-13T20:25:29.000Z</time></trkpt>
   <trkpt lat="19.372616" lon="-100.275272"><ele>2696.5</ele><time>2021-03-13T20:26:08.000Z</time></trkpt>
   <trkpt lat="19.372671" lon="-100.275257"><ele>2696.6</ele><time>2021-03-13T20:26:35.000Z</time></trkpt>
   <trkpt lat="19.372650" lon="-100.275746"><ele>2716.5</ele><time>2021-03-13T20:27:07.000Z</time></trkpt>
   <trkpt lat="19.372347" lon="-100.275506"><ele>2699.1</ele><time>2021-03-13T20:27:44.000Z</time></trkpt>
   <trkpt lat="19.372082" lon="-100.275522"><ele>2696.7</ele><time>2021-03-13T20:28:04.000Z</time></trkpt>
   <trkpt lat="19.371910" lon="-100.275421"><ele>2686.2</ele><time>2021-03-13T20:28:20.000Z</time></trkpt>
   <trkpt lat="19.371383" lon="-100.275560"><ele>2688.7</ele><time>2021-03-13T20:29:05.000Z</time></trkpt>
   <trkpt lat="19.371022" lon="-100.275418"><ele>2685.8</ele><time>2021-03-13T20:29:54.000Z</time></trkpt>
   <trkpt lat="19.370408" lon="-100.275385"><ele>2664.5</ele><time>2021-03-13T20:30:50.000Z</time></trkpt>
   <trkpt lat="19.370225" lon="-100.275530"><ele>2664.5</ele><time>2021-03-13T20:31:10.000Z</time></trkpt>
   <trkpt lat="19.370542" lon="-100.276262"><ele>2674.4</ele><time>2021-03-13T20:32:29.000Z</time></trkpt>
   <trkpt lat="19.370568" lon="-100.276492"><ele>2670.7</ele><time>2021-03-13T20:32:54.000Z</time></trkpt>
   <trkpt lat="19.370508" lon="-100.276815"><ele>2665.3</ele><time>2021-03-13T20:33:24.000Z</time></trkpt>
   <trkpt lat="19.370111" lon="-100.277054"><ele>2646.2</ele><time>2021-03-13T20:33:56.000Z</time></trkpt>
   <trkpt lat="19.369944" lon="-100.277411"><ele>2647.5</ele><time>2021-03-13T20:34:24.000Z</time></trkpt>
   <trkpt lat="19.369884" lon="-100.277709"><ele>2651.7</ele><time>2021-03-13T20:35:06.000Z</time></trkpt>
   <trkpt lat="19.369961" lon="-100.278394"><ele>2634.4</ele><time>2021-03-13T20:36:03.000Z</time></trkpt>
   <trkpt lat="19.369867" lon="-100.278662"><ele>2628.2</ele><time>2021-03-13T20:36:21.000Z</time></trkpt>
   <trkpt lat="19.369868" lon="-100.279378"><ele>2622.2</ele><time>2021-03-13T20:37:09.000Z</time></trkpt>
   <trkpt lat="19.369506" lon="-100.279639"><ele>2619.6</ele><time>2021-03-13T20:37:43.000Z</time></trkpt>
   <trkpt lat="19.369489" lon="-100.279761"><ele>2619.4</ele><time>2021-03-13T20:38:00.000Z</time></trkpt>
   <trkpt lat="19.369265" lon="-100.279958"><ele>2615.2</ele><time>2021-03-13T20:38:20.000Z</time></trkpt>
   <trkpt lat="19.369280" lon="-100.280060"><ele>2614.0</ele><time>2021-03-13T20:38:54.000Z</time></trkpt>
   <trkpt lat="19.369068" lon="-100.280062"><ele>2611.0</ele><time>2021-03-13T20:39:11.000Z</time></trkpt>
   <trkpt lat="19.369517" lon="-100.280308"><ele>2612.5</ele><time>2021-03-13T20:40:04.000Z</time></trkpt>
   <trkpt lat="19.369830" lon="-100.280771"><ele>2608.2</ele><time>2021-03-13T20:40:43.000Z</time></trkpt>
   <trkpt lat="19.370118" lon="-100.280548"><ele>2612.4</ele><time>2021-03-13T20:41:11.000Z</time></trkpt>
   <trkpt lat="19.370258" lon="-100.280549"><ele>2612.5</ele><time>2021-03-13T20:41:26.000Z</time></trkpt>
   <trkpt lat="19.369880" lon="-100.280754"><ele>2608.9</ele><time>2021-03-13T20:42:37.000Z</time></trkpt>
   <trkpt lat="19.369347" lon="-100.280063"><ele>2615.5</ele><time>2021-03-13T20:43:50.000Z</time></trkpt>
   <trkpt lat="19.369130" lon="-100.280002"><ele>2612.2</ele><time>2021-03-13T20:44:12.000Z</time></trkpt>
   <trkpt lat="19.368779" lon="-100.280386"><ele>2599.1</ele><time>2021-03-13T20:45:04.000Z</time></trkpt>
   <trkpt lat="19.368817" lon="-100.280562"><ele>2596.2</ele><time>2021-03-13T20:45:23.000Z</time></trkpt>
   <trkpt lat="19.368711" lon="-100.280948"><ele>2588.1</ele><time>2021-03-13T20:45:53.000Z</time></trkpt>
   <trkpt lat="19.368832" lon="-100.281099"><ele>2585.8</ele><time>2021-03-13T20:46:08.000Z</time></trkpt>
   <trkpt lat="19.368765" lon="-100.281407"><ele>2579.8</ele><time>2021-03-13T20:46:33.000Z</time></trkpt>
   <trkpt lat="19.368826" lon="-100.281576"><ele>2576.9</ele><time>2021-03-13T20:46:45.000Z</time></trkpt>
   <trkpt lat="19.368660" lon="-100.281802"><ele>2573.1</ele><time>2021-03-13T20:47:06.000Z</time></trkpt>
   <trkpt lat="19.368996" lon="-100.282022"><ele>2568.8</ele><time>2021-03-13T20:47:51.000Z</time></trkpt>
   <trkpt lat="19.369031" lon="-100.282157"><ele>2568.5</ele><time>2021-03-13T20:48:00.000Z</time></trkpt>
   <trkpt lat="19.368838" lon="-100.282523"><ele>2562.0</ele><time>2021-03-13T20:48:36.000Z</time></trkpt>
   <trkpt lat="19.368941" lon="-100.282664"><ele>2559.3</ele><time>2021-03-13T20:48:48.000Z</time></trkpt>
   <trkpt lat="19.368863" lon="-100.283258"><ele>2550.7</ele><time>2021-03-13T20:49:39.000Z</time></trkpt>
   <trkpt lat="19.368615" lon="-100.283640"><ele>2545.5</ele><time>2021-03-13T20:50:24.000Z</time></trkpt>
   <trkpt lat="19.368530" lon="-100.284089"><ele>2540.4</ele><time>2021-03-13T20:51:01.000Z</time></trkpt>
   <trkpt lat="19.368048" lon="-100.284305"><ele>2533.7</ele><time>2021-03-13T20:51:51.000Z</time></trkpt>
   <trkpt lat="19.367987" lon="-100.284501"><ele>2531.4</ele><time>2021-03-13T20:52:06.000Z</time></trkpt>
   <trkpt lat="19.367673" lon="-100.284693"><ele>2527.2</ele><time>2021-03-13T20:52:35.000Z</time></trkpt>
   <trkpt lat="19.367439" lon="-100.285050"><ele>2522.4</ele><time>2021-03-13T20:53:05.000Z</time></trkpt>
   <trkpt lat="19.367312" lon="-100.285075"><ele>2520.8</ele><time>2021-03-13T20:53:17.000Z</time></trkpt>
   <trkpt lat="19.367143" lon="-100.285397"><ele>2516.6</ele><time>2021-03-13T20:53:40.000Z</time></trkpt>
   <trkpt lat="19.367212" lon="-100.285701"><ele>2513.1</ele><time>2021-03-13T20:54:12.000Z</time></trkpt>
   <trkpt lat="19.366991" lon="-100.285896"><ele>2509.7</ele><time>2021-03-13T20:54:36.000Z</time></trkpt>
   <trkpt lat="19.366822" lon="-100.286241"><ele>2505.2</ele><time>2021-03-13T20:55:09.000Z</time></trkpt>
   <trkpt lat="19.366863" lon="-100.286388"><ele>2503.5</ele><time>2021-03-13T20:55:34.000Z</time></trkpt>
   <trkpt lat="19.366781" lon="-100.286789"><ele>2498.9</ele><time>2021-03-13T20:56:08.000Z</time></trkpt>
   <trkpt lat="19.366437" lon="-100.286933"><ele>2493.3</ele><time>2021-03-13T20:56:35.000Z</time></trkpt>
   <trkpt lat="19.366249" lon="-100.287414"><ele>2485.1</ele><time>2021-03-13T20:57:18.000Z</time></trkpt>
   <trkpt lat="19.366050" lon="-100.287586"><ele>2480.8</ele><time>2021-03-13T20:57:36.000Z</time></trkpt>
   <trkpt lat="19.365559" lon="-100.287625"><ele>2473.3</ele><time>2021-03-13T20:58:10.000Z</time></trkpt>
   <trkpt lat="19.365254" lon="-100.288018"><ele>2465.9</ele><time>2021-03-13T20:58:46.000Z</time></trkpt>
   <trkpt lat="19.365039" lon="-100.288167"><ele>2460.7</ele><time>2021-03-13T20:59:28.000Z</time></trkpt>
  </trkseg>
 </trk>
</gpx>
