<?xml version="1.0" encoding="UTF-8"?>
<gpx version="1.1" creator="Strava (via strava-mcp)" xmlns="http://www.topografix.com/GPX/1/1">
 <metadata><name>Desierto de los Leones</name><time>2021-10-03T14:28:41.000Z</time></metadata>
 <trk>
  <name>Desierto de los Leones</name>
  <type>Hike</type>
  <trkseg>
   <trkpt lat="19.318918" lon="-99.316442"><ele>3072.6</ele><time>2021-10-03T14:28:41.000Z</time></trkpt>
   <trkpt lat="19.318835" lon="-99.316393"><ele>3073.0</ele><time>2021-10-03T14:28:52.000Z</time></trkpt>
   <trkpt lat="19.318469" lon="-99.316748"><ele>3075.1</ele><time>2021-10-03T14:29:39.000Z</time></trkpt>
   <trkpt lat="19.317876" lon="-99.317064"><ele>3078.2</ele><time>2021-10-03T14:30:31.000Z</time></trkpt>
   <trkpt lat="19.317038" lon="-99.317196"><ele>3082.7</ele><time>2021-10-03T14:31:53.000Z</time></trkpt>
   <trkpt lat="19.315006" lon="-99.317805"><ele>3087.2</ele><time>2021-10-03T14:34:59.000Z</time></trkpt>
   <trkpt lat="19.314518" lon="-99.318175"><ele>3088.2</ele><time>2021-10-03T14:35:48.000Z</time></trkpt>
   <trkpt lat="19.314269" lon="-99.318666"><ele>3089.0</ele><time>2021-10-03T14:36:35.000Z</time></trkpt>
   <trkpt lat="19.314018" lon="-99.318836"><ele>3089.6</ele><time>2021-10-03T14:36:58.000Z</time></trkpt>
   <trkpt lat="19.313307" lon="-99.318954"><ele>3091.3</ele><time>2021-10-03T14:38:00.000Z</time></trkpt>
   <trkpt lat="19.312996" lon="-99.318845"><ele>3091.0</ele><time>2021-10-03T14:38:34.000Z</time></trkpt>
   <trkpt lat="19.312733" lon="-99.318984"><ele>3091.2</ele><time>2021-10-03T14:38:54.000Z</time></trkpt>
   <trkpt lat="19.312320" lon="-99.319025"><ele>3091.7</ele><time>2021-10-03T14:39:26.000Z</time></trkpt>
   <trkpt lat="19.311337" lon="-99.319688"><ele>3095.8</ele><time>2021-10-03T14:41:15.000Z</time></trkpt>
   <trkpt lat="19.311199" lon="-99.319924"><ele>3096.6</ele><time>2021-10-03T14:41:35.000Z</time></trkpt>
   <trkpt lat="19.311175" lon="-99.320232"><ele>3097.7</ele><time>2021-10-03T14:42:06.000Z</time></trkpt>
   <trkpt lat="19.311408" lon="-99.320967"><ele>3099.8</ele><time>2021-10-03T14:43:07.000Z</time></trkpt>
   <trkpt lat="19.311570" lon="-99.321181"><ele>3100.3</ele><time>2021-10-03T14:43:30.000Z</time></trkpt>
   <trkpt lat="19.311889" lon="-99.321393"><ele>3100.9</ele><time>2021-10-03T14:44:05.000Z</time></trkpt>
   <trkpt lat="19.312101" lon="-99.321817"><ele>3102.1</ele><time>2021-10-03T14:44:44.000Z</time></trkpt>
   <trkpt lat="19.312266" lon="-99.321919"><ele>3103.1</ele><time>2021-10-03T14:45:06.000Z</time></trkpt>
   <trkpt lat="19.312388" lon="-99.322321"><ele>3106.5</ele><time>2021-10-03T14:45:47.000Z</time></trkpt>
   <trkpt lat="19.312500" lon="-99.322341"><ele>3107.6</ele><time>2021-10-03T14:45:57.000Z</time></trkpt>
   <trkpt lat="19.312565" lon="-99.322551"><ele>3109.2</ele><time>2021-10-03T14:46:17.000Z</time></trkpt>
   <trkpt lat="19.312985" lon="-99.322925"><ele>3112.4</ele><time>2021-10-03T14:47:14.000Z</time></trkpt>
   <trkpt lat="19.313379" lon="-99.323464"><ele>3116.8</ele><time>2021-10-03T14:48:05.000Z</time></trkpt>
   <trkpt lat="19.312973" lon="-99.324064"><ele>3118.9</ele><time>2021-10-03T14:49:05.000Z</time></trkpt>
   <trkpt lat="19.312956" lon="-99.324705"><ele>3120.8</ele><time>2021-10-03T14:50:13.000Z</time></trkpt>
   <trkpt lat="19.312792" lon="-99.324733"><ele>3121.5</ele><time>2021-10-03T14:51:07.000Z</time></trkpt>
   <trkpt lat="19.312687" lon="-99.324869"><ele>3122.1</ele><time>2021-10-03T14:51:26.000Z</time></trkpt>
   <trkpt lat="19.311784" lon="-99.325041"><ele>3124.3</ele><time>2021-10-03T14:52:52.000Z</time></trkpt>
   <trkpt lat="19.311367" lon="-99.325043"><ele>3125.7</ele><time>2021-10-03T14:53:31.000Z</time></trkpt>
   <trkpt lat="19.310863" lon="-99.325172"><ele>3126.7</ele><time>2021-10-03T14:54:17.000Z</time></trkpt>
   <trkpt lat="19.310630" lon="-99.325314"><ele>3127.1</ele><time>2021-10-03T14:54:41.000Z</time></trkpt>
   <trkpt lat="19.310138" lon="-99.325352"><ele>3127.9</ele><time>2021-10-03T14:55:29.000Z</time></trkpt>
   <trkpt lat="19.309926" lon="-99.325490"><ele>3128.4</ele><time>2021-10-03T14:55:59.000Z</time></trkpt>
   <trkpt lat="19.309456" lon="-99.325444"><ele>3129.6</ele><time>2021-10-03T14:56:30.000Z</time></trkpt>
   <trkpt lat="19.309160" lon="-99.325597"><ele>3130.5</ele><time>2021-10-03T14:56:59.000Z</time></trkpt>
   <trkpt lat="19.308943" lon="-99.325920"><ele>3131.5</ele><time>2021-10-03T14:57:29.000Z</time></trkpt>
   <trkpt lat="19.308541" lon="-99.326217"><ele>3132.7</ele><time>2021-10-03T14:58:08.000Z</time></trkpt>
   <trkpt lat="19.308183" lon="-99.326357"><ele>3134.0</ele><time>2021-10-03T14:58:43.000Z</time></trkpt>
   <trkpt lat="19.307523" lon="-99.326373"><ele>3135.0</ele><time>2021-10-03T14:59:37.000Z</time></trkpt>
   <trkpt lat="19.306891" lon="-99.326631"><ele>3136.4</ele><time>2021-10-03T15:00:39.000Z</time></trkpt>
   <trkpt lat="19.306079" lon="-99.326409"><ele>3138.1</ele><time>2021-10-03T15:02:19.000Z</time></trkpt>
   <trkpt lat="19.305939" lon="-99.326482"><ele>3138.3</ele><time>2021-10-03T15:03:06.000Z</time></trkpt>
   <trkpt lat="19.305929" lon="-99.326616"><ele>3138.5</ele><time>2021-10-03T15:03:38.000Z</time></trkpt>
   <trkpt lat="19.305943" lon="-99.326530"><ele>3138.7</ele><time>2021-10-03T15:04:08.000Z</time></trkpt>
   <trkpt lat="19.305861" lon="-99.326482"><ele>3138.9</ele><time>2021-10-03T15:04:49.000Z</time></trkpt>
   <trkpt lat="19.305322" lon="-99.326464"><ele>3139.6</ele><time>2021-10-03T15:05:19.000Z</time></trkpt>
   <trkpt lat="19.305178" lon="-99.326324"><ele>3140.2</ele><time>2021-10-03T15:05:42.000Z</time></trkpt>
   <trkpt lat="19.304957" lon="-99.326291"><ele>3141.0</ele><time>2021-10-03T15:06:01.000Z</time></trkpt>
   <trkpt lat="19.304871" lon="-99.326622"><ele>3141.9</ele><time>2021-10-03T15:06:31.000Z</time></trkpt>
   <trkpt lat="19.305055" lon="-99.326917"><ele>3142.5</ele><time>2021-10-03T15:06:59.000Z</time></trkpt>
   <trkpt lat="19.304951" lon="-99.327179"><ele>3142.9</ele><time>2021-10-03T15:07:21.000Z</time></trkpt>
   <trkpt lat="19.305030" lon="-99.327276"><ele>3143.0</ele><time>2021-10-03T15:07:34.000Z</time></trkpt>
   <trkpt lat="19.304762" lon="-99.327548"><ele>3143.6</ele><time>2021-10-03T15:08:00.000Z</time></trkpt>
   <trkpt lat="19.304445" lon="-99.328167"><ele>3145.6</ele><time>2021-10-03T15:08:56.000Z</time></trkpt>
   <trkpt lat="19.304687" lon="-99.328982"><ele>3153.1</ele><time>2021-10-03T15:10:13.000Z</time></trkpt>
   <trkpt lat="19.304563" lon="-99.329182"><ele>3156.2</ele><time>2021-10-03T15:10:40.000Z</time></trkpt>
   <trkpt lat="19.303133" lon="-99.328993"><ele>3167.0</ele><time>2021-10-03T15:13:12.000Z</time></trkpt>
   <trkpt lat="19.302664" lon="-99.329073"><ele>3168.0</ele><time>2021-10-03T15:13:58.000Z</time></trkpt>
   <trkpt lat="19.302188" lon="-99.329052"><ele>3168.6</ele><time>2021-10-03T15:14:33.000Z</time></trkpt>
   <trkpt lat="19.301859" lon="-99.329181"><ele>3170.0</ele><time>2021-10-03T15:15:05.000Z</time></trkpt>
   <trkpt lat="19.301580" lon="-99.329049"><ele>3172.3</ele><time>2021-10-03T15:15:45.000Z</time></trkpt>
   <trkpt lat="19.301020" lon="-99.329037"><ele>3177.0</ele><time>2021-10-03T15:16:31.000Z</time></trkpt>
   <trkpt lat="19.300712" lon="-99.329116"><ele>3179.1</ele><time>2021-10-03T15:17:07.000Z</time></trkpt>
   <trkpt lat="19.300633" lon="-99.329573"><ele>3183.7</ele><time>2021-10-03T15:17:44.000Z</time></trkpt>
   <trkpt lat="19.300450" lon="-99.329671"><ele>3186.1</ele><time>2021-10-03T15:18:03.000Z</time></trkpt>
   <trkpt lat="19.299926" lon="-99.329670"><ele>3190.7</ele><time>2021-10-03T15:18:58.000Z</time></trkpt>
   <trkpt lat="19.299772" lon="-99.329580"><ele>3191.6</ele><time>2021-10-03T15:19:27.000Z</time></trkpt>
   <trkpt lat="19.299519" lon="-99.329748"><ele>3192.8</ele><time>2021-10-03T15:19:45.000Z</time></trkpt>
   <trkpt lat="19.298696" lon="-99.329963"><ele>3197.7</ele><time>2021-10-03T15:20:51.000Z</time></trkpt>
   <trkpt lat="19.298225" lon="-99.329937"><ele>3200.8</ele><time>2021-10-03T15:21:36.000Z</time></trkpt>
   <trkpt lat="19.298010" lon="-99.329808"><ele>3202.7</ele><time>2021-10-03T15:22:01.000Z</time></trkpt>
   <trkpt lat="19.297412" lon="-99.329812"><ele>3207.5</ele><time>2021-10-03T15:22:55.000Z</time></trkpt>
   <trkpt lat="19.296998" lon="-99.329957"><ele>3212.1</ele><time>2021-10-03T15:23:47.000Z</time></trkpt>
   <trkpt lat="19.296484" lon="-99.329966"><ele>3217.1</ele><time>2021-10-03T15:24:55.000Z</time></trkpt>
   <trkpt lat="19.295952" lon="-99.330486"><ele>3222.6</ele><time>2021-10-03T15:25:48.000Z</time></trkpt>
   <trkpt lat="19.295673" lon="-99.330498"><ele>3223.5</ele><time>2021-10-03T15:26:20.000Z</time></trkpt>
   <trkpt lat="19.295190" lon="-99.330773"><ele>3225.3</ele><time>2021-10-03T15:27:14.000Z</time></trkpt>
   <trkpt lat="19.294691" lon="-99.331420"><ele>3229.9</ele><time>2021-10-03T15:28:28.000Z</time></trkpt>
   <trkpt lat="19.294180" lon="-99.331602"><ele>3232.8</ele><time>2021-10-03T15:29:17.000Z</time></trkpt>
   <trkpt lat="19.293975" lon="-99.331803"><ele>3234.2</ele><time>2021-10-03T15:29:43.000Z</time></trkpt>
   <trkpt lat="19.293924" lon="-99.331911"><ele>3234.3</ele><time>2021-10-03T15:29:52.000Z</time></trkpt>
   <trkpt lat="19.294024" lon="-99.331982"><ele>3234.2</ele><time>2021-10-03T15:30:07.000Z</time></trkpt>
   <trkpt lat="19.294170" lon="-99.331877"><ele>3234.6</ele><time>2021-10-03T15:30:18.000Z</time></trkpt>
   <trkpt lat="19.294927" lon="-99.331953"><ele>3239.4</ele><time>2021-10-03T15:31:29.000Z</time></trkpt>
   <trkpt lat="19.295169" lon="-99.331762"><ele>3241.1</ele><time>2021-10-03T15:33:51.000Z</time></trkpt>
   <trkpt lat="19.295228" lon="-99.331821"><ele>3241.7</ele><time>2021-10-03T15:34:05.000Z</time></trkpt>
   <trkpt lat="19.295513" lon="-99.331736"><ele>3243.5</ele><time>2021-10-03T15:34:36.000Z</time></trkpt>
   <trkpt lat="19.295801" lon="-99.331741"><ele>3245.7</ele><time>2021-10-03T15:34:49.000Z</time></trkpt>
   <trkpt lat="19.296108" lon="-99.331859"><ele>3248.0</ele><time>2021-10-03T15:35:10.000Z</time></trkpt>
   <trkpt lat="19.296394" lon="-99.331690"><ele>3250.2</ele><time>2021-10-03T15:35:43.000Z</time></trkpt>
   <trkpt lat="19.296976" lon="-99.331720"><ele>3248.3</ele><time>2021-10-03T15:36:27.000Z</time></trkpt>
   <trkpt lat="19.297133" lon="-99.331613"><ele>3248.1</ele><time>2021-10-03T15:36:39.000Z</time></trkpt>
   <trkpt lat="19.297853" lon="-99.331573"><ele>3246.9</ele><time>2021-10-03T15:37:42.000Z</time></trkpt>
   <trkpt lat="19.297952" lon="-99.331595"><ele>3246.7</ele><time>2021-10-03T15:37:54.000Z</time></trkpt>
   <trkpt lat="19.297886" lon="-99.331672"><ele>3246.6</ele><time>2021-10-03T15:38:04.000Z</time></trkpt>
   <trkpt lat="19.298311" lon="-99.331760"><ele>3247.8</ele><time>2021-10-03T15:38:31.000Z</time></trkpt>
   <trkpt lat="19.298629" lon="-99.332003"><ele>3251.3</ele><time>2021-10-03T15:39:09.000Z</time></trkpt>
   <trkpt lat="19.298687" lon="-99.332138"><ele>3253.1</ele><time>2021-10-03T15:39:46.000Z</time></trkpt>
   <trkpt lat="19.298589" lon="-99.332104"><ele>3255.1</ele><time>2021-10-03T15:40:09.000Z</time></trkpt>
   <trkpt lat="19.298580" lon="-99.332328"><ele>3266.6</ele><time>2021-10-03T15:40:55.000Z</time></trkpt>
   <trkpt lat="19.298588" lon="-99.332274"><ele>3267.1</ele><time>2021-10-03T15:41:09.000Z</time></trkpt>
   <trkpt lat="19.298427" lon="-99.332306"><ele>3270.4</ele><time>2021-10-03T15:41:35.000Z</time></trkpt>
   <trkpt lat="19.298398" lon="-99.332399"><ele>3272.6</ele><time>2021-10-03T15:41:52.000Z</time></trkpt>
   <trkpt lat="19.298203" lon="-99.332473"><ele>3276.6</ele><time>2021-10-03T15:42:20.000Z</time></trkpt>
   <trkpt lat="19.296555" lon="-99.332468"><ele>3287.7</ele><time>2021-10-03T15:44:55.000Z</time></trkpt>
   <trkpt lat="19.296185" lon="-99.332662"><ele>3287.8</ele><time>2021-10-03T15:45:32.000Z</time></trkpt>
   <trkpt lat="19.295752" lon="-99.332585"><ele>3287.3</ele><time>2021-10-03T15:46:00.000Z</time></trkpt>
   <trkpt lat="19.295064" lon="-99.332846"><ele>3287.7</ele><time>2021-10-03T15:47:02.000Z</time></trkpt>
   <trkpt lat="19.294680" lon="-99.332817"><ele>3289.1</ele><time>2021-10-03T15:47:44.000Z</time></trkpt>
   <trkpt lat="19.294048" lon="-99.333148"><ele>3291.8</ele><time>2021-10-03T15:48:35.000Z</time></trkpt>
   <trkpt lat="19.293085" lon="-99.333310"><ele>3292.4</ele><time>2021-10-03T15:49:54.000Z</time></trkpt>
   <trkpt lat="19.292645" lon="-99.333978"><ele>3296.7</ele><time>2021-10-03T15:50:57.000Z</time></trkpt>
   <trkpt lat="19.291937" lon="-99.334237"><ele>3300.7</ele><time>2021-10-03T15:52:17.000Z</time></trkpt>
   <trkpt lat="19.291910" lon="-99.334545"><ele>3302.7</ele><time>2021-10-03T15:52:52.000Z</time></trkpt>
   <trkpt lat="19.291858" lon="-99.334457"><ele>3303.7</ele><time>2021-10-03T15:53:30.000Z</time></trkpt>
   <trkpt lat="19.291627" lon="-99.334618"><ele>3304.5</ele><time>2021-10-03T15:54:01.000Z</time></trkpt>
   <trkpt lat="19.291633" lon="-99.334492"><ele>3305.0</ele><time>2021-10-03T15:54:11.000Z</time></trkpt>
   <trkpt lat="19.291556" lon="-99.334439"><ele>3305.4</ele><time>2021-10-03T15:54:31.000Z</time></trkpt>
   <trkpt lat="19.290948" lon="-99.334678"><ele>3307.5</ele><time>2021-10-03T15:55:28.000Z</time></trkpt>
   <trkpt lat="19.290528" lon="-99.334673"><ele>3310.4</ele><time>2021-10-03T15:56:19.000Z</time></trkpt>
   <trkpt lat="19.290514" lon="-99.334859"><ele>3312.5</ele><time>2021-10-03T15:56:38.000Z</time></trkpt>
   <trkpt lat="19.290141" lon="-99.335013"><ele>3314.8</ele><time>2021-10-03T15:57:13.000Z</time></trkpt>
   <trkpt lat="19.289915" lon="-99.334965"><ele>3315.2</ele><time>2021-10-03T15:57:45.000Z</time></trkpt>
   <trkpt lat="19.289713" lon="-99.335113"><ele>3315.1</ele><time>2021-10-03T15:58:11.000Z</time></trkpt>
   <trkpt lat="19.288887" lon="-99.334870"><ele>3318.4</ele><time>2021-10-03T15:58:49.000Z</time></trkpt>
   <trkpt lat="19.288512" lon="-99.334956"><ele>3320.3</ele><time>2021-10-03T15:59:16.000Z</time></trkpt>
   <trkpt lat="19.288382" lon="-99.335091"><ele>3321.0</ele><time>2021-10-03T15:59:31.000Z</time></trkpt>
   <trkpt lat="19.288074" lon="-99.335075"><ele>3321.8</ele><time>2021-10-03T15:59:57.000Z</time></trkpt>
   <trkpt lat="19.287904" lon="-99.334905"><ele>3323.0</ele><time>2021-10-03T16:00:14.000Z</time></trkpt>
   <trkpt lat="19.286929" lon="-99.334657"><ele>3328.5</ele><time>2021-10-03T16:01:39.000Z</time></trkpt>
   <trkpt lat="19.285927" lon="-99.334254"><ele>3333.5</ele><time>2021-10-03T16:03:38.000Z</time></trkpt>
   <trkpt lat="19.285376" lon="-99.333905"><ele>3332.1</ele><time>2021-10-03T16:04:47.000Z</time></trkpt>
   <trkpt lat="19.285078" lon="-99.333489"><ele>3322.9</ele><time>2021-10-03T16:05:47.000Z</time></trkpt>
   <trkpt lat="19.285086" lon="-99.333246"><ele>3320.6</ele><time>2021-10-03T16:06:07.000Z</time></trkpt>
   <trkpt lat="19.284972" lon="-99.333077"><ele>3319.6</ele><time>2021-10-03T16:06:34.000Z</time></trkpt>
   <trkpt lat="19.285132" lon="-99.332952"><ele>3318.6</ele><time>2021-10-03T16:06:54.000Z</time></trkpt>
   <trkpt lat="19.285139" lon="-99.332825"><ele>3318.0</ele><time>2021-10-03T16:07:10.000Z</time></trkpt>
   <trkpt lat="19.285012" lon="-99.332644"><ele>3317.1</ele><time>2021-10-03T16:08:04.000Z</time></trkpt>
   <trkpt lat="19.284900" lon="-99.332631"><ele>3317.5</ele><time>2021-10-03T16:11:12.000Z</time></trkpt>
   <trkpt lat="19.284898" lon="-99.332436"><ele>3313.3</ele><time>2021-10-03T16:34:06.000Z</time></trkpt>
   <trkpt lat="19.284972" lon="-99.332330"><ele>3315.3</ele><time>2021-10-03T16:34:24.000Z</time></trkpt>
   <trkpt lat="19.285781" lon="-99.332283"><ele>3313.5</ele><time>2021-10-03T16:35:51.000Z</time></trkpt>
   <trkpt lat="19.286121" lon="-99.332502"><ele>3310.1</ele><time>2021-10-03T16:36:22.000Z</time></trkpt>
   <trkpt lat="19.286405" lon="-99.332414"><ele>3308.1</ele><time>2021-10-03T16:36:51.000Z</time></trkpt>
   <trkpt lat="19.286720" lon="-99.332452"><ele>3304.8</ele><time>2021-10-03T16:37:19.000Z</time></trkpt>
   <trkpt lat="19.287010" lon="-99.332679"><ele>3298.7</ele><time>2021-10-03T16:37:53.000Z</time></trkpt>
   <trkpt lat="19.287357" lon="-99.332637"><ele>3293.8</ele><time>2021-10-03T16:38:33.000Z</time></trkpt>
   <trkpt lat="19.287760" lon="-99.332762"><ele>3288.7</ele><time>2021-10-03T16:39:07.000Z</time></trkpt>
   <trkpt lat="19.288633" lon="-99.333212"><ele>3282.0</ele><time>2021-10-03T16:40:27.000Z</time></trkpt>
   <trkpt lat="19.288997" lon="-99.333079"><ele>3277.4</ele><time>2021-10-03T16:41:07.000Z</time></trkpt>
   <trkpt lat="19.289393" lon="-99.333328"><ele>3275.0</ele><time>2021-10-03T16:41:41.000Z</time></trkpt>
   <trkpt lat="19.289658" lon="-99.333327"><ele>3274.5</ele><time>2021-10-03T16:42:00.000Z</time></trkpt>
   <trkpt lat="19.289819" lon="-99.333294"><ele>3274.4</ele><time>2021-10-03T16:42:15.000Z</time></trkpt>
   <trkpt lat="19.290045" lon="-99.333096"><ele>3274.6</ele><time>2021-10-03T16:42:44.000Z</time></trkpt>
   <trkpt lat="19.290651" lon="-99.333353"><ele>3272.0</ele><time>2021-10-03T16:43:37.000Z</time></trkpt>
   <trkpt lat="19.290848" lon="-99.333129"><ele>3269.5</ele><time>2021-10-03T16:44:06.000Z</time></trkpt>
   <trkpt lat="19.291440" lon="-99.332995"><ele>3263.3</ele><time>2021-10-03T16:45:03.000Z</time></trkpt>
   <trkpt lat="19.291526" lon="-99.332766"><ele>3261.8</ele><time>2021-10-03T16:45:25.000Z</time></trkpt>
   <trkpt lat="19.291818" lon="-99.332551"><ele>3258.6</ele><time>2021-10-03T16:45:57.000Z</time></trkpt>
   <trkpt lat="19.292501" lon="-99.332471"><ele>3248.7</ele><time>2021-10-03T16:47:07.000Z</time></trkpt>
   <trkpt lat="19.292615" lon="-99.332331"><ele>3247.6</ele><time>2021-10-03T16:47:24.000Z</time></trkpt>
   <trkpt lat="19.293067" lon="-99.332120"><ele>3245.3</ele><time>2021-10-03T16:48:07.000Z</time></trkpt>
   <trkpt lat="19.293547" lon="-99.332046"><ele>3240.4</ele><time>2021-10-03T16:48:53.000Z</time></trkpt>
   <trkpt lat="19.293801" lon="-99.331661"><ele>3234.3</ele><time>2021-10-03T16:49:36.000Z</time></trkpt>
   <trkpt lat="19.294465" lon="-99.331486"><ele>3231.1</ele><time>2021-10-03T16:50:28.000Z</time></trkpt>
   <trkpt lat="19.294480" lon="-99.331329"><ele>3230.4</ele><time>2021-10-03T16:50:44.000Z</time></trkpt>
   <trkpt lat="19.294948" lon="-99.331012"><ele>3227.4</ele><time>2021-10-03T16:51:25.000Z</time></trkpt>
   <trkpt lat="19.295212" lon="-99.330620"><ele>3225.0</ele><time>2021-10-03T16:52:00.000Z</time></trkpt>
   <trkpt lat="19.296129" lon="-99.330474"><ele>3221.4</ele><time>2021-10-03T16:53:14.000Z</time></trkpt>
   <trkpt lat="19.296203" lon="-99.330236"><ele>3218.4</ele><time>2021-10-03T16:54:08.000Z</time></trkpt>
   <trkpt lat="19.296538" lon="-99.329911"><ele>3214.5</ele><time>2021-10-03T16:54:50.000Z</time></trkpt>
   <trkpt lat="19.296908" lon="-99.329930"><ele>3210.8</ele><time>2021-10-03T16:55:18.000Z</time></trkpt>
   <trkpt lat="19.297452" lon="-99.329803"><ele>3205.7</ele><time>2021-10-03T16:56:42.000Z</time></trkpt>
   <trkpt lat="19.297546" lon="-99.329709"><ele>3204.6</ele><time>2021-10-03T16:56:57.000Z</time></trkpt>
   <trkpt lat="19.297829" lon="-99.329821"><ele>3202.0</ele><time>2021-10-03T16:57:28.000Z</time></trkpt>
   <trkpt lat="19.298435" lon="-99.329896"><ele>3198.0</ele><time>2021-10-03T16:58:11.000Z</time></trkpt>
   <trkpt lat="19.299000" lon="-99.329612"><ele>3193.7</ele><time>2021-10-03T16:59:11.000Z</time></trkpt>
   <trkpt lat="19.299374" lon="-99.329661"><ele>3192.4</ele><time>2021-10-03T16:59:39.000Z</time></trkpt>
   <trkpt lat="19.299765" lon="-99.329549"><ele>3190.4</ele><time>2021-10-03T17:00:17.000Z</time></trkpt>
   <trkpt lat="19.300343" lon="-99.329538"><ele>3185.1</ele><time>2021-10-03T17:00:58.000Z</time></trkpt>
   <trkpt lat="19.300855" lon="-99.329058"><ele>3178.1</ele><time>2021-10-03T17:01:46.000Z</time></trkpt>
   <trkpt lat="19.301159" lon="-99.328941"><ele>3176.4</ele><time>2021-10-03T17:02:08.000Z</time></trkpt>
   <trkpt lat="19.301056" lon="-99.328897"><ele>3175.3</ele><time>2021-10-03T17:03:02.000Z</time></trkpt>
   <trkpt lat="19.301075" lon="-99.329082"><ele>3173.8</ele><time>2021-10-03T17:03:40.000Z</time></trkpt>
   <trkpt lat="19.301352" lon="-99.329002"><ele>3171.6</ele><time>2021-10-03T17:04:21.000Z</time></trkpt>
   <trkpt lat="19.301513" lon="-99.329118"><ele>3170.4</ele><time>2021-10-03T17:04:36.000Z</time></trkpt>
   <trkpt lat="19.301680" lon="-99.329048"><ele>3169.6</ele><time>2021-10-03T17:04:48.000Z</time></trkpt>
   <trkpt lat="19.301993" lon="-99.329289"><ele>3168.5</ele><time>2021-10-03T17:05:23.000Z</time></trkpt>
   <trkpt lat="19.302219" lon="-99.329159"><ele>3168.2</ele><time>2021-10-03T17:05:45.000Z</time></trkpt>
   <trkpt lat="19.302569" lon="-99.329205"><ele>3168.0</ele><time>2021-10-03T17:06:10.000Z</time></trkpt>
   <trkpt lat="19.302663" lon="-99.329146"><ele>3167.9</ele><time>2021-10-03T17:06:16.000Z</time></trkpt>
   <trkpt lat="19.302656" lon="-99.328983"><ele>3167.7</ele><time>2021-10-03T17:06:26.000Z</time></trkpt>
   <trkpt lat="19.303438" lon="-99.328943"><ele>3165.5</ele><time>2021-10-03T17:07:28.000Z</time></trkpt>
   <trkpt lat="19.303627" lon="-99.328865"><ele>3168.2</ele><time>2021-10-03T17:07:41.000Z</time></trkpt>
   <trkpt lat="19.303940" lon="-99.328481"><ele>3172.2</ele><time>2021-10-03T17:08:19.000Z</time></trkpt>
   <trkpt lat="19.303818" lon="-99.328214"><ele>3171.7</ele><time>2021-10-03T17:08:41.000Z</time></trkpt>
   <trkpt lat="19.303862" lon="-99.327724"><ele>3171.0</ele><time>2021-10-03T17:09:18.000Z</time></trkpt>
   <trkpt lat="19.304062" lon="-99.327500"><ele>3170.7</ele><time>2021-10-03T17:09:42.000Z</time></trkpt>
   <trkpt lat="19.304068" lon="-99.327367"><ele>3170.6</ele><time>2021-10-03T17:09:54.000Z</time></trkpt>
   <trkpt lat="19.304242" lon="-99.327221"><ele>3170.4</ele><time>2021-10-03T17:10:12.000Z</time></trkpt>
   <trkpt lat="19.304357" lon="-99.326842"><ele>3170.4</ele><time>2021-10-03T17:10:45.000Z</time></trkpt>
   <trkpt lat="19.304027" lon="-99.326431"><ele>3170.4</ele><time>2021-10-03T17:11:22.000Z</time></trkpt>
   <trkpt lat="19.303503" lon="-99.326081"><ele>3170.6</ele><time>2021-10-03T17:12:08.000Z</time></trkpt>
   <trkpt lat="19.303590" lon="-99.325956"><ele>3170.5</ele><time>2021-10-03T17:12:20.000Z</time></trkpt>
   <trkpt lat="19.303784" lon="-99.325935"><ele>3170.4</ele><time>2021-10-03T17:12:40.000Z</time></trkpt>
   <trkpt lat="19.303925" lon="-99.325648"><ele>3170.6</ele><time>2021-10-03T17:13:04.000Z</time></trkpt>
   <trkpt lat="19.304220" lon="-99.325423"><ele>3171.6</ele><time>2021-10-03T17:13:33.000Z</time></trkpt>
   <trkpt lat="19.304412" lon="-99.325372"><ele>3172.9</ele><time>2021-10-03T17:13:45.000Z</time></trkpt>
   <trkpt lat="19.304610" lon="-99.325493"><ele>3174.6</ele><time>2021-10-03T17:14:06.000Z</time></trkpt>
   <trkpt lat="19.305705" lon="-99.325258"><ele>3174.0</ele><time>2021-10-03T17:15:41.000Z</time></trkpt>
   <trkpt lat="19.306176" lon="-99.325348"><ele>3173.8</ele><time>2021-10-03T17:16:20.000Z</time></trkpt>
   <trkpt lat="19.306455" lon="-99.325299"><ele>3174.0</ele><time>2021-10-03T17:16:49.000Z</time></trkpt>
   <trkpt lat="19.307163" lon="-99.324810"><ele>3174.9</ele><time>2021-10-03T17:17:53.000Z</time></trkpt>
   <trkpt lat="19.307334" lon="-99.324634"><ele>3174.6</ele><time>2021-10-03T17:18:15.000Z</time></trkpt>
   <trkpt lat="19.307409" lon="-99.324417"><ele>3173.8</ele><time>2021-10-03T17:18:33.000Z</time></trkpt>
   <trkpt lat="19.307644" lon="-99.324332"><ele>3173.0</ele><time>2021-10-03T17:18:51.000Z</time></trkpt>
   <trkpt lat="19.307956" lon="-99.323979"><ele>3171.8</ele><time>2021-10-03T17:19:27.000Z</time></trkpt>
   <trkpt lat="19.308260" lon="-99.323780"><ele>3170.0</ele><time>2021-10-03T17:20:02.000Z</time></trkpt>
   <trkpt lat="19.308469" lon="-99.323556"><ele>3168.2</ele><time>2021-10-03T17:20:40.000Z</time></trkpt>
   <trkpt lat="19.308496" lon="-99.323343"><ele>3167.6</ele><time>2021-10-03T17:20:59.000Z</time></trkpt>
   <trkpt lat="19.309144" lon="-99.323425"><ele>3167.4</ele><time>2021-10-03T17:21:39.000Z</time></trkpt>
   <trkpt lat="19.309034" lon="-99.323944"><ele>3162.4</ele><time>2021-10-03T17:23:07.000Z</time></trkpt>
   <trkpt lat="19.309126" lon="-99.324135"><ele>3162.3</ele><time>2021-10-03T17:23:28.000Z</time></trkpt>
   <trkpt lat="19.309408" lon="-99.324362"><ele>3163.8</ele><time>2021-10-03T17:23:59.000Z</time></trkpt>
   <trkpt lat="19.309983" lon="-99.324436"><ele>3166.5</ele><time>2021-10-03T17:24:35.000Z</time></trkpt>
   <trkpt lat="19.310181" lon="-99.324376"><ele>3167.6</ele><time>2021-10-03T17:25:01.000Z</time></trkpt>
   <trkpt lat="19.310754" lon="-99.324417"><ele>3170.3</ele><time>2021-10-03T17:25:50.000Z</time></trkpt>
   <trkpt lat="19.311204" lon="-99.324089"><ele>3173.0</ele><time>2021-10-03T17:26:38.000Z</time></trkpt>
   <trkpt lat="19.311387" lon="-99.323812"><ele>3174.6</ele><time>2021-10-03T17:27:05.000Z</time></trkpt>
   <trkpt lat="19.311543" lon="-99.323715"><ele>3174.3</ele><time>2021-10-03T17:27:19.000Z</time></trkpt>
   <trkpt lat="19.311605" lon="-99.323492"><ele>3173.6</ele><time>2021-10-03T17:27:39.000Z</time></trkpt>
   <trkpt lat="19.311474" lon="-99.323070"><ele>3172.3</ele><time>2021-10-03T17:28:19.000Z</time></trkpt>
   <trkpt lat="19.311488" lon="-99.322788"><ele>3171.4</ele><time>2021-10-03T17:28:39.000Z</time></trkpt>
   <trkpt lat="19.311235" lon="-99.322066"><ele>3172.0</ele><time>2021-10-03T17:30:07.000Z</time></trkpt>
   <trkpt lat="19.310619" lon="-99.321627"><ele>3168.4</ele><time>2021-10-03T17:31:19.000Z</time></trkpt>
   <trkpt lat="19.310405" lon="-99.321305"><ele>3162.0</ele><time>2021-10-03T17:33:10.000Z</time></trkpt>
   <trkpt lat="19.310659" lon="-99.321326"><ele>3154.2</ele><time>2021-10-03T17:34:20.000Z</time></trkpt>
   <trkpt lat="19.310679" lon="-99.321235"><ele>3150.9</ele><time>2021-10-03T17:34:37.000Z</time></trkpt>
   <trkpt lat="19.310882" lon="-99.321295"><ele>3143.5</ele><time>2021-10-03T17:35:06.000Z</time></trkpt>
   <trkpt lat="19.310897" lon="-99.321136"><ele>3138.6</ele><time>2021-10-03T17:35:28.000Z</time></trkpt>
   <trkpt lat="19.310921" lon="-99.321190"><ele>3137.1</ele><time>2021-10-03T17:35:32.000Z</time></trkpt>
   <trkpt lat="19.310999" lon="-99.321035"><ele>3133.0</ele><time>2021-10-03T17:35:52.000Z</time></trkpt>
   <trkpt lat="19.310872" lon="-99.320784"><ele>3127.4</ele><time>2021-10-03T17:36:15.000Z</time></trkpt>
   <trkpt lat="19.310797" lon="-99.320353"><ele>3118.7</ele><time>2021-10-03T17:37:08.000Z</time></trkpt>
   <trkpt lat="19.311043" lon="-99.320098"><ele>3111.5</ele><time>2021-10-03T17:37:47.000Z</time></trkpt>
   <trkpt lat="19.311074" lon="-99.319885"><ele>3107.1</ele><time>2021-10-03T17:38:11.000Z</time></trkpt>
   <trkpt lat="19.311633" lon="-99.319415"><ele>3095.5</ele><time>2021-10-03T17:39:32.000Z</time></trkpt>
   <trkpt lat="19.311719" lon="-99.319433"><ele>3094.4</ele><time>2021-10-03T17:39:52.000Z</time></trkpt>
   <trkpt lat="19.312269" lon="-99.319047"><ele>3091.7</ele><time>2021-10-03T17:40:51.000Z</time></trkpt>
   <trkpt lat="19.312888" lon="-99.318851"><ele>3091.0</ele><time>2021-10-03T17:41:41.000Z</time></trkpt>
   <trkpt lat="19.313402" lon="-99.318962"><ele>3091.1</ele><time>2021-10-03T17:42:26.000Z</time></trkpt>
   <trkpt lat="19.313831" lon="-99.318933"><ele>3090.0</ele><time>2021-10-03T17:43:01.000Z</time></trkpt>
   <trkpt lat="19.314362" lon="-99.318533"><ele>3088.8</ele><time>2021-10-03T17:43:54.000Z</time></trkpt>
   <trkpt lat="19.314580" lon="-99.318125"><ele>3088.1</ele><time>2021-10-03T17:44:35.000Z</time></trkpt>
   <trkpt lat="19.315177" lon="-99.317753"><ele>3086.7</ele><time>2021-10-03T17:45:44.000Z</time></trkpt>
   <trkpt lat="19.315763" lon="-99.317520"><ele>3085.6</ele><time>2021-10-03T17:46:27.000Z</time></trkpt>
   <trkpt lat="19.316110" lon="-99.317505"><ele>3085.0</ele><time>2021-10-03T17:46:57.000Z</time></trkpt>
   <trkpt lat="19.317050" lon="-99.317200"><ele>3082.8</ele><time>2021-10-03T17:48:11.000Z</time></trkpt>
   <trkpt lat="19.317686" lon="-99.317129"><ele>3079.6</ele><time>2021-10-03T17:49:07.000Z</time></trkpt>
   <trkpt lat="19.317908" lon="-99.316984"><ele>3078.1</ele><time>2021-10-03T17:49:31.000Z</time></trkpt>
   <trkpt lat="19.318118" lon="-99.316952"><ele>3076.9</ele><time>2021-10-03T17:49:52.000Z</time></trkpt>
   <trkpt lat="19.318946" lon="-99.316420"><ele>3073.0</ele><time>2021-10-03T17:51:08.000Z</time></trkpt>
   <trkpt lat="19.319489" lon="-99.316311"><ele>3071.2</ele><time>2021-10-03T17:51:53.000Z</time></trkpt>
   <trkpt lat="19.320395" lon="-99.316416"><ele>3065.2</ele><time>2021-10-03T17:53:07.000Z</time></trkpt>
   <trkpt lat="19.320512" lon="-99.316469"><ele>3064.4</ele><time>2021-10-03T17:53:21.000Z</time></trkpt>
   <trkpt lat="19.320661" lon="-99.316852"><ele>3061.5</ele><time>2021-10-03T17:53:59.000Z</time></trkpt>
   <trkpt lat="19.320793" lon="-99.316988"><ele>3059.8</ele><time>2021-10-03T17:54:12.000Z</time></trkpt>
   <trkpt lat="19.321336" lon="-99.316979"><ele>3055.1</ele><time>2021-10-03T17:55:05.000Z</time></trkpt>
   <trkpt lat="19.321426" lon="-99.316360"><ele>3050.7</ele><time>2021-10-03T17:55:51.000Z</time></trkpt>
   <trkpt lat="19.321220" lon="-99.315957"><ele>3050.0</ele><time>2021-10-03T17:56:31.000Z</time></trkpt>
   <trkpt lat="19.321270" lon="-99.315438"><ele>3049.9</ele><time>2021-10-03T17:57:13.000Z</time></trkpt>
   <trkpt lat="19.321736" lon="-99.315075"><ele>3048.3</ele><time>2021-10-03T17:58:07.000Z</time></trkpt>
   <trkpt lat="19.321927" lon="-99.315038"><ele>3047.6</ele><time>2021-10-03T17:58:26.000Z</time></trkpt>
   <trkpt lat="19.321990" lon="-99.315133"><ele>3047.2</ele><time>2021-10-03T17:58:36.000Z</time></trkpt>
   <trkpt lat="19.322100" lon="-99.315133"><ele>3047.0</ele><time>2021-10-03T17:58:43.000Z</time></trkpt>
   <trkpt lat="19.322485" lon="-99.314865"><ele>3044.4</ele><time>2021-10-03T17:59:22.000Z</time></trkpt>
   <trkpt lat="19.322575" lon="-99.314703"><ele>3042.9</ele><time>2021-10-03T17:59:37.000Z</time></trkpt>
   <trkpt lat="19.322571" lon="-99.314248"><ele>3038.6</ele><time>2021-10-03T18:00:24.000Z</time></trkpt>
   <trkpt lat="19.322474" lon="-99.314182"><ele>3037.7</ele><time>2021-10-03T18:00:36.000Z</time></trkpt>
   <trkpt lat="19.322424" lon="-99.313934"><ele>3036.0</ele><time>2021-10-03T18:00:55.000Z</time></trkpt>
   <trkpt lat="19.322710" lon="-99.313601"><ele>3026.9</ele><time>2021-10-03T18:01:37.000Z</time></trkpt>
   <trkpt lat="19.323001" lon="-99.313529"><ele>3023.4</ele><time>2021-10-03T18:02:06.000Z</time></trkpt>
   <trkpt lat="19.322881" lon="-99.313097"><ele>3020.8</ele><time>2021-10-03T18:02:39.000Z</time></trkpt>
   <trkpt lat="19.322505" lon="-99.312956"><ele>3020.6</ele><time>2021-10-03T18:03:11.000Z</time></trkpt>
   <trkpt lat="19.322394" lon="-99.312839"><ele>3020.5</ele><time>2021-10-03T18:03:29.000Z</time></trkpt>
   <trkpt lat="19.321610" lon="-99.313006"><ele>3016.9</ele><time>2021-10-03T18:04:32.000Z</time></trkpt>
   <trkpt lat="19.321285" lon="-99.312825"><ele>3014.1</ele><time>2021-10-03T18:04:58.000Z</time></trkpt>
   <trkpt lat="19.320867" lon="-99.312914"><ele>3010.6</ele><time>2021-10-03T18:05:37.000Z</time></trkpt>
   <trkpt lat="19.320801" lon="-99.313035"><ele>3009.4</ele><time>2021-10-03T18:05:57.000Z</time></trkpt>
   <trkpt lat="19.320112" lon="-99.313027"><ele>2997.8</ele><time>2021-10-03T18:06:45.000Z</time></trkpt>
   <trkpt lat="19.319549" lon="-99.313403"><ele>2989.3</ele><time>2021-10-03T18:07:39.000Z</time></trkpt>
   <trkpt lat="19.319489" lon="-99.313520"><ele>2989.3</ele><time>2021-10-03T18:07:58.000Z</time></trkpt>
   <trkpt lat="19.319400" lon="-99.313346"><ele>2989.3</ele><time>2021-10-03T18:10:31.000Z</time></trkpt>
  </trkseg>
 </trk>
</gpx>
