<?xml version="1.0" encoding="UTF-8"?>
<gpx version="1.1" creator="Strava (via strava-mcp)" xmlns="http://www.topografix.com/GPX/1/1">
 <metadata><name>Los Dinamos (ejido)</name><time>2020-07-11T16:16:52.000Z</time></metadata>
 <trk>
  <name>Los Dinamos (ejido)</name>
  <type>Hike</type>
  <trkseg>
   <trkpt lat="19.266809" lon="-99.294604"><ele>3103.1</ele><time>2020-07-11T16:16:52.000Z</time></trkpt>
   <trkpt lat="19.267066" lon="-99.294465"><ele>3106.3</ele><time>2020-07-11T16:18:17.000Z</time></trkpt>
   <trkpt lat="19.267596" lon="-99.293836"><ele>3106.5</ele><time>2020-07-11T16:18:50.000Z</time></trkpt>
   <trkpt lat="19.267824" lon="-99.293699"><ele>3107.1</ele><time>2020-07-11T16:18:58.000Z</time></trkpt>
   <trkpt lat="19.268407" lon="-99.293549"><ele>3108.8</ele><time>2020-07-11T16:19:21.000Z</time></trkpt>
   <trkpt lat="19.268733" lon="-99.293127"><ele>3105.8</ele><time>2020-07-11T16:19:43.000Z</time></trkpt>
   <trkpt lat="19.269397" lon="-99.292683"><ele>3098.4</ele><time>2020-07-11T16:20:20.000Z</time></trkpt>
   <trkpt lat="19.269509" lon="-99.292432"><ele>3096.3</ele><time>2020-07-11T16:20:32.000Z</time></trkpt>
   <trkpt lat="19.270323" lon="-99.291413"><ele>3099.9</ele><time>2020-07-11T16:21:28.000Z</time></trkpt>
   <trkpt lat="19.270785" lon="-99.291076"><ele>3101.3</ele><time>2020-07-11T16:21:52.000Z</time></trkpt>
   <trkpt lat="19.271272" lon="-99.291012"><ele>3101.1</ele><time>2020-07-11T16:22:15.000Z</time></trkpt>
   <trkpt lat="19.271384" lon="-99.290546"><ele>3103.0</ele><time>2020-07-11T16:22:44.000Z</time></trkpt>
   <trkpt lat="19.271589" lon="-99.290242"><ele>3105.6</ele><time>2020-07-11T16:22:59.000Z</time></trkpt>
   <trkpt lat="19.271780" lon="-99.289690"><ele>3107.4</ele><time>2020-07-11T16:23:32.000Z</time></trkpt>
   <trkpt lat="19.272193" lon="-99.289503"><ele>3111.6</ele><time>2020-07-11T16:23:57.000Z</time></trkpt>
   <trkpt lat="19.272787" lon="-99.289415"><ele>3123.9</ele><time>2020-07-11T16:24:35.000Z</time></trkpt>
   <trkpt lat="19.272896" lon="-99.289312"><ele>3126.4</ele><time>2020-07-11T16:24:49.000Z</time></trkpt>
   <trkpt lat="19.273374" lon="-99.289472"><ele>3133.7</ele><time>2020-07-11T16:25:20.000Z</time></trkpt>
   <trkpt lat="19.273720" lon="-99.289332"><ele>3138.2</ele><time>2020-07-11T16:25:43.000Z</time></trkpt>
   <trkpt lat="19.274174" lon="-99.289359"><ele>3144.5</ele><time>2020-07-11T16:26:05.000Z</time></trkpt>
   <trkpt lat="19.274824" lon="-99.289242"><ele>3155.7</ele><time>2020-07-11T16:26:45.000Z</time></trkpt>
   <trkpt lat="19.275326" lon="-99.289036"><ele>3162.6</ele><time>2020-07-11T16:27:20.000Z</time></trkpt>
   <trkpt lat="19.275421" lon="-99.289215"><ele>3166.5</ele><time>2020-07-11T16:27:35.000Z</time></trkpt>
   <trkpt lat="19.275204" lon="-99.289328"><ele>3170.9</ele><time>2020-07-11T16:28:01.000Z</time></trkpt>
   <trkpt lat="19.275058" lon="-99.289564"><ele>3175.1</ele><time>2020-07-11T16:28:37.000Z</time></trkpt>
   <trkpt lat="19.274684" lon="-99.289891"><ele>3182.9</ele><time>2020-07-11T16:29:06.000Z</time></trkpt>
   <trkpt lat="19.274557" lon="-99.290167"><ele>3188.0</ele><time>2020-07-11T16:29:23.000Z</time></trkpt>
   <trkpt lat="19.274711" lon="-99.290795"><ele>3198.4</ele><time>2020-07-11T16:30:24.000Z</time></trkpt>
   <trkpt lat="19.274661" lon="-99.291202"><ele>3203.5</ele><time>2020-07-11T16:30:55.000Z</time></trkpt>
   <trkpt lat="19.274741" lon="-99.291629"><ele>3208.4</ele><time>2020-07-11T16:31:17.000Z</time></trkpt>
   <trkpt lat="19.274854" lon="-99.291861"><ele>3211.6</ele><time>2020-07-11T16:31:34.000Z</time></trkpt>
   <trkpt lat="19.275185" lon="-99.292168"><ele>3213.8</ele><time>2020-07-11T16:32:03.000Z</time></trkpt>
   <trkpt lat="19.275243" lon="-99.292384"><ele>3213.9</ele><time>2020-07-11T16:32:17.000Z</time></trkpt>
   <trkpt lat="19.275040" lon="-99.293388"><ele>3217.1</ele><time>2020-07-11T16:33:14.000Z</time></trkpt>
   <trkpt lat="19.274607" lon="-99.294297"><ele>3224.8</ele><time>2020-07-11T16:34:32.000Z</time></trkpt>
   <trkpt lat="19.274006" lon="-99.294985"><ele>3235.0</ele><time>2020-07-11T16:35:40.000Z</time></trkpt>
   <trkpt lat="19.273933" lon="-99.295228"><ele>3238.5</ele><time>2020-07-11T16:35:54.000Z</time></trkpt>
   <trkpt lat="19.273985" lon="-99.295465"><ele>3238.0</ele><time>2020-07-11T16:36:18.000Z</time></trkpt>
   <trkpt lat="19.274371" lon="-99.295523"><ele>3238.3</ele><time>2020-07-11T16:37:02.000Z</time></trkpt>
   <trkpt lat="19.274552" lon="-99.295387"><ele>3239.6</ele><time>2020-07-11T16:37:22.000Z</time></trkpt>
   <trkpt lat="19.274616" lon="-99.295416"><ele>3241.0</ele><time>2020-07-11T16:37:36.000Z</time></trkpt>
   <trkpt lat="19.274440" lon="-99.295651"><ele>3245.1</ele><time>2020-07-11T16:38:07.000Z</time></trkpt>
   <trkpt lat="19.273809" lon="-99.295947"><ele>3250.1</ele><time>2020-07-11T16:39:08.000Z</time></trkpt>
   <trkpt lat="19.273616" lon="-99.296290"><ele>3251.9</ele><time>2020-07-11T16:39:35.000Z</time></trkpt>
   <trkpt lat="19.273345" lon="-99.296266"><ele>3255.2</ele><time>2020-07-11T16:40:05.000Z</time></trkpt>
   <trkpt lat="19.273256" lon="-99.296401"><ele>3257.2</ele><time>2020-07-11T16:40:22.000Z</time></trkpt>
   <trkpt lat="19.273276" lon="-99.296664"><ele>3260.8</ele><time>2020-07-11T16:40:50.000Z</time></trkpt>
   <trkpt lat="19.273109" lon="-99.296832"><ele>3263.6</ele><time>2020-07-11T16:41:16.000Z</time></trkpt>
   <trkpt lat="19.272434" lon="-99.297172"><ele>3270.9</ele><time>2020-07-11T16:42:19.000Z</time></trkpt>
   <trkpt lat="19.271493" lon="-99.297101"><ele>3280.1</ele><time>2020-07-11T16:43:48.000Z</time></trkpt>
   <trkpt lat="19.271015" lon="-99.297272"><ele>3283.6</ele><time>2020-07-11T16:44:29.000Z</time></trkpt>
   <trkpt lat="19.270884" lon="-99.297355"><ele>3285.0</ele><time>2020-07-11T16:44:38.000Z</time></trkpt>
   <trkpt lat="19.270614" lon="-99.297828"><ele>3290.7</ele><time>2020-07-11T16:45:18.000Z</time></trkpt>
   <trkpt lat="19.270068" lon="-99.298239"><ele>3299.8</ele><time>2020-07-11T16:46:15.000Z</time></trkpt>
   <trkpt lat="19.269992" lon="-99.298043"><ele>3303.1</ele><time>2020-07-11T16:46:41.000Z</time></trkpt>
   <trkpt lat="19.270187" lon="-99.297744"><ele>3307.3</ele><time>2020-07-11T16:47:12.000Z</time></trkpt>
   <trkpt lat="19.269895" lon="-99.297308"><ele>3309.9</ele><time>2020-07-11T16:47:43.000Z</time></trkpt>
   <trkpt lat="19.269904" lon="-99.297009"><ele>3311.9</ele><time>2020-07-11T16:48:04.000Z</time></trkpt>
   <trkpt lat="19.269603" lon="-99.297156"><ele>3315.3</ele><time>2020-07-11T16:48:43.000Z</time></trkpt>
   <trkpt lat="19.269245" lon="-99.297075"><ele>3318.9</ele><time>2020-07-11T16:49:20.000Z</time></trkpt>
   <trkpt lat="19.269299" lon="-99.296779"><ele>3321.5</ele><time>2020-07-11T16:49:55.000Z</time></trkpt>
   <trkpt lat="19.269222" lon="-99.296594"><ele>3323.5</ele><time>2020-07-11T16:51:09.000Z</time></trkpt>
   <trkpt lat="19.269288" lon="-99.296568"><ele>3324.6</ele><time>2020-07-11T16:51:59.000Z</time></trkpt>
   <trkpt lat="19.269256" lon="-99.296434"><ele>3325.8</ele><time>2020-07-11T16:52:14.000Z</time></trkpt>
   <trkpt lat="19.269450" lon="-99.296029"><ele>3329.8</ele><time>2020-07-11T16:53:05.000Z</time></trkpt>
   <trkpt lat="19.269361" lon="-99.295739"><ele>3332.4</ele><time>2020-07-11T16:53:42.000Z</time></trkpt>
   <trkpt lat="19.269527" lon="-99.295103"><ele>3338.3</ele><time>2020-07-11T16:55:12.000Z</time></trkpt>
   <trkpt lat="19.269457" lon="-99.294964"><ele>3340.0</ele><time>2020-07-11T16:55:41.000Z</time></trkpt>
   <trkpt lat="19.269729" lon="-99.294827"><ele>3343.1</ele><time>2020-07-11T16:57:09.000Z</time></trkpt>
   <trkpt lat="19.269731" lon="-99.294646"><ele>3345.1</ele><time>2020-07-11T16:59:53.000Z</time></trkpt>
   <trkpt lat="19.270006" lon="-99.294632"><ele>3347.8</ele><time>2020-07-11T17:00:38.000Z</time></trkpt>
   <trkpt lat="19.270771" lon="-99.293772"><ele>3352.8</ele><time>2020-07-11T17:02:21.000Z</time></trkpt>
   <trkpt lat="19.270830" lon="-99.293566"><ele>3351.2</ele><time>2020-07-11T17:02:58.000Z</time></trkpt>
   <trkpt lat="19.270965" lon="-99.294078"><ele>3347.2</ele><time>2020-07-11T17:04:57.000Z</time></trkpt>
   <trkpt lat="19.270872" lon="-99.294371"><ele>3345.2</ele><time>2020-07-11T17:05:23.000Z</time></trkpt>
   <trkpt lat="19.270353" lon="-99.294732"><ele>3340.9</ele><time>2020-07-11T17:06:09.000Z</time></trkpt>
   <trkpt lat="19.269772" lon="-99.294995"><ele>3335.9</ele><time>2020-07-11T17:07:01.000Z</time></trkpt>
   <trkpt lat="19.269569" lon="-99.295247"><ele>3333.7</ele><time>2020-07-11T17:07:24.000Z</time></trkpt>
   <trkpt lat="19.269524" lon="-99.295406"><ele>3332.6</ele><time>2020-07-11T17:07:36.000Z</time></trkpt>
   <trkpt lat="19.269670" lon="-99.295931"><ele>3328.7</ele><time>2020-07-11T17:08:33.000Z</time></trkpt>
   <trkpt lat="19.269618" lon="-99.296150"><ele>3327.1</ele><time>2020-07-11T17:09:43.000Z</time></trkpt>
   <trkpt lat="19.269694" lon="-99.296233"><ele>3326.4</ele><time>2020-07-11T17:09:55.000Z</time></trkpt>
   <trkpt lat="19.269625" lon="-99.296432"><ele>3324.9</ele><time>2020-07-11T17:10:49.000Z</time></trkpt>
   <trkpt lat="19.269356" lon="-99.296705"><ele>3321.8</ele><time>2020-07-11T17:11:31.000Z</time></trkpt>
   <trkpt lat="19.269254" lon="-99.297313"><ele>3318.5</ele><time>2020-07-11T17:12:41.000Z</time></trkpt>
   <trkpt lat="19.269061" lon="-99.297378"><ele>3317.0</ele><time>2020-07-11T17:13:05.000Z</time></trkpt>
   <trkpt lat="19.268873" lon="-99.298003"><ele>3309.5</ele><time>2020-07-11T17:14:02.000Z</time></trkpt>
   <trkpt lat="19.268631" lon="-99.298383"><ele>3304.5</ele><time>2020-07-11T17:14:28.000Z</time></trkpt>
   <trkpt lat="19.268354" lon="-99.298598"><ele>3300.6</ele><time>2020-07-11T17:15:01.000Z</time></trkpt>
   <trkpt lat="19.268405" lon="-99.298419"><ele>3297.6</ele><time>2020-07-11T17:15:45.000Z</time></trkpt>
   <trkpt lat="19.268379" lon="-99.298511"><ele>3295.6</ele><time>2020-07-11T17:16:13.000Z</time></trkpt>
   <trkpt lat="19.267522" lon="-99.298708"><ele>3279.7</ele><time>2020-07-11T17:17:19.000Z</time></trkpt>
   <trkpt lat="19.267267" lon="-99.298875"><ele>3277.1</ele><time>2020-07-11T17:17:43.000Z</time></trkpt>
   <trkpt lat="19.266713" lon="-99.299440"><ele>3269.6</ele><time>2020-07-11T17:18:49.000Z</time></trkpt>
   <trkpt lat="19.266347" lon="-99.300277"><ele>3270.0</ele><time>2020-07-11T17:19:54.000Z</time></trkpt>
   <trkpt lat="19.265914" lon="-99.300643"><ele>3269.9</ele><time>2020-07-11T17:20:47.000Z</time></trkpt>
   <trkpt lat="19.265049" lon="-99.301042"><ele>3281.1</ele><time>2020-07-11T17:22:37.000Z</time></trkpt>
   <trkpt lat="19.264853" lon="-99.301000"><ele>3281.7</ele><time>2020-07-11T17:22:59.000Z</time></trkpt>
   <trkpt lat="19.264523" lon="-99.300721"><ele>3282.6</ele><time>2020-07-11T17:23:27.000Z</time></trkpt>
   <trkpt lat="19.264188" lon="-99.300800"><ele>3284.9</ele><time>2020-07-11T17:23:57.000Z</time></trkpt>
   <trkpt lat="19.263972" lon="-99.300983"><ele>3286.8</ele><time>2020-07-11T17:24:19.000Z</time></trkpt>
   <trkpt lat="19.263591" lon="-99.301550"><ele>3288.5</ele><time>2020-07-11T17:25:13.000Z</time></trkpt>
   <trkpt lat="19.263110" lon="-99.301991"><ele>3290.7</ele><time>2020-07-11T17:26:00.000Z</time></trkpt>
   <trkpt lat="19.262658" lon="-99.301932"><ele>3291.0</ele><time>2020-07-11T17:26:36.000Z</time></trkpt>
   <trkpt lat="19.262185" lon="-99.302023"><ele>3288.4</ele><time>2020-07-11T17:27:16.000Z</time></trkpt>
   <trkpt lat="19.262060" lon="-99.301963"><ele>3287.0</ele><time>2020-07-11T17:27:27.000Z</time></trkpt>
   <trkpt lat="19.262053" lon="-99.301808"><ele>3285.3</ele><time>2020-07-11T17:27:40.000Z</time></trkpt>
   <trkpt lat="19.262312" lon="-99.301541"><ele>3282.8</ele><time>2020-07-11T17:28:15.000Z</time></trkpt>
   <trkpt lat="19.262592" lon="-99.300746"><ele>3271.2</ele><time>2020-07-11T17:29:24.000Z</time></trkpt>
   <trkpt lat="19.262928" lon="-99.300201"><ele>3262.7</ele><time>2020-07-11T17:30:06.000Z</time></trkpt>
   <trkpt lat="19.263052" lon="-99.299615"><ele>3255.0</ele><time>2020-07-11T17:30:48.000Z</time></trkpt>
   <trkpt lat="19.263308" lon="-99.299257"><ele>3247.4</ele><time>2020-07-11T17:31:21.000Z</time></trkpt>
   <trkpt lat="19.263720" lon="-99.299043"><ele>3242.8</ele><time>2020-07-11T17:32:00.000Z</time></trkpt>
   <trkpt lat="19.264303" lon="-99.299004"><ele>3237.3</ele><time>2020-07-11T17:32:41.000Z</time></trkpt>
   <trkpt lat="19.265270" lon="-99.299697"><ele>3244.0</ele><time>2020-07-11T17:34:48.000Z</time></trkpt>
   <trkpt lat="19.265329" lon="-99.299625"><ele>3241.7</ele><time>2020-07-11T17:34:58.000Z</time></trkpt>
   <trkpt lat="19.265729" lon="-99.300023"><ele>3249.6</ele><time>2020-07-11T17:37:04.000Z</time></trkpt>
   <trkpt lat="19.265780" lon="-99.299953"><ele>3245.7</ele><time>2020-07-11T17:37:57.000Z</time></trkpt>
   <trkpt lat="19.265129" lon="-99.299752"><ele>3245.5</ele><time>2020-07-11T17:39:18.000Z</time></trkpt>
   <trkpt lat="19.264322" lon="-99.299109"><ele>3236.5</ele><time>2020-07-11T17:40:34.000Z</time></trkpt>
   <trkpt lat="19.263810" lon="-99.299121"><ele>3241.3</ele><time>2020-07-11T17:41:33.000Z</time></trkpt>
   <trkpt lat="19.264536" lon="-99.298986"><ele>3231.9</ele><time>2020-07-11T17:43:04.000Z</time></trkpt>
   <trkpt lat="19.264980" lon="-99.299092"><ele>3225.4</ele><time>2020-07-11T17:43:41.000Z</time></trkpt>
   <trkpt lat="19.265076" lon="-99.298724"><ele>3219.2</ele><time>2020-07-11T17:44:09.000Z</time></trkpt>
   <trkpt lat="19.264971" lon="-99.298327"><ele>3212.9</ele><time>2020-07-11T17:44:37.000Z</time></trkpt>
   <trkpt lat="19.265119" lon="-99.298008"><ele>3208.3</ele><time>2020-07-11T17:45:07.000Z</time></trkpt>
   <trkpt lat="19.265118" lon="-99.297815"><ele>3205.8</ele><time>2020-07-11T17:45:22.000Z</time></trkpt>
   <trkpt lat="19.265038" lon="-99.297617"><ele>3203.0</ele><time>2020-07-11T17:45:38.000Z</time></trkpt>
   <trkpt lat="19.264642" lon="-99.297562"><ele>3199.8</ele><time>2020-07-11T17:46:13.000Z</time></trkpt>
   <trkpt lat="19.264493" lon="-99.297339"><ele>3197.1</ele><time>2020-07-11T17:46:46.000Z</time></trkpt>
   <trkpt lat="19.264633" lon="-99.296539"><ele>3183.9</ele><time>2020-07-11T17:47:55.000Z</time></trkpt>
   <trkpt lat="19.265079" lon="-99.296250"><ele>3177.6</ele><time>2020-07-11T17:48:35.000Z</time></trkpt>
   <trkpt lat="19.265518" lon="-99.296063"><ele>3166.8</ele><time>2020-07-11T17:49:25.000Z</time></trkpt>
   <trkpt lat="19.265743" lon="-99.296060"><ele>3161.1</ele><time>2020-07-11T17:49:49.000Z</time></trkpt>
   <trkpt lat="19.265787" lon="-99.295810"><ele>3156.9</ele><time>2020-07-11T17:50:11.000Z</time></trkpt>
   <trkpt lat="19.265689" lon="-99.295627"><ele>3153.9</ele><time>2020-07-11T17:50:26.000Z</time></trkpt>
   <trkpt lat="19.265786" lon="-99.295490"><ele>3150.9</ele><time>2020-07-11T17:50:37.000Z</time></trkpt>
   <trkpt lat="19.265883" lon="-99.295536"><ele>3148.9</ele><time>2020-07-11T17:50:46.000Z</time></trkpt>
   <trkpt lat="19.266012" lon="-99.295885"><ele>3144.5</ele><time>2020-07-11T17:51:16.000Z</time></trkpt>
   <trkpt lat="19.265979" lon="-99.296113"><ele>3140.9</ele><time>2020-07-11T17:51:32.000Z</time></trkpt>
   <trkpt lat="19.266101" lon="-99.296242"><ele>3137.9</ele><time>2020-07-11T17:51:57.000Z</time></trkpt>
   <trkpt lat="19.266178" lon="-99.296160"><ele>3134.7</ele><time>2020-07-11T17:52:56.000Z</time></trkpt>
   <trkpt lat="19.266096" lon="-99.295872"><ele>3136.9</ele><time>2020-07-11T17:53:15.000Z</time></trkpt>
   <trkpt lat="19.266136" lon="-99.295751"><ele>3137.2</ele><time>2020-07-11T17:54:01.000Z</time></trkpt>
   <trkpt lat="19.266374" lon="-99.295578"><ele>3129.5</ele><time>2020-07-11T17:54:17.000Z</time></trkpt>
   <trkpt lat="19.267019" lon="-99.294841"><ele>3114.0</ele><time>2020-07-11T17:55:19.000Z</time></trkpt>
   <trkpt lat="19.267032" lon="-99.294500"><ele>3106.4</ele><time>2020-07-11T17:55:43.000Z</time></trkpt>
   <trkpt lat="19.266662" lon="-99.294625"><ele>3097.8</ele><time>2020-07-11T17:56:34.000Z</time></trkpt>
   <trkpt lat="19.266124" lon="-99.294533"><ele>3086.9</ele><time>2020-07-11T17:57:13.000Z</time></trkpt>
   <trkpt lat="19.266077" lon="-99.294463"><ele>3085.0</ele><time>2020-07-11T17:57:35.000Z</time></trkpt>
   <trkpt lat="19.266083" lon="-99.294530"><ele>3083.8</ele><time>2020-07-11T17:57:46.000Z</time></trkpt>
   <trkpt lat="19.265831" lon="-99.294384"><ele>3079.0</ele><time>2020-07-11T18:01:22.000Z</time></trkpt>
  </trkseg>
 </trk>
</gpx>
