<?xml version="1.0" encoding="UTF-8"?>
<gpx version="1.1" creator="Strava (via strava-mcp)" xmlns="http://www.topografix.com/GPX/1/1">
 <metadata><name>Iztaccíhuatl (summit)</name><time>2021-03-21T08:59:25.000Z</time></metadata>
 <trk>
  <name>Iztaccíhuatl (summit)</name>
  <type>Hike</type>
  <trkseg>
   <trkpt lat="19.153921" lon="-98.637442"><ele>4702.1</ele><time>2021-03-21T08:59:25.000Z</time></trkpt>
   <trkpt lat="19.154055" lon="-98.637385"><ele>4706.4</ele><time>2021-03-21T09:01:55.000Z</time></trkpt>
   <trkpt lat="19.154337" lon="-98.637492"><ele>4711.0</ele><time>2021-03-21T09:02:48.000Z</time></trkpt>
   <trkpt lat="19.154439" lon="-98.637449"><ele>4713.6</ele><time>2021-03-21T09:04:12.000Z</time></trkpt>
   <trkpt lat="19.154519" lon="-98.637542"><ele>4715.5</ele><time>2021-03-21T09:04:44.000Z</time></trkpt>
   <trkpt lat="19.154858" lon="-98.637519"><ele>4721.7</ele><time>2021-03-21T09:06:36.000Z</time></trkpt>
   <trkpt lat="19.155035" lon="-98.637627"><ele>4728.2</ele><time>2021-03-21T09:07:22.000Z</time></trkpt>
   <trkpt lat="19.155407" lon="-98.637421"><ele>4750.1</ele><time>2021-03-21T09:14:00.000Z</time></trkpt>
   <trkpt lat="19.156082" lon="-98.637201"><ele>4774.4</ele><time>2021-03-21T09:16:00.000Z</time></trkpt>
   <trkpt lat="19.156229" lon="-98.637047"><ele>4781.0</ele><time>2021-03-21T09:16:20.000Z</time></trkpt>
   <trkpt lat="19.156615" lon="-98.637150"><ele>4794.0</ele><time>2021-03-21T09:17:18.000Z</time></trkpt>
   <trkpt lat="19.157138" lon="-98.636865"><ele>4814.2</ele><time>2021-03-21T09:19:16.000Z</time></trkpt>
   <trkpt lat="19.157675" lon="-98.636953"><ele>4832.0</ele><time>2021-03-21T09:21:12.000Z</time></trkpt>
   <trkpt lat="19.158029" lon="-98.636897"><ele>4845.7</ele><time>2021-03-21T09:23:38.000Z</time></trkpt>
   <trkpt lat="19.158477" lon="-98.636554"><ele>4869.1</ele><time>2021-03-21T09:28:02.000Z</time></trkpt>
   <trkpt lat="19.158690" lon="-98.636564"><ele>4876.0</ele><time>2021-03-21T09:29:43.000Z</time></trkpt>
   <trkpt lat="19.159255" lon="-98.636370"><ele>4891.0</ele><time>2021-03-21T09:37:41.000Z</time></trkpt>
   <trkpt lat="19.159342" lon="-98.635966"><ele>4901.8</ele><time>2021-03-21T09:41:03.000Z</time></trkpt>
   <trkpt lat="19.159668" lon="-98.635916"><ele>4910.0</ele><time>2021-03-21T09:43:56.000Z</time></trkpt>
   <trkpt lat="19.159922" lon="-98.636110"><ele>4919.0</ele><time>2021-03-21T09:47:27.000Z</time></trkpt>
   <trkpt lat="19.160027" lon="-98.636326"><ele>4925.6</ele><time>2021-03-21T09:49:34.000Z</time></trkpt>
   <trkpt lat="19.160137" lon="-98.636198"><ele>4931.1</ele><time>2021-03-21T09:52:01.000Z</time></trkpt>
   <trkpt lat="19.160204" lon="-98.636235"><ele>4933.4</ele><time>2021-03-21T09:52:56.000Z</time></trkpt>
   <trkpt lat="19.160159" lon="-98.636187"><ele>4934.8</ele><time>2021-03-21T09:53:20.000Z</time></trkpt>
   <trkpt lat="19.160265" lon="-98.636331"><ele>4944.6</ele><time>2021-03-21T09:58:46.000Z</time></trkpt>
   <trkpt lat="19.160417" lon="-98.636270"><ele>4955.9</ele><time>2021-03-21T10:00:38.000Z</time></trkpt>
   <trkpt lat="19.160411" lon="-98.636348"><ele>4958.5</ele><time>2021-03-21T10:01:34.000Z</time></trkpt>
   <trkpt lat="19.160701" lon="-98.636563"><ele>4969.0</ele><time>2021-03-21T10:05:59.000Z</time></trkpt>
   <trkpt lat="19.161057" lon="-98.636494"><ele>4980.6</ele><time>2021-03-21T10:11:25.000Z</time></trkpt>
   <trkpt lat="19.161192" lon="-98.636576"><ele>4985.5</ele><time>2021-03-21T10:13:05.000Z</time></trkpt>
   <trkpt lat="19.161396" lon="-98.636544"><ele>4991.8</ele><time>2021-03-21T10:15:44.000Z</time></trkpt>
   <trkpt lat="19.161758" lon="-98.636720"><ele>5002.0</ele><time>2021-03-21T10:19:21.000Z</time></trkpt>
   <trkpt lat="19.161798" lon="-98.636662"><ele>5004.2</ele><time>2021-03-21T10:19:57.000Z</time></trkpt>
   <trkpt lat="19.162019" lon="-98.636691"><ele>5011.1</ele><time>2021-03-21T10:22:10.000Z</time></trkpt>
   <trkpt lat="19.162275" lon="-98.636858"><ele>5020.4</ele><time>2021-03-21T10:24:47.000Z</time></trkpt>
   <trkpt lat="19.162420" lon="-98.637072"><ele>5026.7</ele><time>2021-03-21T10:26:06.000Z</time></trkpt>
   <trkpt lat="19.162442" lon="-98.637150"><ele>5029.0</ele><time>2021-03-21T10:26:30.000Z</time></trkpt>
   <trkpt lat="19.162387" lon="-98.637138"><ele>5031.2</ele><time>2021-03-21T10:35:04.000Z</time></trkpt>
   <trkpt lat="19.162545" lon="-98.637198"><ele>5031.7</ele><time>2021-03-21T10:38:47.000Z</time></trkpt>
   <trkpt lat="19.162754" lon="-98.637625"><ele>5017.9</ele><time>2021-03-21T10:40:37.000Z</time></trkpt>
   <trkpt lat="19.162966" lon="-98.637698"><ele>5018.0</ele><time>2021-03-21T10:41:08.000Z</time></trkpt>
   <trkpt lat="19.163196" lon="-98.637924"><ele>5019.4</ele><time>2021-03-21T10:41:58.000Z</time></trkpt>
   <trkpt lat="19.163953" lon="-98.638024"><ele>5035.2</ele><time>2021-03-21T10:46:19.000Z</time></trkpt>
   <trkpt lat="19.164149" lon="-98.637944"><ele>5044.0</ele><time>2021-03-21T10:48:19.000Z</time></trkpt>
   <trkpt lat="19.164479" lon="-98.637620"><ele>5048.1</ele><time>2021-03-21T10:49:23.000Z</time></trkpt>
   <trkpt lat="19.165267" lon="-98.637446"><ele>5045.7</ele><time>2021-03-21T10:51:34.000Z</time></trkpt>
   <trkpt lat="19.165894" lon="-98.637629"><ele>5055.4</ele><time>2021-03-21T10:54:42.000Z</time></trkpt>
   <trkpt lat="19.166626" lon="-98.638076"><ele>5087.4</ele><time>2021-03-21T11:02:26.000Z</time></trkpt>
   <trkpt lat="19.166554" lon="-98.638295"><ele>5095.0</ele><time>2021-03-21T11:03:10.000Z</time></trkpt>
   <trkpt lat="19.166648" lon="-98.638379"><ele>5094.7</ele><time>2021-03-21T11:03:52.000Z</time></trkpt>
   <trkpt lat="19.166896" lon="-98.638523"><ele>5083.6</ele><time>2021-03-21T11:05:00.000Z</time></trkpt>
   <trkpt lat="19.166962" lon="-98.638416"><ele>5063.5</ele><time>2021-03-21T11:14:40.000Z</time></trkpt>
   <trkpt lat="19.167152" lon="-98.638530"><ele>5056.6</ele><time>2021-03-21T11:21:43.000Z</time></trkpt>
   <trkpt lat="19.167346" lon="-98.638501"><ele>5054.5</ele><time>2021-03-21T11:22:46.000Z</time></trkpt>
   <trkpt lat="19.168134" lon="-98.638993"><ele>5048.2</ele><time>2021-03-21T11:25:41.000Z</time></trkpt>
   <trkpt lat="19.168226" lon="-98.639309"><ele>5046.2</ele><time>2021-03-21T11:26:43.000Z</time></trkpt>
   <trkpt lat="19.168133" lon="-98.639564"><ele>5043.4</ele><time>2021-03-21T11:28:30.000Z</time></trkpt>
   <trkpt lat="19.168239" lon="-98.639427"><ele>5042.1</ele><time>2021-03-21T11:31:14.000Z</time></trkpt>
   <trkpt lat="19.168573" lon="-98.639345"><ele>5041.2</ele><time>2021-03-21T11:32:11.000Z</time></trkpt>
   <trkpt lat="19.168767" lon="-98.639372"><ele>5041.2</ele><time>2021-03-21T11:34:26.000Z</time></trkpt>
   <trkpt lat="19.168747" lon="-98.639432"><ele>5041.3</ele><time>2021-03-21T11:35:33.000Z</time></trkpt>
   <trkpt lat="19.168768" lon="-98.639283"><ele>5041.3</ele><time>2021-03-21T11:35:59.000Z</time></trkpt>
   <trkpt lat="19.168917" lon="-98.639218"><ele>5041.4</ele><time>2021-03-21T11:36:45.000Z</time></trkpt>
   <trkpt lat="19.169042" lon="-98.639002"><ele>5041.0</ele><time>2021-03-21T11:38:04.000Z</time></trkpt>
   <trkpt lat="19.169502" lon="-98.638878"><ele>5040.5</ele><time>2021-03-21T11:39:51.000Z</time></trkpt>
   <trkpt lat="19.170361" lon="-98.638398"><ele>5056.3</ele><time>2021-03-21T11:42:18.000Z</time></trkpt>
   <trkpt lat="19.170685" lon="-98.638337"><ele>5061.8</ele><time>2021-03-21T11:43:55.000Z</time></trkpt>
   <trkpt lat="19.170764" lon="-98.638072"><ele>5067.9</ele><time>2021-03-21T11:48:01.000Z</time></trkpt>
   <trkpt lat="19.170935" lon="-98.637860"><ele>5076.9</ele><time>2021-03-21T11:52:51.000Z</time></trkpt>
   <trkpt lat="19.171283" lon="-98.638535"><ele>5089.0</ele><time>2021-03-21T11:55:45.000Z</time></trkpt>
   <trkpt lat="19.171961" lon="-98.638794"><ele>5099.2</ele><time>2021-03-21T11:57:22.000Z</time></trkpt>
   <trkpt lat="19.172294" lon="-98.639176"><ele>5107.5</ele><time>2021-03-21T11:59:36.000Z</time></trkpt>
   <trkpt lat="19.172781" lon="-98.639419"><ele>5116.3</ele><time>2021-03-21T12:01:30.000Z</time></trkpt>
   <trkpt lat="19.172729" lon="-98.639447"><ele>5118.9</ele><time>2021-03-21T12:02:41.000Z</time></trkpt>
   <trkpt lat="19.173046" lon="-98.639404"><ele>5131.0</ele><time>2021-03-21T12:07:27.000Z</time></trkpt>
   <trkpt lat="19.173287" lon="-98.640106"><ele>5143.0</ele><time>2021-03-21T12:11:38.000Z</time></trkpt>
   <trkpt lat="19.173642" lon="-98.640222"><ele>5149.9</ele><time>2021-03-21T12:13:53.000Z</time></trkpt>
   <trkpt lat="19.173707" lon="-98.640503"><ele>5154.7</ele><time>2021-03-21T12:15:47.000Z</time></trkpt>
   <trkpt lat="19.174222" lon="-98.640463"><ele>5165.9</ele><time>2021-03-21T12:22:13.000Z</time></trkpt>
   <trkpt lat="19.174463" lon="-98.640354"><ele>5172.1</ele><time>2021-03-21T12:25:29.000Z</time></trkpt>
   <trkpt lat="19.174681" lon="-98.640537"><ele>5175.6</ele><time>2021-03-21T12:27:12.000Z</time></trkpt>
   <trkpt lat="19.175440" lon="-98.640813"><ele>5186.9</ele><time>2021-03-21T12:31:38.000Z</time></trkpt>
   <trkpt lat="19.175745" lon="-98.640847"><ele>5191.3</ele><time>2021-03-21T12:34:08.000Z</time></trkpt>
   <trkpt lat="19.176108" lon="-98.640661"><ele>5198.1</ele><time>2021-03-21T12:35:33.000Z</time></trkpt>
   <trkpt lat="19.176159" lon="-98.640703"><ele>5210.2</ele><time>2021-03-21T12:45:20.000Z</time></trkpt>
   <trkpt lat="19.175834" lon="-98.640849"><ele>5199.0</ele><time>2021-03-21T12:53:35.000Z</time></trkpt>
   <trkpt lat="19.175440" lon="-98.640823"><ele>5187.3</ele><time>2021-03-21T12:58:04.000Z</time></trkpt>
   <trkpt lat="19.174464" lon="-98.640389"><ele>5168.4</ele><time>2021-03-21T13:00:50.000Z</time></trkpt>
   <trkpt lat="19.174231" lon="-98.640480"><ele>5163.8</ele><time>2021-03-21T13:02:41.000Z</time></trkpt>
   <trkpt lat="19.173934" lon="-98.640469"><ele>5156.9</ele><time>2021-03-21T13:05:16.000Z</time></trkpt>
   <trkpt lat="19.173662" lon="-98.640220"><ele>5149.2</ele><time>2021-03-21T13:07:02.000Z</time></trkpt>
   <trkpt lat="19.173535" lon="-98.640255"><ele>5146.7</ele><time>2021-03-21T13:07:24.000Z</time></trkpt>
   <trkpt lat="19.173486" lon="-98.640162"><ele>5142.4</ele><time>2021-03-21T13:11:11.000Z</time></trkpt>
   <trkpt lat="19.173327" lon="-98.640165"><ele>5139.3</ele><time>2021-03-21T13:12:01.000Z</time></trkpt>
   <trkpt lat="19.173195" lon="-98.639642"><ele>5129.7</ele><time>2021-03-21T13:14:27.000Z</time></trkpt>
   <trkpt lat="19.173064" lon="-98.639461"><ele>5125.8</ele><time>2021-03-21T13:15:02.000Z</time></trkpt>
   <trkpt lat="19.172719" lon="-98.639455"><ele>5119.7</ele><time>2021-03-21T13:15:49.000Z</time></trkpt>
   <trkpt lat="19.172256" lon="-98.639136"><ele>5109.9</ele><time>2021-03-21T13:18:12.000Z</time></trkpt>
   <trkpt lat="19.172053" lon="-98.638866"><ele>5104.3</ele><time>2021-03-21T13:18:57.000Z</time></trkpt>
   <trkpt lat="19.171351" lon="-98.638584"><ele>5091.1</ele><time>2021-03-21T13:21:23.000Z</time></trkpt>
   <trkpt lat="19.171212" lon="-98.638471"><ele>5087.3</ele><time>2021-03-21T13:22:39.000Z</time></trkpt>
   <trkpt lat="19.170947" lon="-98.637890"><ele>5075.5</ele><time>2021-03-21T13:24:19.000Z</time></trkpt>
   <trkpt lat="19.170680" lon="-98.638341"><ele>5064.5</ele><time>2021-03-21T13:27:26.000Z</time></trkpt>
   <trkpt lat="19.170607" lon="-98.638301"><ele>5063.1</ele><time>2021-03-21T13:27:43.000Z</time></trkpt>
   <trkpt lat="19.170389" lon="-98.638388"><ele>5058.8</ele><time>2021-03-21T13:28:16.000Z</time></trkpt>
   <trkpt lat="19.169160" lon="-98.639055"><ele>5041.1</ele><time>2021-03-21T13:31:08.000Z</time></trkpt>
   <trkpt lat="19.168866" lon="-98.639045"><ele>5041.3</ele><time>2021-03-21T13:31:43.000Z</time></trkpt>
   <trkpt lat="19.168706" lon="-98.639156"><ele>5041.2</ele><time>2021-03-21T13:32:05.000Z</time></trkpt>
   <trkpt lat="19.168391" lon="-98.639214"><ele>5041.3</ele><time>2021-03-21T13:32:38.000Z</time></trkpt>
   <trkpt lat="19.168246" lon="-98.639193"><ele>5041.9</ele><time>2021-03-21T13:32:55.000Z</time></trkpt>
   <trkpt lat="19.168036" lon="-98.638894"><ele>5045.1</ele><time>2021-03-21T13:35:04.000Z</time></trkpt>
   <trkpt lat="19.167698" lon="-98.638784"><ele>5050.0</ele><time>2021-03-21T13:35:57.000Z</time></trkpt>
   <trkpt lat="19.167368" lon="-98.638523"><ele>5057.9</ele><time>2021-03-21T13:38:18.000Z</time></trkpt>
   <trkpt lat="19.166957" lon="-98.638556"><ele>5073.5</ele><time>2021-03-21T13:42:49.000Z</time></trkpt>
   <trkpt lat="19.166973" lon="-98.638461"><ele>5071.8</ele><time>2021-03-21T13:45:48.000Z</time></trkpt>
   <trkpt lat="19.167017" lon="-98.638603"><ele>5074.0</ele><time>2021-03-21T13:46:13.000Z</time></trkpt>
   <trkpt lat="19.166841" lon="-98.638562"><ele>5076.9</ele><time>2021-03-21T13:46:39.000Z</time></trkpt>
   <trkpt lat="19.166771" lon="-98.638444"><ele>5078.8</ele><time>2021-03-21T13:47:35.000Z</time></trkpt>
   <trkpt lat="19.166612" lon="-98.638388"><ele>5082.2</ele><time>2021-03-21T13:48:50.000Z</time></trkpt>
   <trkpt lat="19.166652" lon="-98.638148"><ele>5082.7</ele><time>2021-03-21T13:49:35.000Z</time></trkpt>
   <trkpt lat="19.166551" lon="-98.637997"><ele>5077.6</ele><time>2021-03-21T14:10:57.000Z</time></trkpt>
   <trkpt lat="19.166259" lon="-98.637907"><ele>5064.5</ele><time>2021-03-21T14:12:16.000Z</time></trkpt>
   <trkpt lat="19.165864" lon="-98.637628"><ele>5051.9</ele><time>2021-03-21T14:14:15.000Z</time></trkpt>
   <trkpt lat="19.165260" lon="-98.637449"><ele>5044.7</ele><time>2021-03-21T14:15:41.000Z</time></trkpt>
   <trkpt lat="19.164430" lon="-98.637669"><ele>5048.8</ele><time>2021-03-21T14:17:27.000Z</time></trkpt>
   <trkpt lat="19.164226" lon="-98.637817"><ele>5046.7</ele><time>2021-03-21T14:18:01.000Z</time></trkpt>
   <trkpt lat="19.164119" lon="-98.638018"><ele>5038.5</ele><time>2021-03-21T14:18:49.000Z</time></trkpt>
   <trkpt lat="19.164025" lon="-98.637952"><ele>5032.9</ele><time>2021-03-21T14:19:58.000Z</time></trkpt>
   <trkpt lat="19.163238" lon="-98.637952"><ele>5019.3</ele><time>2021-03-21T14:22:36.000Z</time></trkpt>
   <trkpt lat="19.162878" lon="-98.637629"><ele>5017.7</ele><time>2021-03-21T14:24:03.000Z</time></trkpt>
   <trkpt lat="19.162741" lon="-98.637618"><ele>5019.1</ele><time>2021-03-21T14:24:23.000Z</time></trkpt>
   <trkpt lat="19.162658" lon="-98.637388"><ele>5027.1</ele><time>2021-03-21T14:25:54.000Z</time></trkpt>
   <trkpt lat="19.162272" lon="-98.636895"><ele>5026.6</ele><time>2021-03-21T14:29:50.000Z</time></trkpt>
   <trkpt lat="19.162127" lon="-98.636826"><ele>5021.6</ele><time>2021-03-21T14:30:40.000Z</time></trkpt>
   <trkpt lat="19.162032" lon="-98.636889"><ele>5018.7</ele><time>2021-03-21T14:30:56.000Z</time></trkpt>
   <trkpt lat="19.161033" lon="-98.636493"><ele>4985.4</ele><time>2021-03-21T14:37:31.000Z</time></trkpt>
   <trkpt lat="19.160794" lon="-98.636572"><ele>4976.2</ele><time>2021-03-21T14:40:55.000Z</time></trkpt>
   <trkpt lat="19.160373" lon="-98.636228"><ele>4959.4</ele><time>2021-03-21T14:45:06.000Z</time></trkpt>
   <trkpt lat="19.160327" lon="-98.636317"><ele>4955.5</ele><time>2021-03-21T14:46:46.000Z</time></trkpt>
   <trkpt lat="19.160208" lon="-98.636248"><ele>4949.5</ele><time>2021-03-21T14:48:43.000Z</time></trkpt>
   <trkpt lat="19.160254" lon="-98.636198"><ele>4943.1</ele><time>2021-03-21T14:49:25.000Z</time></trkpt>
   <trkpt lat="19.160179" lon="-98.636211"><ele>4940.1</ele><time>2021-03-21T14:49:36.000Z</time></trkpt>
   <trkpt lat="19.160090" lon="-98.636338"><ele>4928.6</ele><time>2021-03-21T14:50:35.000Z</time></trkpt>
   <trkpt lat="19.159953" lon="-98.636142"><ele>4916.8</ele><time>2021-03-21T14:52:39.000Z</time></trkpt>
   <trkpt lat="19.159751" lon="-98.636037"><ele>4907.6</ele><time>2021-03-21T14:54:21.000Z</time></trkpt>
   <trkpt lat="19.159614" lon="-98.636345"><ele>4895.3</ele><time>2021-03-21T14:57:01.000Z</time></trkpt>
   <trkpt lat="19.159378" lon="-98.636554"><ele>4884.0</ele><time>2021-03-21T14:59:10.000Z</time></trkpt>
   <trkpt lat="19.158966" lon="-98.636556"><ele>4869.6</ele><time>2021-03-21T15:01:01.000Z</time></trkpt>
   <trkpt lat="19.158810" lon="-98.636478"><ele>4862.8</ele><time>2021-03-21T15:01:56.000Z</time></trkpt>
   <trkpt lat="19.158482" lon="-98.636662"><ele>4848.9</ele><time>2021-03-21T15:03:28.000Z</time></trkpt>
   <trkpt lat="19.158350" lon="-98.636625"><ele>4844.6</ele><time>2021-03-21T15:04:00.000Z</time></trkpt>
   <trkpt lat="19.158273" lon="-98.636793"><ele>4838.5</ele><time>2021-03-21T15:04:33.000Z</time></trkpt>
   <trkpt lat="19.157840" lon="-98.636788"><ele>4823.9</ele><time>2021-03-21T15:06:23.000Z</time></trkpt>
   <trkpt lat="19.157714" lon="-98.636868"><ele>4819.3</ele><time>2021-03-21T15:06:55.000Z</time></trkpt>
   <trkpt lat="19.157248" lon="-98.636906"><ele>4805.6</ele><time>2021-03-21T15:07:50.000Z</time></trkpt>
   <trkpt lat="19.157071" lon="-98.636825"><ele>4799.9</ele><time>2021-03-21T15:08:15.000Z</time></trkpt>
   <trkpt lat="19.156930" lon="-98.636963"><ele>4794.4</ele><time>2021-03-21T15:08:33.000Z</time></trkpt>
   <trkpt lat="19.156741" lon="-98.637008"><ele>4788.7</ele><time>2021-03-21T15:08:51.000Z</time></trkpt>
   <trkpt lat="19.156624" lon="-98.637179"><ele>4781.2</ele><time>2021-03-21T15:09:38.000Z</time></trkpt>
   <trkpt lat="19.156286" lon="-98.637082"><ele>4770.8</ele><time>2021-03-21T15:10:40.000Z</time></trkpt>
   <trkpt lat="19.155059" lon="-98.637626"><ele>4729.8</ele><time>2021-03-21T15:14:15.000Z</time></trkpt>
   <trkpt lat="19.154898" lon="-98.637516"><ele>4724.0</ele><time>2021-03-21T15:14:46.000Z</time></trkpt>
   <trkpt lat="19.154560" lon="-98.637545"><ele>4717.0</ele><time>2021-03-21T15:15:48.000Z</time></trkpt>
   <trkpt lat="19.154471" lon="-98.637461"><ele>4716.0</ele><time>2021-03-21T15:16:54.000Z</time></trkpt>
   <trkpt lat="19.153942" lon="-98.637357"><ele>4714.8</ele><time>2021-03-21T15:19:31.000Z</time></trkpt>
   <trkpt lat="19.153953" lon="-98.637425"><ele>4713.4</ele><time>2021-03-21T15:23:12.000Z</time></trkpt>
   <trkpt lat="19.153948" lon="-98.637322"><ele>4701.8</ele><time>2021-03-21T15:50:22.000Z</time></trkpt>
   <trkpt lat="19.153819" lon="-98.637458"><ele>4701.9</ele><time>2021-03-21T15:53:18.000Z</time></trkpt>
   <trkpt lat="19.153837" lon="-98.637381"><ele>4701.9</ele><time>2021-03-21T15:55:41.000Z</time></trkpt>
   <trkpt lat="19.153974" lon="-98.637365"><ele>4702.0</ele><time>2021-03-21T15:58:04.000Z</time></trkpt>
   <trkpt lat="19.154074" lon="-98.637555"><ele>4702.1</ele><time>2021-03-21T16:01:47.000Z</time></trkpt>
   <trkpt lat="19.153960" lon="-98.637386"><ele>4702.2</ele><time>2021-03-21T16:06:45.000Z</time></trkpt>
   <trkpt lat="19.154055" lon="-98.637493"><ele>4702.3</ele><time>2021-03-21T16:11:03.000Z</time></trkpt>
   <trkpt lat="19.153972" lon="-98.637384"><ele>4688.4</ele><time>2021-03-21T16:23:05.000Z</time></trkpt>
   <trkpt lat="19.154080" lon="-98.637467"><ele>4685.3</ele><time>2021-03-21T16:23:57.000Z</time></trkpt>
   <trkpt lat="19.154248" lon="-98.637461"><ele>4680.8</ele><time>2021-03-21T16:25:35.000Z</time></trkpt>
   <trkpt lat="19.154372" lon="-98.637367"><ele>4677.1</ele><time>2021-03-21T16:26:29.000Z</time></trkpt>
   <trkpt lat="19.154243" lon="-98.636638"><ele>4659.6</ele><time>2021-03-21T16:31:08.000Z</time></trkpt>
   <trkpt lat="19.154173" lon="-98.636676"><ele>4653.9</ele><time>2021-03-21T16:33:05.000Z</time></trkpt>
   <trkpt lat="19.154103" lon="-98.636584"><ele>4651.6</ele><time>2021-03-21T16:33:30.000Z</time></trkpt>
   <trkpt lat="19.154173" lon="-98.636487"><ele>4647.9</ele><time>2021-03-21T16:34:38.000Z</time></trkpt>
   <trkpt lat="19.154134" lon="-98.636390"><ele>4645.8</ele><time>2021-03-21T16:34:57.000Z</time></trkpt>
   <trkpt lat="19.153529" lon="-98.636369"><ele>4631.2</ele><time>2021-03-21T16:37:19.000Z</time></trkpt>
   <trkpt lat="19.152822" lon="-98.635964"><ele>4613.5</ele><time>2021-03-21T16:40:02.000Z</time></trkpt>
   <trkpt lat="19.152378" lon="-98.635960"><ele>4604.3</ele><time>2021-03-21T16:41:11.000Z</time></trkpt>
   <trkpt lat="19.152299" lon="-98.635865"><ele>4601.6</ele><time>2021-03-21T16:41:36.000Z</time></trkpt>
   <trkpt lat="19.151894" lon="-98.635864"><ele>4593.0</ele><time>2021-03-21T16:42:58.000Z</time></trkpt>
   <trkpt lat="19.151679" lon="-98.635781"><ele>4587.7</ele><time>2021-03-21T16:43:44.000Z</time></trkpt>
   <trkpt lat="19.150883" lon="-98.635878"><ele>4572.9</ele><time>2021-03-21T16:45:39.000Z</time></trkpt>
   <trkpt lat="19.150733" lon="-98.635960"><ele>4571.1</ele><time>2021-03-21T16:46:12.000Z</time></trkpt>
   <trkpt lat="19.149990" lon="-98.635962"><ele>4551.5</ele><time>2021-03-21T16:50:28.000Z</time></trkpt>
   <trkpt lat="19.149658" lon="-98.636185"><ele>4538.3</ele><time>2021-03-21T16:54:06.000Z</time></trkpt>
   <trkpt lat="19.149521" lon="-98.636147"><ele>4533.7</ele><time>2021-03-21T16:55:13.000Z</time></trkpt>
   <trkpt lat="19.149283" lon="-98.636311"><ele>4525.4</ele><time>2021-03-21T16:56:25.000Z</time></trkpt>
   <trkpt lat="19.149048" lon="-98.636323"><ele>4518.7</ele><time>2021-03-21T16:56:57.000Z</time></trkpt>
   <trkpt lat="19.148661" lon="-98.636738"><ele>4503.0</ele><time>2021-03-21T16:58:10.000Z</time></trkpt>
   <trkpt lat="19.148424" lon="-98.636791"><ele>4495.0</ele><time>2021-03-21T16:59:08.000Z</time></trkpt>
   <trkpt lat="19.147979" lon="-98.637250"><ele>4477.3</ele><time>2021-03-21T17:00:58.000Z</time></trkpt>
   <trkpt lat="19.147934" lon="-98.637421"><ele>4472.0</ele><time>2021-03-21T17:01:35.000Z</time></trkpt>
   <trkpt lat="19.147628" lon="-98.637643"><ele>4459.8</ele><time>2021-03-21T17:03:01.000Z</time></trkpt>
   <trkpt lat="19.147283" lon="-98.637684"><ele>4450.9</ele><time>2021-03-21T17:03:43.000Z</time></trkpt>
   <trkpt lat="19.146527" lon="-98.638116"><ele>4427.5</ele><time>2021-03-21T17:05:57.000Z</time></trkpt>
   <trkpt lat="19.146508" lon="-98.638041"><ele>4425.1</ele><time>2021-03-21T17:06:30.000Z</time></trkpt>
   <trkpt lat="19.146425" lon="-98.638187"><ele>4419.6</ele><time>2021-03-21T17:07:13.000Z</time></trkpt>
   <trkpt lat="19.146231" lon="-98.638208"><ele>4414.6</ele><time>2021-03-21T17:07:30.000Z</time></trkpt>
   <trkpt lat="19.146145" lon="-98.638483"><ele>4407.8</ele><time>2021-03-21T17:07:57.000Z</time></trkpt>
   <trkpt lat="19.145972" lon="-98.638584"><ele>4402.4</ele><time>2021-03-21T17:08:41.000Z</time></trkpt>
   <trkpt lat="19.145809" lon="-98.638862"><ele>4394.2</ele><time>2021-03-21T17:09:27.000Z</time></trkpt>
   <trkpt lat="19.145456" lon="-98.638942"><ele>4383.6</ele><time>2021-03-21T17:10:52.000Z</time></trkpt>
   <trkpt lat="19.145315" lon="-98.639296"><ele>4371.8</ele><time>2021-03-21T17:12:34.000Z</time></trkpt>
   <trkpt lat="19.145104" lon="-98.639471"><ele>4364.1</ele><time>2021-03-21T17:13:57.000Z</time></trkpt>
   <trkpt lat="19.144757" lon="-98.639320"><ele>4354.5</ele><time>2021-03-21T17:16:27.000Z</time></trkpt>
   <trkpt lat="19.144582" lon="-98.639504"><ele>4347.8</ele><time>2021-03-21T17:18:02.000Z</time></trkpt>
   <trkpt lat="19.144341" lon="-98.639555"><ele>4341.2</ele><time>2021-03-21T17:19:36.000Z</time></trkpt>
   <trkpt lat="19.143903" lon="-98.639852"><ele>4324.0</ele><time>2021-03-21T17:30:50.000Z</time></trkpt>
   <trkpt lat="19.143710" lon="-98.640149"><ele>4315.3</ele><time>2021-03-21T17:32:22.000Z</time></trkpt>
   <trkpt lat="19.143638" lon="-98.640089"><ele>4313.0</ele><time>2021-03-21T17:32:44.000Z</time></trkpt>
   <trkpt lat="19.143565" lon="-98.640233"><ele>4308.9</ele><time>2021-03-21T17:33:22.000Z</time></trkpt>
   <trkpt lat="19.143499" lon="-98.640170"><ele>4306.7</ele><time>2021-03-21T17:33:32.000Z</time></trkpt>
   <trkpt lat="19.143497" lon="-98.640386"><ele>4301.1</ele><time>2021-03-21T17:34:31.000Z</time></trkpt>
   <trkpt lat="19.143295" lon="-98.640383"><ele>4294.9</ele><time>2021-03-21T17:35:37.000Z</time></trkpt>
   <trkpt lat="19.143196" lon="-98.640737"><ele>4286.4</ele><time>2021-03-21T17:36:22.000Z</time></trkpt>
   <trkpt lat="19.143010" lon="-98.640816"><ele>4280.0</ele><time>2021-03-21T17:37:38.000Z</time></trkpt>
   <trkpt lat="19.142940" lon="-98.641249"><ele>4268.9</ele><time>2021-03-21T17:38:39.000Z</time></trkpt>
   <trkpt lat="19.142691" lon="-98.641782"><ele>4255.7</ele><time>2021-03-21T17:39:48.000Z</time></trkpt>
   <trkpt lat="19.142739" lon="-98.641962"><ele>4250.4</ele><time>2021-03-21T17:41:19.000Z</time></trkpt>
   <trkpt lat="19.142653" lon="-98.641968"><ele>4244.6</ele><time>2021-03-21T17:49:56.000Z</time></trkpt>
   <trkpt lat="19.142686" lon="-98.642008"><ele>4243.1</ele><time>2021-03-21T17:50:17.000Z</time></trkpt>
   <trkpt lat="19.142438" lon="-98.642233"><ele>4234.2</ele><time>2021-03-21T17:52:04.000Z</time></trkpt>
   <trkpt lat="19.141950" lon="-98.642295"><ele>4222.7</ele><time>2021-03-21T17:53:48.000Z</time></trkpt>
   <trkpt lat="19.141336" lon="-98.642672"><ele>4205.0</ele><time>2021-03-21T17:56:10.000Z</time></trkpt>
   <trkpt lat="19.140768" lon="-98.643235"><ele>4186.5</ele><time>2021-03-21T17:58:49.000Z</time></trkpt>
   <trkpt lat="19.140635" lon="-98.643252"><ele>4183.6</ele><time>2021-03-21T17:59:00.000Z</time></trkpt>
   <trkpt lat="19.140346" lon="-98.643479"><ele>4175.2</ele><time>2021-03-21T18:00:06.000Z</time></trkpt>
   <trkpt lat="19.139946" lon="-98.643937"><ele>4161.8</ele><time>2021-03-21T18:01:33.000Z</time></trkpt>
   <trkpt lat="19.139514" lon="-98.644175"><ele>4150.1</ele><time>2021-03-21T18:03:09.000Z</time></trkpt>
   <trkpt lat="19.139255" lon="-98.644528"><ele>4140.5</ele><time>2021-03-21T18:03:57.000Z</time></trkpt>
   <trkpt lat="19.139191" lon="-98.644750"><ele>4135.3</ele><time>2021-03-21T18:04:31.000Z</time></trkpt>
   <trkpt lat="19.139027" lon="-98.644875"><ele>4130.5</ele><time>2021-03-21T18:05:11.000Z</time></trkpt>
   <trkpt lat="19.139048" lon="-98.644978"><ele>4128.2</ele><time>2021-03-21T18:05:29.000Z</time></trkpt>
   <trkpt lat="19.138865" lon="-98.645009"><ele>4124.0</ele><time>2021-03-21T18:05:48.000Z</time></trkpt>
   <trkpt lat="19.138503" lon="-98.645329"><ele>4113.6</ele><time>2021-03-21T18:06:48.000Z</time></trkpt>
   <trkpt lat="19.138245" lon="-98.645850"><ele>4101.0</ele><time>2021-03-21T18:07:54.000Z</time></trkpt>
   <trkpt lat="19.138171" lon="-98.646629"><ele>4084.8</ele><time>2021-03-21T18:09:23.000Z</time></trkpt>
   <trkpt lat="19.137979" lon="-98.646935"><ele>4077.1</ele><time>2021-03-21T18:10:17.000Z</time></trkpt>
   <trkpt lat="19.138037" lon="-98.647150"><ele>4072.6</ele><time>2021-03-21T18:10:36.000Z</time></trkpt>
   <trkpt lat="19.137771" lon="-98.647470"><ele>4063.7</ele><time>2021-03-21T18:11:23.000Z</time></trkpt>
   <trkpt lat="19.137717" lon="-98.647992"><ele>4052.0</ele><time>2021-03-21T18:12:19.000Z</time></trkpt>
   <trkpt lat="19.136940" lon="-98.649084"><ele>4030.2</ele><time>2021-03-21T18:14:38.000Z</time></trkpt>
   <trkpt lat="19.136660" lon="-98.649627"><ele>4010.9</ele><time>2021-03-21T18:16:18.000Z</time></trkpt>
   <trkpt lat="19.136736" lon="-98.649861"><ele>4001.9</ele><time>2021-03-21T18:16:54.000Z</time></trkpt>
   <trkpt lat="19.136686" lon="-98.650082"><ele>3994.6</ele><time>2021-03-21T18:17:26.000Z</time></trkpt>
   <trkpt lat="19.136829" lon="-98.650186"><ele>3990.9</ele><time>2021-03-21T18:17:43.000Z</time></trkpt>
   <trkpt lat="19.136548" lon="-98.650371"><ele>3989.8</ele><time>2021-03-21T18:18:30.000Z</time></trkpt>
   <trkpt lat="19.136332" lon="-98.650352"><ele>3989.0</ele><time>2021-03-21T18:18:56.000Z</time></trkpt>
   <trkpt lat="19.135713" lon="-98.650571"><ele>3987.1</ele><time>2021-03-21T18:19:59.000Z</time></trkpt>
   <trkpt lat="19.134554" lon="-98.650457"><ele>3983.5</ele><time>2021-03-21T18:21:44.000Z</time></trkpt>
   <trkpt lat="19.134404" lon="-98.650500"><ele>3983.2</ele><time>2021-03-21T18:21:57.000Z</time></trkpt>
   <trkpt lat="19.133865" lon="-98.651046"><ele>3980.6</ele><time>2021-03-21T18:23:05.000Z</time></trkpt>
   <trkpt lat="19.133706" lon="-98.651361"><ele>3972.2</ele><time>2021-03-21T18:23:38.000Z</time></trkpt>
   <trkpt lat="19.133667" lon="-98.651716"><ele>3964.2</ele><time>2021-03-21T18:24:14.000Z</time></trkpt>
   <trkpt lat="19.133269" lon="-98.652259"><ele>3962.9</ele><time>2021-03-21T18:28:26.000Z</time></trkpt>
   <trkpt lat="19.133304" lon="-98.652454"><ele>3962.2</ele><time>2021-03-21T18:32:18.000Z</time></trkpt>
   <trkpt lat="19.133283" lon="-98.652256"><ele>3962.9</ele><time>2021-03-21T18:37:08.000Z</time></trkpt>
  </trkseg>
 </trk>
</gpx>
