<?xml version="1.0" encoding="UTF-8"?>
<gpx version="1.1" creator="Strava (via strava-mcp)" xmlns="http://www.topografix.com/GPX/1/1">
 <metadata><name>La Malinche</name><time>2020-01-25T14:39:26.000Z</time></metadata>
 <trk>
  <name>La Malinche</name>
  <type>Hike</type>
  <trkseg>
   <trkpt lat="19.279043" lon="-98.041984"><ele>3127.3</ele><time>2020-01-25T14:39:26.000Z</time></trkpt>
   <trkpt lat="19.278985" lon="-98.042175"><ele>3129.8</ele><time>2020-01-25T14:39:44.000Z</time></trkpt>
   <trkpt lat="19.277980" lon="-98.042062"><ele>3139.7</ele><time>2020-01-25T14:41:31.000Z</time></trkpt>
   <trkpt lat="19.277571" lon="-98.041867"><ele>3145.0</ele><time>2020-01-25T14:42:17.000Z</time></trkpt>
   <trkpt lat="19.277332" lon="-98.042027"><ele>3149.4</ele><time>2020-01-25T14:42:56.000Z</time></trkpt>
   <trkpt lat="19.276269" lon="-98.041718"><ele>3163.2</ele><time>2020-01-25T14:44:54.000Z</time></trkpt>
   <trkpt lat="19.275284" lon="-98.041623"><ele>3178.2</ele><time>2020-01-25T14:46:33.000Z</time></trkpt>
   <trkpt lat="19.274846" lon="-98.041436"><ele>3185.6</ele><time>2020-01-25T14:47:34.000Z</time></trkpt>
   <trkpt lat="19.274025" lon="-98.041308"><ele>3199.7</ele><time>2020-01-25T14:49:24.000Z</time></trkpt>
   <trkpt lat="19.273712" lon="-98.041160"><ele>3205.2</ele><time>2020-01-25T14:50:07.000Z</time></trkpt>
   <trkpt lat="19.273225" lon="-98.041129"><ele>3211.1</ele><time>2020-01-25T14:51:05.000Z</time></trkpt>
   <trkpt lat="19.271893" lon="-98.040813"><ele>3229.1</ele><time>2020-01-25T14:53:54.000Z</time></trkpt>
   <trkpt lat="19.271239" lon="-98.040822"><ele>3237.3</ele><time>2020-01-25T14:55:19.000Z</time></trkpt>
   <trkpt lat="19.271168" lon="-98.040724"><ele>3239.0</ele><time>2020-01-25T14:55:32.000Z</time></trkpt>
   <trkpt lat="19.270895" lon="-98.040630"><ele>3243.3</ele><time>2020-01-25T14:56:01.000Z</time></trkpt>
   <trkpt lat="19.270327" lon="-98.040594"><ele>3251.3</ele><time>2020-01-25T14:57:14.000Z</time></trkpt>
   <trkpt lat="19.269643" lon="-98.040391"><ele>3263.5</ele><time>2020-01-25T14:58:41.000Z</time></trkpt>
   <trkpt lat="19.269351" lon="-98.040450"><ele>3268.0</ele><time>2020-01-25T14:59:18.000Z</time></trkpt>
   <trkpt lat="19.268535" lon="-98.039793"><ele>3283.5</ele><time>2020-01-25T15:01:23.000Z</time></trkpt>
   <trkpt lat="19.268099" lon="-98.039583"><ele>3289.8</ele><time>2020-01-25T15:02:18.000Z</time></trkpt>
   <trkpt lat="19.267599" lon="-98.039134"><ele>3298.2</ele><time>2020-01-25T15:03:31.000Z</time></trkpt>
   <trkpt lat="19.267292" lon="-98.038717"><ele>3305.5</ele><time>2020-01-25T15:04:28.000Z</time></trkpt>
   <trkpt lat="19.266810" lon="-98.038546"><ele>3313.6</ele><time>2020-01-25T15:05:29.000Z</time></trkpt>
   <trkpt lat="19.266381" lon="-98.038106"><ele>3322.8</ele><time>2020-01-25T15:06:49.000Z</time></trkpt>
   <trkpt lat="19.266004" lon="-98.037866"><ele>3330.6</ele><time>2020-01-25T15:07:58.000Z</time></trkpt>
   <trkpt lat="19.265987" lon="-98.037763"><ele>3332.2</ele><time>2020-01-25T15:08:31.000Z</time></trkpt>
   <trkpt lat="19.265291" lon="-98.037184"><ele>3347.2</ele><time>2020-01-25T15:11:00.000Z</time></trkpt>
   <trkpt lat="19.265038" lon="-98.036756"><ele>3355.8</ele><time>2020-01-25T15:12:11.000Z</time></trkpt>
   <trkpt lat="19.264747" lon="-98.036636"><ele>3360.6</ele><time>2020-01-25T15:12:53.000Z</time></trkpt>
   <trkpt lat="19.264360" lon="-98.036275"><ele>3369.7</ele><time>2020-01-25T15:14:18.000Z</time></trkpt>
   <trkpt lat="19.264033" lon="-98.036122"><ele>3376.6</ele><time>2020-01-25T15:15:03.000Z</time></trkpt>
   <trkpt lat="19.263908" lon="-98.035951"><ele>3381.3</ele><time>2020-01-25T15:15:26.000Z</time></trkpt>
   <trkpt lat="19.263346" lon="-98.035715"><ele>3390.0</ele><time>2020-01-25T15:16:51.000Z</time></trkpt>
   <trkpt lat="19.263159" lon="-98.035458"><ele>3394.3</ele><time>2020-01-25T15:17:33.000Z</time></trkpt>
   <trkpt lat="19.262831" lon="-98.035215"><ele>3400.3</ele><time>2020-01-25T15:18:30.000Z</time></trkpt>
   <trkpt lat="19.262338" lon="-98.035020"><ele>3411.7</ele><time>2020-01-25T15:19:41.000Z</time></trkpt>
   <trkpt lat="19.260571" lon="-98.033588"><ele>3444.7</ele><time>2020-01-25T15:24:19.000Z</time></trkpt>
   <trkpt lat="19.259640" lon="-98.033202"><ele>3456.4</ele><time>2020-01-25T15:26:05.000Z</time></trkpt>
   <trkpt lat="19.259178" lon="-98.033231"><ele>3464.7</ele><time>2020-01-25T15:27:00.000Z</time></trkpt>
   <trkpt lat="19.258963" lon="-98.033384"><ele>3470.4</ele><time>2020-01-25T15:27:34.000Z</time></trkpt>
   <trkpt lat="19.258538" lon="-98.033538"><ele>3481.2</ele><time>2020-01-25T15:28:59.000Z</time></trkpt>
   <trkpt lat="19.258315" lon="-98.033533"><ele>3485.9</ele><time>2020-01-25T15:29:32.000Z</time></trkpt>
   <trkpt lat="19.257907" lon="-98.033747"><ele>3495.3</ele><time>2020-01-25T15:30:30.000Z</time></trkpt>
   <trkpt lat="19.257735" lon="-98.033663"><ele>3498.6</ele><time>2020-01-25T15:31:03.000Z</time></trkpt>
   <trkpt lat="19.257435" lon="-98.033704"><ele>3505.1</ele><time>2020-01-25T15:31:54.000Z</time></trkpt>
   <trkpt lat="19.257137" lon="-98.033572"><ele>3512.7</ele><time>2020-01-25T15:32:43.000Z</time></trkpt>
   <trkpt lat="19.257008" lon="-98.033651"><ele>3520.3</ele><time>2020-01-25T15:37:39.000Z</time></trkpt>
   <trkpt lat="19.256640" lon="-98.033601"><ele>3529.8</ele><time>2020-01-25T15:38:34.000Z</time></trkpt>
   <trkpt lat="19.256074" lon="-98.033373"><ele>3546.0</ele><time>2020-01-25T15:40:10.000Z</time></trkpt>
   <trkpt lat="19.255632" lon="-98.033430"><ele>3561.7</ele><time>2020-01-25T15:41:42.000Z</time></trkpt>
   <trkpt lat="19.255320" lon="-98.033241"><ele>3572.0</ele><time>2020-01-25T15:42:52.000Z</time></trkpt>
   <trkpt lat="19.254866" lon="-98.033420"><ele>3583.5</ele><time>2020-01-25T15:44:21.000Z</time></trkpt>
   <trkpt lat="19.254675" lon="-98.033285"><ele>3589.1</ele><time>2020-01-25T15:45:02.000Z</time></trkpt>
   <trkpt lat="19.254116" lon="-98.033203"><ele>3603.4</ele><time>2020-01-25T15:46:37.000Z</time></trkpt>
   <trkpt lat="19.253792" lon="-98.032936"><ele>3617.0</ele><time>2020-01-25T15:47:37.000Z</time></trkpt>
   <trkpt lat="19.253691" lon="-98.032934"><ele>3618.1</ele><time>2020-01-25T15:47:51.000Z</time></trkpt>
   <trkpt lat="19.253390" lon="-98.033084"><ele>3617.8</ele><time>2020-01-25T15:49:14.000Z</time></trkpt>
   <trkpt lat="19.253342" lon="-98.033311"><ele>3627.7</ele><time>2020-01-25T15:52:59.000Z</time></trkpt>
   <trkpt lat="19.253356" lon="-98.033247"><ele>3632.5</ele><time>2020-01-25T15:53:48.000Z</time></trkpt>
   <trkpt lat="19.253023" lon="-98.033276"><ele>3651.3</ele><time>2020-01-25T15:54:59.000Z</time></trkpt>
   <trkpt lat="19.252882" lon="-98.033435"><ele>3657.8</ele><time>2020-01-25T15:55:25.000Z</time></trkpt>
   <trkpt lat="19.252540" lon="-98.033525"><ele>3672.6</ele><time>2020-01-25T15:56:44.000Z</time></trkpt>
   <trkpt lat="19.251548" lon="-98.033421"><ele>3718.2</ele><time>2020-01-25T16:00:00.000Z</time></trkpt>
   <trkpt lat="19.251580" lon="-98.033367"><ele>3723.6</ele><time>2020-01-25T16:00:25.000Z</time></trkpt>
   <trkpt lat="19.251639" lon="-98.033452"><ele>3728.2</ele><time>2020-01-25T16:00:37.000Z</time></trkpt>
   <trkpt lat="19.251588" lon="-98.033735"><ele>3729.7</ele><time>2020-01-25T16:01:18.000Z</time></trkpt>
   <trkpt lat="19.251640" lon="-98.033397"><ele>3722.6</ele><time>2020-01-25T16:02:05.000Z</time></trkpt>
   <trkpt lat="19.250380" lon="-98.033414"><ele>3745.7</ele><time>2020-01-25T16:07:20.000Z</time></trkpt>
   <trkpt lat="19.250167" lon="-98.033147"><ele>3749.1</ele><time>2020-01-25T16:08:14.000Z</time></trkpt>
   <trkpt lat="19.250003" lon="-98.033246"><ele>3751.4</ele><time>2020-01-25T16:08:39.000Z</time></trkpt>
   <trkpt lat="19.249626" lon="-98.033221"><ele>3756.2</ele><time>2020-01-25T16:09:40.000Z</time></trkpt>
   <trkpt lat="19.249515" lon="-98.033309"><ele>3758.8</ele><time>2020-01-25T16:09:54.000Z</time></trkpt>
   <trkpt lat="19.249315" lon="-98.033314"><ele>3762.1</ele><time>2020-01-25T16:10:12.000Z</time></trkpt>
   <trkpt lat="19.248975" lon="-98.032985"><ele>3767.6</ele><time>2020-01-25T16:11:08.000Z</time></trkpt>
   <trkpt lat="19.248302" lon="-98.032815"><ele>3779.6</ele><time>2020-01-25T16:12:48.000Z</time></trkpt>
   <trkpt lat="19.247547" lon="-98.032418"><ele>3797.0</ele><time>2020-01-25T16:14:46.000Z</time></trkpt>
   <trkpt lat="19.247258" lon="-98.032416"><ele>3803.7</ele><time>2020-01-25T16:15:40.000Z</time></trkpt>
   <trkpt lat="19.247198" lon="-98.032535"><ele>3819.1</ele><time>2020-01-25T16:16:47.000Z</time></trkpt>
   <trkpt lat="19.247184" lon="-98.032464"><ele>3828.1</ele><time>2020-01-25T16:21:47.000Z</time></trkpt>
   <trkpt lat="19.247114" lon="-98.032478"><ele>3831.2</ele><time>2020-01-25T16:21:52.000Z</time></trkpt>
   <trkpt lat="19.246798" lon="-98.032656"><ele>3841.6</ele><time>2020-01-25T16:22:40.000Z</time></trkpt>
   <trkpt lat="19.246424" lon="-98.032524"><ele>3851.5</ele><time>2020-01-25T16:24:14.000Z</time></trkpt>
   <trkpt lat="19.245894" lon="-98.032688"><ele>3858.6</ele><time>2020-01-25T16:26:02.000Z</time></trkpt>
   <trkpt lat="19.245612" lon="-98.032414"><ele>3862.2</ele><time>2020-01-25T16:27:11.000Z</time></trkpt>
   <trkpt lat="19.245238" lon="-98.032332"><ele>3867.4</ele><time>2020-01-25T16:28:21.000Z</time></trkpt>
   <trkpt lat="19.244949" lon="-98.031977"><ele>3864.9</ele><time>2020-01-25T16:29:22.000Z</time></trkpt>
   <trkpt lat="19.244657" lon="-98.031808"><ele>3867.4</ele><time>2020-01-25T16:29:58.000Z</time></trkpt>
   <trkpt lat="19.244576" lon="-98.031845"><ele>3869.1</ele><time>2020-01-25T16:30:40.000Z</time></trkpt>
   <trkpt lat="19.244589" lon="-98.031780"><ele>3870.1</ele><time>2020-01-25T16:30:49.000Z</time></trkpt>
   <trkpt lat="19.243754" lon="-98.031926"><ele>3889.7</ele><time>2020-01-25T16:33:15.000Z</time></trkpt>
   <trkpt lat="19.243373" lon="-98.031768"><ele>3887.0</ele><time>2020-01-25T16:34:12.000Z</time></trkpt>
   <trkpt lat="19.243056" lon="-98.031797"><ele>3888.0</ele><time>2020-01-25T16:35:55.000Z</time></trkpt>
   <trkpt lat="19.242516" lon="-98.032084"><ele>3901.2</ele><time>2020-01-25T16:40:40.000Z</time></trkpt>
   <trkpt lat="19.242126" lon="-98.031992"><ele>3912.6</ele><time>2020-01-25T16:41:51.000Z</time></trkpt>
   <trkpt lat="19.241905" lon="-98.031741"><ele>3918.3</ele><time>2020-01-25T16:42:28.000Z</time></trkpt>
   <trkpt lat="19.241580" lon="-98.031955"><ele>3918.1</ele><time>2020-01-25T16:43:24.000Z</time></trkpt>
   <trkpt lat="19.240996" lon="-98.032060"><ele>3929.4</ele><time>2020-01-25T16:44:50.000Z</time></trkpt>
   <trkpt lat="19.241081" lon="-98.031872"><ele>3934.0</ele><time>2020-01-25T16:45:39.000Z</time></trkpt>
   <trkpt lat="19.240957" lon="-98.031945"><ele>3939.6</ele><time>2020-01-25T16:46:18.000Z</time></trkpt>
   <trkpt lat="19.240620" lon="-98.031797"><ele>3945.8</ele><time>2020-01-25T16:47:35.000Z</time></trkpt>
   <trkpt lat="19.240471" lon="-98.031639"><ele>3948.6</ele><time>2020-01-25T16:48:13.000Z</time></trkpt>
   <trkpt lat="19.240173" lon="-98.031747"><ele>3963.1</ele><time>2020-01-25T16:50:34.000Z</time></trkpt>
   <trkpt lat="19.239552" lon="-98.031424"><ele>3975.6</ele><time>2020-01-25T16:52:31.000Z</time></trkpt>
   <trkpt lat="19.239422" lon="-98.031476"><ele>3978.2</ele><time>2020-01-25T16:57:34.000Z</time></trkpt>
   <trkpt lat="19.239298" lon="-98.031375"><ele>3982.7</ele><time>2020-01-25T17:01:00.000Z</time></trkpt>
   <trkpt lat="19.238847" lon="-98.031484"><ele>4009.9</ele><time>2020-01-25T17:02:48.000Z</time></trkpt>
   <trkpt lat="19.238565" lon="-98.031485"><ele>4019.8</ele><time>2020-01-25T17:04:14.000Z</time></trkpt>
   <trkpt lat="19.238466" lon="-98.031401"><ele>4025.2</ele><time>2020-01-25T17:05:04.000Z</time></trkpt>
   <trkpt lat="19.238149" lon="-98.031426"><ele>4041.9</ele><time>2020-01-25T17:07:15.000Z</time></trkpt>
   <trkpt lat="19.237463" lon="-98.031148"><ele>4078.1</ele><time>2020-01-25T17:28:28.000Z</time></trkpt>
   <trkpt lat="19.237240" lon="-98.031284"><ele>4087.9</ele><time>2020-01-25T17:29:48.000Z</time></trkpt>
   <trkpt lat="19.236960" lon="-98.031173"><ele>4111.1</ele><time>2020-01-25T17:31:24.000Z</time></trkpt>
   <trkpt lat="19.236191" lon="-98.031435"><ele>4134.4</ele><time>2020-01-25T17:36:04.000Z</time></trkpt>
   <trkpt lat="19.236122" lon="-98.031559"><ele>4138.4</ele><time>2020-01-25T17:36:39.000Z</time></trkpt>
   <trkpt lat="19.235951" lon="-98.031574"><ele>4145.7</ele><time>2020-01-25T17:37:56.000Z</time></trkpt>
   <trkpt lat="19.235858" lon="-98.031704"><ele>4156.9</ele><time>2020-01-25T17:39:24.000Z</time></trkpt>
   <trkpt lat="19.235443" lon="-98.031936"><ele>4188.0</ele><time>2020-01-25T17:42:55.000Z</time></trkpt>
   <trkpt lat="19.235011" lon="-98.032029"><ele>4205.8</ele><time>2020-01-25T17:46:59.000Z</time></trkpt>
   <trkpt lat="19.234920" lon="-98.032166"><ele>4211.9</ele><time>2020-01-25T17:47:59.000Z</time></trkpt>
   <trkpt lat="19.234677" lon="-98.032274"><ele>4242.8</ele><time>2020-01-25T17:51:03.000Z</time></trkpt>
   <trkpt lat="19.234543" lon="-98.032257"><ele>4251.9</ele><time>2020-01-25T17:52:40.000Z</time></trkpt>
   <trkpt lat="19.234442" lon="-98.032405"><ele>4261.3</ele><time>2020-01-25T17:55:26.000Z</time></trkpt>
   <trkpt lat="19.233894" lon="-98.032155"><ele>4281.0</ele><time>2020-01-25T18:08:57.000Z</time></trkpt>
   <trkpt lat="19.233776" lon="-98.031989"><ele>4284.8</ele><time>2020-01-25T18:09:45.000Z</time></trkpt>
   <trkpt lat="19.233586" lon="-98.031905"><ele>4288.8</ele><time>2020-01-25T18:11:13.000Z</time></trkpt>
   <trkpt lat="19.233554" lon="-98.031948"><ele>4292.5</ele><time>2020-01-25T18:19:48.000Z</time></trkpt>
   <trkpt lat="19.233690" lon="-98.031957"><ele>4284.3</ele><time>2020-01-25T18:28:37.000Z</time></trkpt>
   <trkpt lat="19.233737" lon="-98.032071"><ele>4281.6</ele><time>2020-01-25T18:29:03.000Z</time></trkpt>
   <trkpt lat="19.234271" lon="-98.032402"><ele>4264.4</ele><time>2020-01-25T18:31:57.000Z</time></trkpt>
   <trkpt lat="19.233566" lon="-98.031904"><ele>4288.8</ele><time>2020-01-25T18:41:53.000Z</time></trkpt>
   <trkpt lat="19.233301" lon="-98.031933"><ele>4322.1</ele><time>2020-01-25T18:57:10.000Z</time></trkpt>
   <trkpt lat="19.233248" lon="-98.032058"><ele>4327.8</ele><time>2020-01-25T18:59:34.000Z</time></trkpt>
   <trkpt lat="19.233062" lon="-98.031883"><ele>4345.3</ele><time>2020-01-25T19:04:10.000Z</time></trkpt>
   <trkpt lat="19.232855" lon="-98.031916"><ele>4361.9</ele><time>2020-01-25T19:07:59.000Z</time></trkpt>
   <trkpt lat="19.232436" lon="-98.031807"><ele>4378.8</ele><time>2020-01-25T19:15:22.000Z</time></trkpt>
   <trkpt lat="19.232001" lon="-98.031852"><ele>4391.5</ele><time>2020-01-25T19:20:37.000Z</time></trkpt>
   <trkpt lat="19.231433" lon="-98.032074"><ele>4407.3</ele><time>2020-01-25T19:24:46.000Z</time></trkpt>
   <trkpt lat="19.230988" lon="-98.032042"><ele>4410.3</ele><time>2020-01-25T19:49:50.000Z</time></trkpt>
   <trkpt lat="19.231129" lon="-98.032238"><ele>4403.2</ele><time>2020-01-25T19:54:42.000Z</time></trkpt>
   <trkpt lat="19.231985" lon="-98.031854"><ele>4392.4</ele><time>2020-01-25T20:00:03.000Z</time></trkpt>
   <trkpt lat="19.232112" lon="-98.031897"><ele>4390.7</ele><time>2020-01-25T20:01:24.000Z</time></trkpt>
   <trkpt lat="19.232422" lon="-98.031801"><ele>4382.9</ele><time>2020-01-25T20:06:16.000Z</time></trkpt>
   <trkpt lat="19.232648" lon="-98.031924"><ele>4375.4</ele><time>2020-01-25T20:10:19.000Z</time></trkpt>
   <trkpt lat="19.232986" lon="-98.031803"><ele>4358.1</ele><time>2020-01-25T20:18:56.000Z</time></trkpt>
   <trkpt lat="19.233083" lon="-98.031971"><ele>4350.5</ele><time>2020-01-25T20:19:52.000Z</time></trkpt>
   <trkpt lat="19.233118" lon="-98.031887"><ele>4340.6</ele><time>2020-01-25T20:20:54.000Z</time></trkpt>
   <trkpt lat="19.233184" lon="-98.031908"><ele>4336.5</ele><time>2020-01-25T20:21:12.000Z</time></trkpt>
   <trkpt lat="19.233269" lon="-98.032107"><ele>4326.8</ele><time>2020-01-25T20:23:29.000Z</time></trkpt>
   <trkpt lat="19.233396" lon="-98.031970"><ele>4323.1</ele><time>2020-01-25T20:24:46.000Z</time></trkpt>
   <trkpt lat="19.233625" lon="-98.031938"><ele>4308.4</ele><time>2020-01-25T20:26:23.000Z</time></trkpt>
   <trkpt lat="19.233612" lon="-98.032052"><ele>4300.6</ele><time>2020-01-25T20:27:19.000Z</time></trkpt>
   <trkpt lat="19.233615" lon="-98.031943"><ele>4282.1</ele><time>2020-01-25T20:35:49.000Z</time></trkpt>
   <trkpt lat="19.233776" lon="-98.032150"><ele>4274.9</ele><time>2020-01-25T20:37:32.000Z</time></trkpt>
   <trkpt lat="19.234086" lon="-98.032302"><ele>4261.8</ele><time>2020-01-25T20:39:58.000Z</time></trkpt>
   <trkpt lat="19.234056" lon="-98.032254"><ele>4259.3</ele><time>2020-01-25T20:40:15.000Z</time></trkpt>
   <trkpt lat="19.234153" lon="-98.032254"><ele>4254.0</ele><time>2020-01-25T20:42:42.000Z</time></trkpt>
   <trkpt lat="19.234232" lon="-98.032414"><ele>4243.8</ele><time>2020-01-25T20:43:34.000Z</time></trkpt>
   <trkpt lat="19.234484" lon="-98.032462"><ele>4232.4</ele><time>2020-01-25T20:44:26.000Z</time></trkpt>
   <trkpt lat="19.234611" lon="-98.032596"><ele>4225.3</ele><time>2020-01-25T20:45:26.000Z</time></trkpt>
   <trkpt lat="19.234943" lon="-98.032629"><ele>4219.3</ele><time>2020-01-25T20:47:14.000Z</time></trkpt>
   <trkpt lat="19.234907" lon="-98.032524"><ele>4221.1</ele><time>2020-01-25T20:48:02.000Z</time></trkpt>
   <trkpt lat="19.235384" lon="-98.032472"><ele>4204.1</ele><time>2020-01-25T20:52:39.000Z</time></trkpt>
   <trkpt lat="19.235456" lon="-98.032337"><ele>4197.1</ele><time>2020-01-25T20:54:29.000Z</time></trkpt>
   <trkpt lat="19.235612" lon="-98.032309"><ele>4188.6</ele><time>2020-01-25T20:56:21.000Z</time></trkpt>
   <trkpt lat="19.235658" lon="-98.032029"><ele>4174.0</ele><time>2020-01-25T20:59:56.000Z</time></trkpt>
   <trkpt lat="19.235821" lon="-98.031994"><ele>4162.3</ele><time>2020-01-25T21:01:45.000Z</time></trkpt>
   <trkpt lat="19.235784" lon="-98.031859"><ele>4156.0</ele><time>2020-01-25T21:02:35.000Z</time></trkpt>
   <trkpt lat="19.236002" lon="-98.031645"><ele>4138.1</ele><time>2020-01-25T21:04:43.000Z</time></trkpt>
   <trkpt lat="19.236144" lon="-98.031657"><ele>4133.5</ele><time>2020-01-25T21:05:39.000Z</time></trkpt>
   <trkpt lat="19.236481" lon="-98.031450"><ele>4116.1</ele><time>2020-01-25T21:08:10.000Z</time></trkpt>
   <trkpt lat="19.236687" lon="-98.031496"><ele>4111.6</ele><time>2020-01-25T21:09:14.000Z</time></trkpt>
   <trkpt lat="19.236967" lon="-98.031361"><ele>4093.5</ele><time>2020-01-25T21:10:42.000Z</time></trkpt>
   <trkpt lat="19.237205" lon="-98.031370"><ele>4075.5</ele><time>2020-01-25T21:12:14.000Z</time></trkpt>
   <trkpt lat="19.237611" lon="-98.031236"><ele>4063.1</ele><time>2020-01-25T21:13:59.000Z</time></trkpt>
   <trkpt lat="19.237660" lon="-98.031279"><ele>4060.9</ele><time>2020-01-25T21:14:16.000Z</time></trkpt>
   <trkpt lat="19.237604" lon="-98.031314"><ele>4057.6</ele><time>2020-01-25T21:14:39.000Z</time></trkpt>
   <trkpt lat="19.238075" lon="-98.031427"><ele>4032.4</ele><time>2020-01-25T21:17:06.000Z</time></trkpt>
   <trkpt lat="19.238418" lon="-98.031345"><ele>4017.8</ele><time>2020-01-25T21:18:07.000Z</time></trkpt>
   <trkpt lat="19.238554" lon="-98.031401"><ele>4013.3</ele><time>2020-01-25T21:18:31.000Z</time></trkpt>
   <trkpt lat="19.238590" lon="-98.031516"><ele>4008.4</ele><time>2020-01-25T21:19:01.000Z</time></trkpt>
   <trkpt lat="19.238809" lon="-98.031581"><ele>3995.3</ele><time>2020-01-25T21:19:33.000Z</time></trkpt>
   <trkpt lat="19.239372" lon="-98.031427"><ele>3976.9</ele><time>2020-01-25T21:21:12.000Z</time></trkpt>
   <trkpt lat="19.240136" lon="-98.031741"><ele>3962.5</ele><time>2020-01-25T21:23:49.000Z</time></trkpt>
   <trkpt lat="19.240471" lon="-98.031710"><ele>3950.9</ele><time>2020-01-25T21:24:41.000Z</time></trkpt>
   <trkpt lat="19.240983" lon="-98.031968"><ele>3943.5</ele><time>2020-01-25T21:26:01.000Z</time></trkpt>
   <trkpt lat="19.241095" lon="-98.031914"><ele>3939.9</ele><time>2020-01-25T21:26:28.000Z</time></trkpt>
   <trkpt lat="19.241408" lon="-98.031960"><ele>3930.9</ele><time>2020-01-25T21:26:59.000Z</time></trkpt>
   <trkpt lat="19.241617" lon="-98.031786"><ele>3925.3</ele><time>2020-01-25T21:27:52.000Z</time></trkpt>
   <trkpt lat="19.241864" lon="-98.031796"><ele>3920.6</ele><time>2020-01-25T21:28:22.000Z</time></trkpt>
   <trkpt lat="19.242109" lon="-98.031915"><ele>3918.0</ele><time>2020-01-25T21:28:56.000Z</time></trkpt>
   <trkpt lat="19.242195" lon="-98.032128"><ele>3918.5</ele><time>2020-01-25T21:30:14.000Z</time></trkpt>
   <trkpt lat="19.242224" lon="-98.032039"><ele>3917.2</ele><time>2020-01-25T21:30:21.000Z</time></trkpt>
   <trkpt lat="19.242226" lon="-98.032091"><ele>3913.0</ele><time>2020-01-25T22:02:04.000Z</time></trkpt>
   <trkpt lat="19.242419" lon="-98.032006"><ele>3905.5</ele><time>2020-01-25T22:06:00.000Z</time></trkpt>
   <trkpt lat="19.242820" lon="-98.032254"><ele>3887.7</ele><time>2020-01-25T22:06:59.000Z</time></trkpt>
   <trkpt lat="19.243385" lon="-98.031828"><ele>3889.6</ele><time>2020-01-25T22:08:31.000Z</time></trkpt>
   <trkpt lat="19.244509" lon="-98.031892"><ele>3865.6</ele><time>2020-01-25T22:10:51.000Z</time></trkpt>
   <trkpt lat="19.245146" lon="-98.032265"><ele>3866.9</ele><time>2020-01-25T22:11:55.000Z</time></trkpt>
   <trkpt lat="19.245425" lon="-98.032518"><ele>3860.2</ele><time>2020-01-25T22:12:25.000Z</time></trkpt>
   <trkpt lat="19.245690" lon="-98.032575"><ele>3858.3</ele><time>2020-01-25T22:12:52.000Z</time></trkpt>
   <trkpt lat="19.245864" lon="-98.032797"><ele>3853.8</ele><time>2020-01-25T22:13:26.000Z</time></trkpt>
   <trkpt lat="19.246121" lon="-98.032642"><ele>3850.1</ele><time>2020-01-25T22:13:57.000Z</time></trkpt>
   <trkpt lat="19.246404" lon="-98.032766"><ele>3840.9</ele><time>2020-01-25T22:14:38.000Z</time></trkpt>
   <trkpt lat="19.246680" lon="-98.032594"><ele>3830.0</ele><time>2020-01-25T22:15:21.000Z</time></trkpt>
   <trkpt lat="19.246864" lon="-98.032634"><ele>3820.2</ele><time>2020-01-25T22:15:55.000Z</time></trkpt>
   <trkpt lat="19.247029" lon="-98.032540"><ele>3806.5</ele><time>2020-01-25T22:16:25.000Z</time></trkpt>
   <trkpt lat="19.247142" lon="-98.032572"><ele>3799.4</ele><time>2020-01-25T22:16:49.000Z</time></trkpt>
   <trkpt lat="19.247357" lon="-98.032412"><ele>3796.1</ele><time>2020-01-25T22:17:25.000Z</time></trkpt>
   <trkpt lat="19.247595" lon="-98.032402"><ele>3790.1</ele><time>2020-01-25T22:17:52.000Z</time></trkpt>
   <trkpt lat="19.248244" lon="-98.032813"><ele>3775.5</ele><time>2020-01-25T22:19:34.000Z</time></trkpt>
   <trkpt lat="19.248409" lon="-98.033037"><ele>3770.0</ele><time>2020-01-25T22:20:06.000Z</time></trkpt>
   <trkpt lat="19.248783" lon="-98.033021"><ele>3764.5</ele><time>2020-01-25T22:20:46.000Z</time></trkpt>
   <trkpt lat="19.248909" lon="-98.033222"><ele>3760.8</ele><time>2020-01-25T22:21:10.000Z</time></trkpt>
   <trkpt lat="19.249110" lon="-98.033201"><ele>3756.8</ele><time>2020-01-25T22:21:29.000Z</time></trkpt>
   <trkpt lat="19.249287" lon="-98.033286"><ele>3754.3</ele><time>2020-01-25T22:21:50.000Z</time></trkpt>
   <trkpt lat="19.249606" lon="-98.033174"><ele>3749.4</ele><time>2020-01-25T22:22:20.000Z</time></trkpt>
   <trkpt lat="19.250258" lon="-98.033252"><ele>3741.6</ele><time>2020-01-25T22:23:25.000Z</time></trkpt>
   <trkpt lat="19.250493" lon="-98.033371"><ele>3735.9</ele><time>2020-01-25T22:24:19.000Z</time></trkpt>
   <trkpt lat="19.251076" lon="-98.033399"><ele>3722.3</ele><time>2020-01-25T22:25:15.000Z</time></trkpt>
   <trkpt lat="19.251267" lon="-98.033310"><ele>3723.4</ele><time>2020-01-25T22:25:49.000Z</time></trkpt>
   <trkpt lat="19.251697" lon="-98.033308"><ele>3731.9</ele><time>2020-01-25T22:26:34.000Z</time></trkpt>
   <trkpt lat="19.252303" lon="-98.033535"><ele>3710.2</ele><time>2020-01-25T22:27:57.000Z</time></trkpt>
   <trkpt lat="19.252562" lon="-98.033442"><ele>3706.4</ele><time>2020-01-25T22:28:43.000Z</time></trkpt>
   <trkpt lat="19.252766" lon="-98.033474"><ele>3700.1</ele><time>2020-01-25T22:29:23.000Z</time></trkpt>
   <trkpt lat="19.252809" lon="-98.033392"><ele>3696.4</ele><time>2020-01-25T22:29:39.000Z</time></trkpt>
   <trkpt lat="19.253001" lon="-98.033448"><ele>3687.5</ele><time>2020-01-25T22:30:34.000Z</time></trkpt>
   <trkpt lat="19.252977" lon="-98.033347"><ele>3683.3</ele><time>2020-01-25T22:30:51.000Z</time></trkpt>
   <trkpt lat="19.253306" lon="-98.033374"><ele>3665.6</ele><time>2020-01-25T22:31:57.000Z</time></trkpt>
   <trkpt lat="19.253364" lon="-98.033298"><ele>3661.5</ele><time>2020-01-25T22:32:11.000Z</time></trkpt>
   <trkpt lat="19.253513" lon="-98.033295"><ele>3654.1</ele><time>2020-01-25T22:32:50.000Z</time></trkpt>
   <trkpt lat="19.253560" lon="-98.033168"><ele>3644.2</ele><time>2020-01-25T22:33:27.000Z</time></trkpt>
   <trkpt lat="19.253855" lon="-98.033209"><ele>3619.5</ele><time>2020-01-25T22:34:34.000Z</time></trkpt>
   <trkpt lat="19.253962" lon="-98.033137"><ele>3617.2</ele><time>2020-01-25T22:35:02.000Z</time></trkpt>
   <trkpt lat="19.254138" lon="-98.033173"><ele>3619.2</ele><time>2020-01-25T22:35:32.000Z</time></trkpt>
   <trkpt lat="19.254424" lon="-98.033400"><ele>3613.3</ele><time>2020-01-25T22:36:18.000Z</time></trkpt>
   <trkpt lat="19.254850" lon="-98.033338"><ele>3594.0</ele><time>2020-01-25T22:37:47.000Z</time></trkpt>
   <trkpt lat="19.254898" lon="-98.033438"><ele>3590.3</ele><time>2020-01-25T22:38:51.000Z</time></trkpt>
   <trkpt lat="19.254921" lon="-98.033354"><ele>3584.6</ele><time>2020-01-25T22:41:23.000Z</time></trkpt>
   <trkpt lat="19.254978" lon="-98.033412"><ele>3581.6</ele><time>2020-01-25T22:42:09.000Z</time></trkpt>
   <trkpt lat="19.255346" lon="-98.033306"><ele>3570.1</ele><time>2020-01-25T22:43:12.000Z</time></trkpt>
   <trkpt lat="19.255429" lon="-98.033385"><ele>3566.9</ele><time>2020-01-25T22:43:30.000Z</time></trkpt>
   <trkpt lat="19.255870" lon="-98.033448"><ele>3552.7</ele><time>2020-01-25T22:44:46.000Z</time></trkpt>
   <trkpt lat="19.255954" lon="-98.033628"><ele>3546.4</ele><time>2020-01-25T22:45:20.000Z</time></trkpt>
   <trkpt lat="19.256361" lon="-98.033490"><ele>3532.0</ele><time>2020-01-25T22:47:02.000Z</time></trkpt>
   <trkpt lat="19.256899" lon="-98.033744"><ele>3515.7</ele><time>2020-01-25T22:48:42.000Z</time></trkpt>
   <trkpt lat="19.257468" lon="-98.033646"><ele>3502.3</ele><time>2020-01-25T22:50:00.000Z</time></trkpt>
   <trkpt lat="19.257878" lon="-98.033741"><ele>3494.9</ele><time>2020-01-25T22:50:41.000Z</time></trkpt>
   <trkpt lat="19.258150" lon="-98.033615"><ele>3488.7</ele><time>2020-01-25T22:51:20.000Z</time></trkpt>
   <trkpt lat="19.258419" lon="-98.033654"><ele>3483.0</ele><time>2020-01-25T22:52:24.000Z</time></trkpt>
   <trkpt lat="19.258566" lon="-98.033489"><ele>3478.7</ele><time>2020-01-25T22:52:47.000Z</time></trkpt>
   <trkpt lat="19.258859" lon="-98.033438"><ele>3472.3</ele><time>2020-01-25T22:53:16.000Z</time></trkpt>
   <trkpt lat="19.259100" lon="-98.033236"><ele>3465.4</ele><time>2020-01-25T22:53:51.000Z</time></trkpt>
   <trkpt lat="19.259838" lon="-98.033159"><ele>3453.2</ele><time>2020-01-25T22:55:26.000Z</time></trkpt>
   <trkpt lat="19.261432" lon="-98.034325"><ele>3428.1</ele><time>2020-01-25T22:58:45.000Z</time></trkpt>
   <trkpt lat="19.261725" lon="-98.034689"><ele>3421.1</ele><time>2020-01-25T22:59:27.000Z</time></trkpt>
   <trkpt lat="19.262671" lon="-98.035323"><ele>3402.3</ele><time>2020-01-25T23:01:20.000Z</time></trkpt>
   <trkpt lat="19.262879" lon="-98.035598"><ele>3396.8</ele><time>2020-01-25T23:02:01.000Z</time></trkpt>
   <trkpt lat="19.263100" lon="-98.035588"><ele>3393.3</ele><time>2020-01-25T23:02:26.000Z</time></trkpt>
   <trkpt lat="19.263312" lon="-98.035746"><ele>3390.2</ele><time>2020-01-25T23:02:51.000Z</time></trkpt>
   <trkpt lat="19.263790" lon="-98.035853"><ele>3385.6</ele><time>2020-01-25T23:03:49.000Z</time></trkpt>
   <trkpt lat="19.264003" lon="-98.036181"><ele>3376.7</ele><time>2020-01-25T23:04:42.000Z</time></trkpt>
   <trkpt lat="19.264935" lon="-98.036652"><ele>3358.0</ele><time>2020-01-25T23:06:55.000Z</time></trkpt>
   <trkpt lat="19.265431" lon="-98.037384"><ele>3343.9</ele><time>2020-01-25T23:08:54.000Z</time></trkpt>
   <trkpt lat="19.265863" lon="-98.037810"><ele>3332.9</ele><time>2020-01-25T23:10:11.000Z</time></trkpt>
   <trkpt lat="19.266137" lon="-98.037943"><ele>3327.3</ele><time>2020-01-25T23:10:57.000Z</time></trkpt>
   <trkpt lat="19.266414" lon="-98.038282"><ele>3321.1</ele><time>2020-01-25T23:11:46.000Z</time></trkpt>
   <trkpt lat="19.266749" lon="-98.038536"><ele>3314.4</ele><time>2020-01-25T23:12:38.000Z</time></trkpt>
   <trkpt lat="19.267145" lon="-98.038715"><ele>3307.1</ele><time>2020-01-25T23:13:33.000Z</time></trkpt>
   <trkpt lat="19.268066" lon="-98.039510"><ele>3291.1</ele><time>2020-01-25T23:16:06.000Z</time></trkpt>
   <trkpt lat="19.268367" lon="-98.039661"><ele>3287.5</ele><time>2020-01-25T23:16:53.000Z</time></trkpt>
   <trkpt lat="19.268574" lon="-98.040019"><ele>3281.7</ele><time>2020-01-25T23:17:38.000Z</time></trkpt>
   <trkpt lat="19.269094" lon="-98.040236"><ele>3273.4</ele><time>2020-01-25T23:18:46.000Z</time></trkpt>
   <trkpt lat="19.269405" lon="-98.040718"><ele>3268.3</ele><time>2020-01-25T23:19:56.000Z</time></trkpt>
   <trkpt lat="19.269778" lon="-98.041106"><ele>3260.5</ele><time>2020-01-25T23:20:58.000Z</time></trkpt>
   <trkpt lat="19.269884" lon="-98.042260"><ele>3242.9</ele><time>2020-01-25T23:22:58.000Z</time></trkpt>
   <trkpt lat="19.269830" lon="-98.042444"><ele>3241.7</ele><time>2020-01-25T23:23:30.000Z</time></trkpt>
   <trkpt lat="19.269944" lon="-98.041781"><ele>3247.2</ele><time>2020-01-25T23:25:01.000Z</time></trkpt>
   <trkpt lat="19.269956" lon="-98.040818"><ele>3257.1</ele><time>2020-01-25T23:26:58.000Z</time></trkpt>
   <trkpt lat="19.270065" lon="-98.040731"><ele>3255.8</ele><time>2020-01-25T23:27:10.000Z</time></trkpt>
   <trkpt lat="19.270614" lon="-98.040621"><ele>3247.0</ele><time>2020-01-25T23:28:04.000Z</time></trkpt>
   <trkpt lat="19.272836" lon="-98.041129"><ele>3216.2</ele><time>2020-01-25T23:32:05.000Z</time></trkpt>
   <trkpt lat="19.273855" lon="-98.041263"><ele>3202.8</ele><time>2020-01-25T23:33:43.000Z</time></trkpt>
   <trkpt lat="19.274269" lon="-98.041426"><ele>3195.6</ele><time>2020-01-25T23:34:22.000Z</time></trkpt>
   <trkpt lat="19.274553" lon="-98.041366"><ele>3190.4</ele><time>2020-01-25T23:34:47.000Z</time></trkpt>
   <trkpt lat="19.275107" lon="-98.041614"><ele>3180.2</ele><time>2020-01-25T23:35:51.000Z</time></trkpt>
   <trkpt lat="19.275582" lon="-98.041720"><ele>3173.0</ele><time>2020-01-25T23:36:32.000Z</time></trkpt>
   <trkpt lat="19.276328" lon="-98.041766"><ele>3161.6</ele><time>2020-01-25T23:37:48.000Z</time></trkpt>
   <trkpt lat="19.277211" lon="-98.041973"><ele>3150.4</ele><time>2020-01-25T23:38:58.000Z</time></trkpt>
   <trkpt lat="19.277690" lon="-98.041980"><ele>3143.2</ele><time>2020-01-25T23:39:42.000Z</time></trkpt>
   <trkpt lat="19.278318" lon="-98.042225"><ele>3136.5</ele><time>2020-01-25T23:40:46.000Z</time></trkpt>
   <trkpt lat="19.278494" lon="-98.042224"><ele>3134.3</ele><time>2020-01-25T23:41:24.000Z</time></trkpt>
   <trkpt lat="19.278617" lon="-98.042327"><ele>3132.1</ele><time>2020-01-25T23:41:53.000Z</time></trkpt>
   <trkpt lat="19.279245" lon="-98.042445"><ele>3124.9</ele><time>2020-01-25T23:43:05.000Z</time></trkpt>
  </trkseg>
 </trk>
</gpx>
