<?xml version="1.0" encoding="UTF-8"?>
<gpx version="1.1" creator="Strava (via strava-mcp)" xmlns="http://www.topografix.com/GPX/1/1">
 <metadata><name>Mineral del Chico</name><time>2020-02-01T17:42:36.000Z</time></metadata>
 <trk>
  <name>Mineral del Chico</name>
  <type>Hike</type>
  <trkseg>
   <trkpt lat="20.204144" lon="-98.717000"><ele>2815.4</ele><time>2020-02-01T17:42:36.000Z</time></trkpt>
   <trkpt lat="20.204524" lon="-98.717729"><ele>2810.0</ele><time>2020-02-01T17:44:54.000Z</time></trkpt>
   <trkpt lat="20.204486" lon="-98.717873"><ele>2802.7</ele><time>2020-02-01T17:45:13.000Z</time></trkpt>
   <trkpt lat="20.204572" lon="-98.717942"><ele>2804.8</ele><time>2020-02-01T17:45:28.000Z</time></trkpt>
   <trkpt lat="20.204486" lon="-98.718024"><ele>2792.1</ele><time>2020-02-01T17:45:49.000Z</time></trkpt>
   <trkpt lat="20.204527" lon="-98.717731"><ele>2810.0</ele><time>2020-02-01T17:47:37.000Z</time></trkpt>
   <trkpt lat="20.204431" lon="-98.717388"><ele>2805.8</ele><time>2020-02-01T17:49:01.000Z</time></trkpt>
   <trkpt lat="20.204370" lon="-98.717437"><ele>2804.2</ele><time>2020-02-01T17:49:15.000Z</time></trkpt>
   <trkpt lat="20.204252" lon="-98.716903"><ele>2819.4</ele><time>2020-02-01T17:50:36.000Z</time></trkpt>
   <trkpt lat="20.204535" lon="-98.716427"><ele>2817.5</ele><time>2020-02-01T17:51:33.000Z</time></trkpt>
   <trkpt lat="20.204896" lon="-98.716454"><ele>2812.7</ele><time>2020-02-01T17:52:11.000Z</time></trkpt>
   <trkpt lat="20.205133" lon="-98.716328"><ele>2811.7</ele><time>2020-02-01T17:52:40.000Z</time></trkpt>
   <trkpt lat="20.204855" lon="-98.716762"><ele>2802.2</ele><time>2020-02-01T17:53:40.000Z</time></trkpt>
   <trkpt lat="20.205750" lon="-98.716823"><ele>2763.1</ele><time>2020-02-01T17:55:27.000Z</time></trkpt>
   <trkpt lat="20.206006" lon="-98.716919"><ele>2758.9</ele><time>2020-02-01T17:55:55.000Z</time></trkpt>
   <trkpt lat="20.206172" lon="-98.716423"><ele>2764.1</ele><time>2020-02-01T17:57:03.000Z</time></trkpt>
   <trkpt lat="20.206427" lon="-98.716220"><ele>2760.8</ele><time>2020-02-01T17:57:30.000Z</time></trkpt>
   <trkpt lat="20.206528" lon="-98.716251"><ele>2755.8</ele><time>2020-02-01T17:57:41.000Z</time></trkpt>
   <trkpt lat="20.206358" lon="-98.716548"><ele>2756.8</ele><time>2020-02-01T17:58:30.000Z</time></trkpt>
   <trkpt lat="20.206495" lon="-98.717067"><ele>2742.0</ele><time>2020-02-01T17:59:20.000Z</time></trkpt>
   <trkpt lat="20.206405" lon="-98.717260"><ele>2739.7</ele><time>2020-02-01T17:59:34.000Z</time></trkpt>
   <trkpt lat="20.205627" lon="-98.717540"><ele>2746.5</ele><time>2020-02-01T18:00:56.000Z</time></trkpt>
   <trkpt lat="20.205724" lon="-98.718061"><ele>2726.4</ele><time>2020-02-01T18:02:13.000Z</time></trkpt>
   <trkpt lat="20.205677" lon="-98.718264"><ele>2726.6</ele><time>2020-02-01T18:02:33.000Z</time></trkpt>
   <trkpt lat="20.205949" lon="-98.718517"><ele>2712.2</ele><time>2020-02-01T18:03:14.000Z</time></trkpt>
   <trkpt lat="20.205964" lon="-98.718785"><ele>2711.6</ele><time>2020-02-01T18:04:24.000Z</time></trkpt>
   <trkpt lat="20.206132" lon="-98.718883"><ele>2704.5</ele><time>2020-02-01T18:05:08.000Z</time></trkpt>
   <trkpt lat="20.206385" lon="-98.718807"><ele>2695.8</ele><time>2020-02-01T18:05:42.000Z</time></trkpt>
   <trkpt lat="20.206661" lon="-98.719532"><ele>2674.4</ele><time>2020-02-01T18:07:57.000Z</time></trkpt>
   <trkpt lat="20.206917" lon="-98.719617"><ele>2662.9</ele><time>2020-02-01T18:08:33.000Z</time></trkpt>
   <trkpt lat="20.206975" lon="-98.719870"><ele>2659.3</ele><time>2020-02-01T18:09:12.000Z</time></trkpt>
   <trkpt lat="20.206876" lon="-98.719926"><ele>2660.8</ele><time>2020-02-01T18:09:37.000Z</time></trkpt>
   <trkpt lat="20.206880" lon="-98.720031"><ele>2659.5</ele><time>2020-02-01T18:10:23.000Z</time></trkpt>
   <trkpt lat="20.206981" lon="-98.720260"><ele>2653.8</ele><time>2020-02-01T18:12:19.000Z</time></trkpt>
   <trkpt lat="20.206667" lon="-98.720484"><ele>2664.4</ele><time>2020-02-01T18:13:05.000Z</time></trkpt>
   <trkpt lat="20.206568" lon="-98.720746"><ele>2660.1</ele><time>2020-02-01T18:14:38.000Z</time></trkpt>
   <trkpt lat="20.206207" lon="-98.721064"><ele>2659.4</ele><time>2020-02-01T18:15:39.000Z</time></trkpt>
   <trkpt lat="20.205914" lon="-98.721160"><ele>2656.4</ele><time>2020-02-01T18:16:29.000Z</time></trkpt>
   <trkpt lat="20.205694" lon="-98.721072"><ele>2657.1</ele><time>2020-02-01T18:17:07.000Z</time></trkpt>
   <trkpt lat="20.205565" lon="-98.720820"><ele>2671.4</ele><time>2020-02-01T18:17:32.000Z</time></trkpt>
   <trkpt lat="20.204677" lon="-98.720055"><ele>2674.4</ele><time>2020-02-01T18:19:26.000Z</time></trkpt>
   <trkpt lat="20.204401" lon="-98.719643"><ele>2676.1</ele><time>2020-02-01T18:20:11.000Z</time></trkpt>
   <trkpt lat="20.204074" lon="-98.719499"><ele>2669.0</ele><time>2020-02-01T18:21:01.000Z</time></trkpt>
   <trkpt lat="20.203459" lon="-98.718806"><ele>2696.6</ele><time>2020-02-01T18:22:40.000Z</time></trkpt>
   <trkpt lat="20.202906" lon="-98.718491"><ele>2709.1</ele><time>2020-02-01T18:24:01.000Z</time></trkpt>
   <trkpt lat="20.202665" lon="-98.718784"><ele>2706.4</ele><time>2020-02-01T18:25:19.000Z</time></trkpt>
   <trkpt lat="20.202505" lon="-98.718652"><ele>2715.0</ele><time>2020-02-01T18:25:56.000Z</time></trkpt>
   <trkpt lat="20.202215" lon="-98.718670"><ele>2728.5</ele><time>2020-02-01T18:26:31.000Z</time></trkpt>
   <trkpt lat="20.202132" lon="-98.718625"><ele>2732.8</ele><time>2020-02-01T18:26:59.000Z</time></trkpt>
   <trkpt lat="20.202156" lon="-98.718514"><ele>2736.5</ele><time>2020-02-01T18:27:29.000Z</time></trkpt>
   <trkpt lat="20.201678" lon="-98.718618"><ele>2737.2</ele><time>2020-02-01T18:28:52.000Z</time></trkpt>
   <trkpt lat="20.201425" lon="-98.718342"><ele>2752.5</ele><time>2020-02-01T18:29:39.000Z</time></trkpt>
   <trkpt lat="20.200594" lon="-98.718047"><ele>2761.5</ele><time>2020-02-01T18:31:06.000Z</time></trkpt>
   <trkpt lat="20.200336" lon="-98.718077"><ele>2763.4</ele><time>2020-02-01T18:31:34.000Z</time></trkpt>
   <trkpt lat="20.199773" lon="-98.718012"><ele>2765.8</ele><time>2020-02-01T18:32:23.000Z</time></trkpt>
   <trkpt lat="20.199343" lon="-98.717869"><ele>2759.0</ele><time>2020-02-01T18:32:56.000Z</time></trkpt>
   <trkpt lat="20.198981" lon="-98.717865"><ele>2764.9</ele><time>2020-02-01T18:33:34.000Z</time></trkpt>
   <trkpt lat="20.198224" lon="-98.717334"><ele>2767.2</ele><time>2020-02-01T18:35:04.000Z</time></trkpt>
   <trkpt lat="20.197597" lon="-98.717164"><ele>2777.2</ele><time>2020-02-01T18:36:15.000Z</time></trkpt>
   <trkpt lat="20.197370" lon="-98.717231"><ele>2777.3</ele><time>2020-02-01T18:36:53.000Z</time></trkpt>
   <trkpt lat="20.197308" lon="-98.717116"><ele>2775.2</ele><time>2020-02-01T18:37:18.000Z</time></trkpt>
   <trkpt lat="20.196894" lon="-98.716923"><ele>2777.2</ele><time>2020-02-01T18:38:16.000Z</time></trkpt>
   <trkpt lat="20.196555" lon="-98.716921"><ele>2792.9</ele><time>2020-02-01T18:40:00.000Z</time></trkpt>
   <trkpt lat="20.195993" lon="-98.716507"><ele>2795.3</ele><time>2020-02-01T18:41:24.000Z</time></trkpt>
   <trkpt lat="20.194034" lon="-98.716489"><ele>2797.5</ele><time>2020-02-01T18:45:01.000Z</time></trkpt>
   <trkpt lat="20.193946" lon="-98.716595"><ele>2800.3</ele><time>2020-02-01T18:45:14.000Z</time></trkpt>
   <trkpt lat="20.193804" lon="-98.716885"><ele>2804.3</ele><time>2020-02-01T18:45:39.000Z</time></trkpt>
   <trkpt lat="20.193794" lon="-98.717185"><ele>2811.3</ele><time>2020-02-01T18:46:17.000Z</time></trkpt>
   <trkpt lat="20.194023" lon="-98.717432"><ele>2818.9</ele><time>2020-02-01T18:46:54.000Z</time></trkpt>
   <trkpt lat="20.194078" lon="-98.717696"><ele>2822.5</ele><time>2020-02-01T18:47:26.000Z</time></trkpt>
   <trkpt lat="20.194570" lon="-98.717809"><ele>2827.1</ele><time>2020-02-01T18:48:19.000Z</time></trkpt>
   <trkpt lat="20.194742" lon="-98.717743"><ele>2826.4</ele><time>2020-02-01T18:48:45.000Z</time></trkpt>
   <trkpt lat="20.194881" lon="-98.717820"><ele>2826.7</ele><time>2020-02-01T18:49:09.000Z</time></trkpt>
   <trkpt lat="20.194776" lon="-98.718077"><ele>2831.2</ele><time>2020-02-01T18:50:13.000Z</time></trkpt>
   <trkpt lat="20.194538" lon="-98.718218"><ele>2836.1</ele><time>2020-02-01T18:50:44.000Z</time></trkpt>
   <trkpt lat="20.194427" lon="-98.718502"><ele>2844.0</ele><time>2020-02-01T18:51:16.000Z</time></trkpt>
   <trkpt lat="20.194510" lon="-98.718646"><ele>2850.3</ele><time>2020-02-01T18:51:41.000Z</time></trkpt>
   <trkpt lat="20.194368" lon="-98.718850"><ele>2854.4</ele><time>2020-02-01T18:52:13.000Z</time></trkpt>
   <trkpt lat="20.194457" lon="-98.718928"><ele>2857.9</ele><time>2020-02-01T18:52:29.000Z</time></trkpt>
   <trkpt lat="20.194427" lon="-98.719325"><ele>2870.4</ele><time>2020-02-01T18:53:33.000Z</time></trkpt>
   <trkpt lat="20.194028" lon="-98.719448"><ele>2878.8</ele><time>2020-02-01T18:54:45.000Z</time></trkpt>
   <trkpt lat="20.193626" lon="-98.719262"><ele>2879.3</ele><time>2020-02-01T18:55:31.000Z</time></trkpt>
   <trkpt lat="20.192949" lon="-98.719159"><ele>2890.3</ele><time>2020-02-01T18:57:00.000Z</time></trkpt>
   <trkpt lat="20.192312" lon="-98.718828"><ele>2900.0</ele><time>2020-02-01T18:58:13.000Z</time></trkpt>
   <trkpt lat="20.191418" lon="-98.718842"><ele>2927.0</ele><time>2020-02-01T18:59:52.000Z</time></trkpt>
   <trkpt lat="20.191345" lon="-98.718448"><ele>2922.0</ele><time>2020-02-01T19:00:45.000Z</time></trkpt>
   <trkpt lat="20.191187" lon="-98.718350"><ele>2927.2</ele><time>2020-02-01T19:01:11.000Z</time></trkpt>
   <trkpt lat="20.191074" lon="-98.718392"><ele>2932.8</ele><time>2020-02-01T19:01:50.000Z</time></trkpt>
   <trkpt lat="20.191017" lon="-98.718286"><ele>2932.6</ele><time>2020-02-01T19:02:28.000Z</time></trkpt>
   <trkpt lat="20.190845" lon="-98.718381"><ele>2939.4</ele><time>2020-02-01T19:03:07.000Z</time></trkpt>
   <trkpt lat="20.190761" lon="-98.718215"><ele>2943.0</ele><time>2020-02-01T19:03:59.000Z</time></trkpt>
   <trkpt lat="20.190499" lon="-98.718126"><ele>2956.4</ele><time>2020-02-01T19:04:39.000Z</time></trkpt>
   <trkpt lat="20.190310" lon="-98.717882"><ele>2964.9</ele><time>2020-02-01T19:05:15.000Z</time></trkpt>
   <trkpt lat="20.189711" lon="-98.717399"><ele>2966.5</ele><time>2020-02-01T19:06:43.000Z</time></trkpt>
   <trkpt lat="20.189429" lon="-98.717359"><ele>2970.9</ele><time>2020-02-01T19:07:12.000Z</time></trkpt>
   <trkpt lat="20.189140" lon="-98.717104"><ele>2972.9</ele><time>2020-02-01T19:07:45.000Z</time></trkpt>
   <trkpt lat="20.189141" lon="-98.717029"><ele>2972.8</ele><time>2020-02-01T19:07:59.000Z</time></trkpt>
   <trkpt lat="20.189587" lon="-98.716815"><ele>2981.8</ele><time>2020-02-01T19:09:27.000Z</time></trkpt>
   <trkpt lat="20.189599" lon="-98.716697"><ele>2983.6</ele><time>2020-02-01T19:09:49.000Z</time></trkpt>
   <trkpt lat="20.189460" lon="-98.716627"><ele>2980.6</ele><time>2020-02-01T19:10:07.000Z</time></trkpt>
   <trkpt lat="20.189000" lon="-98.716615"><ele>2972.6</ele><time>2020-02-01T19:11:12.000Z</time></trkpt>
   <trkpt lat="20.188716" lon="-98.716406"><ele>2976.2</ele><time>2020-02-01T19:11:57.000Z</time></trkpt>
   <trkpt lat="20.187991" lon="-98.716384"><ele>2999.0</ele><time>2020-02-01T19:13:19.000Z</time></trkpt>
   <trkpt lat="20.187359" lon="-98.716615"><ele>3010.6</ele><time>2020-02-01T19:15:04.000Z</time></trkpt>
   <trkpt lat="20.187317" lon="-98.716818"><ele>3012.0</ele><time>2020-02-01T19:17:32.000Z</time></trkpt>
   <trkpt lat="20.187180" lon="-98.716860"><ele>3010.2</ele><time>2020-02-01T19:18:09.000Z</time></trkpt>
   <trkpt lat="20.186968" lon="-98.717275"><ele>3002.0</ele><time>2020-02-01T19:18:57.000Z</time></trkpt>
   <trkpt lat="20.187287" lon="-98.717389"><ele>3006.0</ele><time>2020-02-01T19:20:37.000Z</time></trkpt>
   <trkpt lat="20.186992" lon="-98.717236"><ele>3004.0</ele><time>2020-02-01T19:32:14.000Z</time></trkpt>
   <trkpt lat="20.187363" lon="-98.716630"><ele>3011.1</ele><time>2020-02-01T19:33:39.000Z</time></trkpt>
   <trkpt lat="20.187241" lon="-98.716017"><ele>3015.4</ele><time>2020-02-01T19:34:27.000Z</time></trkpt>
   <trkpt lat="20.187281" lon="-98.715780"><ele>3019.3</ele><time>2020-02-01T19:34:45.000Z</time></trkpt>
   <trkpt lat="20.187427" lon="-98.715609"><ele>3014.8</ele><time>2020-02-01T19:35:03.000Z</time></trkpt>
   <trkpt lat="20.188021" lon="-98.715561"><ele>3004.7</ele><time>2020-02-01T19:36:01.000Z</time></trkpt>
   <trkpt lat="20.188224" lon="-98.715420"><ele>3002.6</ele><time>2020-02-01T19:36:43.000Z</time></trkpt>
   <trkpt lat="20.188383" lon="-98.714314"><ele>2995.6</ele><time>2020-02-01T19:38:21.000Z</time></trkpt>
   <trkpt lat="20.188793" lon="-98.713668"><ele>2994.7</ele><time>2020-02-01T19:39:40.000Z</time></trkpt>
   <trkpt lat="20.189813" lon="-98.713104"><ele>2988.3</ele><time>2020-02-01T19:41:35.000Z</time></trkpt>
   <trkpt lat="20.190139" lon="-98.712650"><ele>2993.1</ele><time>2020-02-01T19:42:24.000Z</time></trkpt>
   <trkpt lat="20.190380" lon="-98.712880"><ele>2989.9</ele><time>2020-02-01T19:44:19.000Z</time></trkpt>
   <trkpt lat="20.190566" lon="-98.713275"><ele>2981.1</ele><time>2020-02-01T19:44:53.000Z</time></trkpt>
   <trkpt lat="20.190795" lon="-98.713239"><ele>2985.8</ele><time>2020-02-01T19:45:33.000Z</time></trkpt>
   <trkpt lat="20.191060" lon="-98.713407"><ele>2984.0</ele><time>2020-02-01T19:47:22.000Z</time></trkpt>
   <trkpt lat="20.190936" lon="-98.713326"><ele>2984.3</ele><time>2020-02-01T19:47:47.000Z</time></trkpt>
   <trkpt lat="20.191191" lon="-98.713280"><ele>2983.2</ele><time>2020-02-01T19:49:59.000Z</time></trkpt>
   <trkpt lat="20.191318" lon="-98.713089"><ele>2978.1</ele><time>2020-02-01T19:50:45.000Z</time></trkpt>
   <trkpt lat="20.191322" lon="-98.712937"><ele>2976.8</ele><time>2020-02-01T19:51:46.000Z</time></trkpt>
   <trkpt lat="20.191268" lon="-98.712948"><ele>2978.3</ele><time>2020-02-01T19:52:08.000Z</time></trkpt>
   <trkpt lat="20.191243" lon="-98.713111"><ele>2981.6</ele><time>2020-02-01T19:54:30.000Z</time></trkpt>
   <trkpt lat="20.191199" lon="-98.713059"><ele>2982.6</ele><time>2020-02-01T19:55:10.000Z</time></trkpt>
   <trkpt lat="20.191378" lon="-98.712988"><ele>2974.4</ele><time>2020-02-01T19:55:46.000Z</time></trkpt>
   <trkpt lat="20.191363" lon="-98.713175"><ele>2977.9</ele><time>2020-02-01T19:57:43.000Z</time></trkpt>
   <trkpt lat="20.191315" lon="-98.713131"><ele>2978.6</ele><time>2020-02-01T19:58:24.000Z</time></trkpt>
   <trkpt lat="20.191286" lon="-98.713235"><ele>2980.3</ele><time>2020-02-01T19:58:33.000Z</time></trkpt>
   <trkpt lat="20.191260" lon="-98.713178"><ele>2980.5</ele><time>2020-02-01T19:59:41.000Z</time></trkpt>
   <trkpt lat="20.191325" lon="-98.713476"><ele>2982.1</ele><time>2020-02-01T20:00:30.000Z</time></trkpt>
   <trkpt lat="20.191240" lon="-98.713581"><ele>2985.0</ele><time>2020-02-01T20:01:02.000Z</time></trkpt>
   <trkpt lat="20.191317" lon="-98.713567"><ele>2984.0</ele><time>2020-02-01T20:06:32.000Z</time></trkpt>
   <trkpt lat="20.191181" lon="-98.713665"><ele>2984.5</ele><time>2020-02-01T20:07:03.000Z</time></trkpt>
   <trkpt lat="20.191133" lon="-98.713905"><ele>2980.8</ele><time>2020-02-01T20:08:14.000Z</time></trkpt>
   <trkpt lat="20.191322" lon="-98.713165"><ele>2979.2</ele><time>2020-02-01T20:13:12.000Z</time></trkpt>
   <trkpt lat="20.191551" lon="-98.713102"><ele>2971.2</ele><time>2020-02-01T20:14:02.000Z</time></trkpt>
   <trkpt lat="20.191592" lon="-98.712999"><ele>2969.8</ele><time>2020-02-01T20:14:16.000Z</time></trkpt>
   <trkpt lat="20.191356" lon="-98.712933"><ele>2975.5</ele><time>2020-02-01T20:14:50.000Z</time></trkpt>
   <trkpt lat="20.191177" lon="-98.713145"><ele>2983.1</ele><time>2020-02-01T20:16:37.000Z</time></trkpt>
   <trkpt lat="20.190808" lon="-98.713313"><ele>2984.3</ele><time>2020-02-01T20:18:17.000Z</time></trkpt>
   <trkpt lat="20.190647" lon="-98.713285"><ele>2982.3</ele><time>2020-02-01T20:18:36.000Z</time></trkpt>
   <trkpt lat="20.190500" lon="-98.713149"><ele>2985.3</ele><time>2020-02-01T20:18:54.000Z</time></trkpt>
   <trkpt lat="20.190240" lon="-98.712648"><ele>2990.3</ele><time>2020-02-01T20:19:47.000Z</time></trkpt>
   <trkpt lat="20.190181" lon="-98.712314"><ele>2988.9</ele><time>2020-02-01T20:20:22.000Z</time></trkpt>
   <trkpt lat="20.190400" lon="-98.711658"><ele>2972.5</ele><time>2020-02-01T20:22:08.000Z</time></trkpt>
   <trkpt lat="20.190415" lon="-98.711343"><ele>2967.8</ele><time>2020-02-01T20:22:52.000Z</time></trkpt>
   <trkpt lat="20.190844" lon="-98.711006"><ele>2958.2</ele><time>2020-02-01T20:24:17.000Z</time></trkpt>
   <trkpt lat="20.191398" lon="-98.711046"><ele>2947.6</ele><time>2020-02-01T20:25:09.000Z</time></trkpt>
   <trkpt lat="20.191741" lon="-98.710719"><ele>2938.1</ele><time>2020-02-01T20:25:55.000Z</time></trkpt>
   <trkpt lat="20.191962" lon="-98.710642"><ele>2929.9</ele><time>2020-02-01T20:26:23.000Z</time></trkpt>
   <trkpt lat="20.192286" lon="-98.710105"><ele>2907.1</ele><time>2020-02-01T20:27:30.000Z</time></trkpt>
   <trkpt lat="20.192726" lon="-98.710036"><ele>2911.6</ele><time>2020-02-01T20:28:48.000Z</time></trkpt>
   <trkpt lat="20.192894" lon="-98.710123"><ele>2914.8</ele><time>2020-02-01T20:29:28.000Z</time></trkpt>
   <trkpt lat="20.192905" lon="-98.710231"><ele>2915.5</ele><time>2020-02-01T20:30:03.000Z</time></trkpt>
   <trkpt lat="20.193299" lon="-98.710127"><ele>2929.1</ele><time>2020-02-01T20:31:12.000Z</time></trkpt>
   <trkpt lat="20.193480" lon="-98.709868"><ele>2932.6</ele><time>2020-02-01T20:31:51.000Z</time></trkpt>
   <trkpt lat="20.193510" lon="-98.709531"><ele>2932.7</ele><time>2020-02-01T20:32:32.000Z</time></trkpt>
   <trkpt lat="20.193671" lon="-98.709410"><ele>2934.6</ele><time>2020-02-01T20:32:59.000Z</time></trkpt>
   <trkpt lat="20.194126" lon="-98.709429"><ele>2943.0</ele><time>2020-02-01T20:33:52.000Z</time></trkpt>
   <trkpt lat="20.194364" lon="-98.709575"><ele>2950.5</ele><time>2020-02-01T20:34:27.000Z</time></trkpt>
   <trkpt lat="20.194653" lon="-98.709518"><ele>2951.2</ele><time>2020-02-01T20:35:02.000Z</time></trkpt>
   <trkpt lat="20.194725" lon="-98.709065"><ele>2948.3</ele><time>2020-02-01T20:35:38.000Z</time></trkpt>
   <trkpt lat="20.194951" lon="-98.708844"><ele>2954.5</ele><time>2020-02-01T20:36:20.000Z</time></trkpt>
   <trkpt lat="20.194956" lon="-98.708527"><ele>2952.3</ele><time>2020-02-01T20:36:53.000Z</time></trkpt>
   <trkpt lat="20.195059" lon="-98.708404"><ele>2952.0</ele><time>2020-02-01T20:37:09.000Z</time></trkpt>
   <trkpt lat="20.195167" lon="-98.707948"><ele>2949.9</ele><time>2020-02-01T20:37:55.000Z</time></trkpt>
   <trkpt lat="20.195491" lon="-98.707463"><ele>2964.5</ele><time>2020-02-01T20:38:52.000Z</time></trkpt>
   <trkpt lat="20.195686" lon="-98.706795"><ele>2961.4</ele><time>2020-02-01T20:39:59.000Z</time></trkpt>
   <trkpt lat="20.196157" lon="-98.706162"><ele>2965.9</ele><time>2020-02-01T20:41:37.000Z</time></trkpt>
   <trkpt lat="20.196641" lon="-98.705855"><ele>2974.1</ele><time>2020-02-01T20:42:36.000Z</time></trkpt>
   <trkpt lat="20.196972" lon="-98.705937"><ele>2979.0</ele><time>2020-02-01T20:43:12.000Z</time></trkpt>
   <trkpt lat="20.197665" lon="-98.706901"><ele>2976.8</ele><time>2020-02-01T20:45:04.000Z</time></trkpt>
   <trkpt lat="20.197925" lon="-98.707115"><ele>2973.5</ele><time>2020-02-01T20:45:45.000Z</time></trkpt>
   <trkpt lat="20.198088" lon="-98.707489"><ele>2978.3</ele><time>2020-02-01T20:46:10.000Z</time></trkpt>
   <trkpt lat="20.198210" lon="-98.707501"><ele>2976.3</ele><time>2020-02-01T20:46:27.000Z</time></trkpt>
   <trkpt lat="20.198882" lon="-98.707212"><ele>2967.6</ele><time>2020-02-01T20:47:51.000Z</time></trkpt>
   <trkpt lat="20.198842" lon="-98.707462"><ele>2971.1</ele><time>2020-02-01T20:48:35.000Z</time></trkpt>
   <trkpt lat="20.199143" lon="-98.707727"><ele>2970.7</ele><time>2020-02-01T20:50:02.000Z</time></trkpt>
   <trkpt lat="20.199284" lon="-98.708208"><ele>2966.6</ele><time>2020-02-01T20:50:44.000Z</time></trkpt>
   <trkpt lat="20.199223" lon="-98.708675"><ele>2967.1</ele><time>2020-02-01T20:51:55.000Z</time></trkpt>
   <trkpt lat="20.199355" lon="-98.709108"><ele>2957.0</ele><time>2020-02-01T20:53:05.000Z</time></trkpt>
   <trkpt lat="20.199478" lon="-98.709250"><ele>2953.1</ele><time>2020-02-01T20:53:26.000Z</time></trkpt>
   <trkpt lat="20.199916" lon="-98.709423"><ele>2956.9</ele><time>2020-02-01T20:54:27.000Z</time></trkpt>
   <trkpt lat="20.200007" lon="-98.710040"><ele>2941.2</ele><time>2020-02-01T20:55:44.000Z</time></trkpt>
   <trkpt lat="20.200374" lon="-98.710555"><ele>2942.6</ele><time>2020-02-01T20:57:08.000Z</time></trkpt>
   <trkpt lat="20.200849" lon="-98.710812"><ele>2958.0</ele><time>2020-02-01T20:58:45.000Z</time></trkpt>
   <trkpt lat="20.201064" lon="-98.710731"><ele>2962.8</ele><time>2020-02-01T20:59:19.000Z</time></trkpt>
   <trkpt lat="20.201270" lon="-98.710957"><ele>2964.4</ele><time>2020-02-01T21:00:08.000Z</time></trkpt>
   <trkpt lat="20.201508" lon="-98.711012"><ele>2965.1</ele><time>2020-02-01T21:00:42.000Z</time></trkpt>
   <trkpt lat="20.201427" lon="-98.711289"><ele>2963.8</ele><time>2020-02-01T21:01:51.000Z</time></trkpt>
   <trkpt lat="20.201776" lon="-98.711808"><ele>2960.3</ele><time>2020-02-01T21:03:11.000Z</time></trkpt>
   <trkpt lat="20.201891" lon="-98.712198"><ele>2957.2</ele><time>2020-02-01T21:04:45.000Z</time></trkpt>
   <trkpt lat="20.201868" lon="-98.712523"><ele>2944.8</ele><time>2020-02-01T21:05:57.000Z</time></trkpt>
   <trkpt lat="20.201805" lon="-98.712466"><ele>2946.8</ele><time>2020-02-01T21:06:39.000Z</time></trkpt>
   <trkpt lat="20.201977" lon="-98.712202"><ele>2954.0</ele><time>2020-02-01T21:09:29.000Z</time></trkpt>
   <trkpt lat="20.201818" lon="-98.712194"><ele>2951.4</ele><time>2020-02-01T21:09:48.000Z</time></trkpt>
   <trkpt lat="20.201808" lon="-98.711900"><ele>2948.8</ele><time>2020-02-01T21:10:55.000Z</time></trkpt>
   <trkpt lat="20.201753" lon="-98.711925"><ele>2947.6</ele><time>2020-02-01T21:11:07.000Z</time></trkpt>
   <trkpt lat="20.201722" lon="-98.711795"><ele>2945.7</ele><time>2020-02-01T21:11:29.000Z</time></trkpt>
   <trkpt lat="20.201627" lon="-98.711815"><ele>2942.6</ele><time>2020-02-01T21:11:59.000Z</time></trkpt>
   <trkpt lat="20.201539" lon="-98.711675"><ele>2940.6</ele><time>2020-02-01T21:12:37.000Z</time></trkpt>
   <trkpt lat="20.201474" lon="-98.711752"><ele>2938.8</ele><time>2020-02-01T21:13:21.000Z</time></trkpt>
   <trkpt lat="20.201217" lon="-98.711715"><ele>2931.8</ele><time>2020-02-01T21:16:08.000Z</time></trkpt>
   <trkpt lat="20.201184" lon="-98.711861"><ele>2927.9</ele><time>2020-02-01T21:16:36.000Z</time></trkpt>
   <trkpt lat="20.200840" lon="-98.711975"><ele>2917.9</ele><time>2020-02-01T21:17:56.000Z</time></trkpt>
   <trkpt lat="20.200714" lon="-98.712208"><ele>2912.5</ele><time>2020-02-01T21:18:34.000Z</time></trkpt>
   <trkpt lat="20.200523" lon="-98.712288"><ele>2902.5</ele><time>2020-02-01T21:19:03.000Z</time></trkpt>
   <trkpt lat="20.200450" lon="-98.712619"><ele>2890.0</ele><time>2020-02-01T21:19:53.000Z</time></trkpt>
   <trkpt lat="20.200642" lon="-98.712752"><ele>2884.5</ele><time>2020-02-01T21:20:32.000Z</time></trkpt>
   <trkpt lat="20.200662" lon="-98.712910"><ele>2877.4</ele><time>2020-02-01T21:20:49.000Z</time></trkpt>
   <trkpt lat="20.200426" lon="-98.713604"><ele>2857.8</ele><time>2020-02-01T21:22:38.000Z</time></trkpt>
   <trkpt lat="20.200493" lon="-98.714007"><ele>2842.9</ele><time>2020-02-01T21:23:19.000Z</time></trkpt>
   <trkpt lat="20.200358" lon="-98.714272"><ele>2836.0</ele><time>2020-02-01T21:23:42.000Z</time></trkpt>
   <trkpt lat="20.200146" lon="-98.714329"><ele>2838.0</ele><time>2020-02-01T21:24:14.000Z</time></trkpt>
   <trkpt lat="20.200137" lon="-98.714517"><ele>2840.0</ele><time>2020-02-01T21:24:35.000Z</time></trkpt>
   <trkpt lat="20.200309" lon="-98.714617"><ele>2834.5</ele><time>2020-02-01T21:24:52.000Z</time></trkpt>
   <trkpt lat="20.200526" lon="-98.714541"><ele>2832.6</ele><time>2020-02-01T21:25:19.000Z</time></trkpt>
   <trkpt lat="20.200757" lon="-98.714941"><ele>2829.6</ele><time>2020-02-01T21:25:41.000Z</time></trkpt>
   <trkpt lat="20.200923" lon="-98.714990"><ele>2828.5</ele><time>2020-02-01T21:25:53.000Z</time></trkpt>
   <trkpt lat="20.201089" lon="-98.715213"><ele>2826.2</ele><time>2020-02-01T21:26:18.000Z</time></trkpt>
   <trkpt lat="20.201774" lon="-98.715475"><ele>2821.3</ele><time>2020-02-01T21:27:29.000Z</time></trkpt>
   <trkpt lat="20.202603" lon="-98.715923"><ele>2815.3</ele><time>2020-02-01T21:28:39.000Z</time></trkpt>
   <trkpt lat="20.202932" lon="-98.716437"><ele>2812.6</ele><time>2020-02-01T21:29:20.000Z</time></trkpt>
   <trkpt lat="20.203472" lon="-98.716491"><ele>2810.8</ele><time>2020-02-01T21:30:14.000Z</time></trkpt>
   <trkpt lat="20.203689" lon="-98.716773"><ele>2809.8</ele><time>2020-02-01T21:30:43.000Z</time></trkpt>
   <trkpt lat="20.203953" lon="-98.716865"><ele>2808.2</ele><time>2020-02-01T21:31:28.000Z</time></trkpt>
  </trkseg>
 </trk>
</gpx>
