<?xml version="1.0" encoding="UTF-8"?>
<gpx version="1.1" creator="Strava (via strava-mcp)" xmlns="http://www.topografix.com/GPX/1/1">
 <metadata><name>MTB loop</name><time>2020-10-25T14:50:22.000Z</time></metadata>
 <trk>
  <name>MTB loop</name>
  <type>Ride</type>
  <trkseg>
   <trkpt lat="19.320110" lon="-99.312989"><ele>3001.5</ele><time>2020-10-25T14:50:22.000Z</time></trkpt>
   <trkpt lat="19.320503" lon="-99.313369"><ele>3009.6</ele><time>2020-10-25T14:50:39.000Z</time></trkpt>
   <trkpt lat="19.320471" lon="-99.313270"><ele>3010.6</ele><time>2020-10-25T14:50:45.000Z</time></trkpt>
   <trkpt lat="19.321294" lon="-99.312992"><ele>3018.0</ele><time>2020-10-25T14:51:53.000Z</time></trkpt>
   <trkpt lat="19.322258" lon="-99.312977"><ele>3023.0</ele><time>2020-10-25T14:52:19.000Z</time></trkpt>
   <trkpt lat="19.323102" lon="-99.313465"><ele>3024.6</ele><time>2020-10-25T14:52:51.000Z</time></trkpt>
   <trkpt lat="19.323061" lon="-99.313548"><ele>3025.7</ele><time>2020-10-25T14:52:58.000Z</time></trkpt>
   <trkpt lat="19.322230" lon="-99.313430"><ele>3033.7</ele><time>2020-10-25T14:53:53.000Z</time></trkpt>
   <trkpt lat="19.322257" lon="-99.313705"><ele>3036.6</ele><time>2020-10-25T14:54:20.000Z</time></trkpt>
   <trkpt lat="19.322501" lon="-99.314340"><ele>3042.7</ele><time>2020-10-25T14:55:13.000Z</time></trkpt>
   <trkpt lat="19.322495" lon="-99.314696"><ele>3045.8</ele><time>2020-10-25T14:55:29.000Z</time></trkpt>
   <trkpt lat="19.322352" lon="-99.314839"><ele>3047.8</ele><time>2020-10-25T14:55:44.000Z</time></trkpt>
   <trkpt lat="19.321557" lon="-99.315174"><ele>3051.5</ele><time>2020-10-25T14:56:15.000Z</time></trkpt>
   <trkpt lat="19.321165" lon="-99.315461"><ele>3052.7</ele><time>2020-10-25T14:56:28.000Z</time></trkpt>
   <trkpt lat="19.321091" lon="-99.316174"><ele>3052.9</ele><time>2020-10-25T14:56:56.000Z</time></trkpt>
   <trkpt lat="19.321343" lon="-99.316840"><ele>3057.7</ele><time>2020-10-25T14:57:19.000Z</time></trkpt>
   <trkpt lat="19.320965" lon="-99.316912"><ele>3061.0</ele><time>2020-10-25T14:57:44.000Z</time></trkpt>
   <trkpt lat="19.320516" lon="-99.316407"><ele>3066.6</ele><time>2020-10-25T14:58:12.000Z</time></trkpt>
   <trkpt lat="19.320292" lon="-99.316325"><ele>3068.1</ele><time>2020-10-25T14:58:25.000Z</time></trkpt>
   <trkpt lat="19.319067" lon="-99.316402"><ele>3075.2</ele><time>2020-10-25T14:59:21.000Z</time></trkpt>
   <trkpt lat="19.317657" lon="-99.317120"><ele>3082.6</ele><time>2020-10-25T15:00:25.000Z</time></trkpt>
   <trkpt lat="19.315775" lon="-99.317527"><ele>3088.7</ele><time>2020-10-25T15:01:40.000Z</time></trkpt>
   <trkpt lat="19.315104" lon="-99.317827"><ele>3089.8</ele><time>2020-10-25T15:01:59.000Z</time></trkpt>
   <trkpt lat="19.314628" lon="-99.318166"><ele>3090.6</ele><time>2020-10-25T15:02:11.000Z</time></trkpt>
   <trkpt lat="19.314369" lon="-99.318628"><ele>3091.1</ele><time>2020-10-25T15:02:25.000Z</time></trkpt>
   <trkpt lat="19.314170" lon="-99.318760"><ele>3091.4</ele><time>2020-10-25T15:02:32.000Z</time></trkpt>
   <trkpt lat="19.313709" lon="-99.318889"><ele>3092.2</ele><time>2020-10-25T15:02:47.000Z</time></trkpt>
   <trkpt lat="19.312938" lon="-99.318848"><ele>3093.6</ele><time>2020-10-25T15:03:07.000Z</time></trkpt>
   <trkpt lat="19.312451" lon="-99.319013"><ele>3094.2</ele><time>2020-10-25T15:04:25.000Z</time></trkpt>
   <trkpt lat="19.284055" lon="-99.316085"><ele>3232.2</ele><time>2020-10-25T15:30:28.000Z</time></trkpt>
   <trkpt lat="19.284897" lon="-99.315658"><ele>3240.1</ele><time>2020-10-25T15:31:43.000Z</time></trkpt>
   <trkpt lat="19.284913" lon="-99.315251"><ele>3244.4</ele><time>2020-10-25T15:32:04.000Z</time></trkpt>
   <trkpt lat="19.283387" lon="-99.314524"><ele>3260.5</ele><time>2020-10-25T15:33:55.000Z</time></trkpt>
   <trkpt lat="19.282814" lon="-99.314153"><ele>3267.8</ele><time>2020-10-25T15:34:41.000Z</time></trkpt>
   <trkpt lat="19.281961" lon="-99.313822"><ele>3276.9</ele><time>2020-10-25T15:35:44.000Z</time></trkpt>
   <trkpt lat="19.281161" lon="-99.313617"><ele>3284.4</ele><time>2020-10-25T15:36:33.000Z</time></trkpt>
   <trkpt lat="19.280294" lon="-99.313573"><ele>3292.2</ele><time>2020-10-25T15:37:34.000Z</time></trkpt>
   <trkpt lat="19.279809" lon="-99.313375"><ele>3296.5</ele><time>2020-10-25T15:38:11.000Z</time></trkpt>
   <trkpt lat="19.279258" lon="-99.313304"><ele>3301.9</ele><time>2020-10-25T15:38:40.000Z</time></trkpt>
   <trkpt lat="19.278243" lon="-99.312987"><ele>3311.3</ele><time>2020-10-25T15:39:54.000Z</time></trkpt>
   <trkpt lat="19.277247" lon="-99.312977"><ele>3320.1</ele><time>2020-10-25T15:41:39.000Z</time></trkpt>
   <trkpt lat="19.276043" lon="-99.312649"><ele>3332.9</ele><time>2020-10-25T15:44:03.000Z</time></trkpt>
   <trkpt lat="19.275570" lon="-99.312759"><ele>3337.6</ele><time>2020-10-25T15:44:40.000Z</time></trkpt>
   <trkpt lat="19.275106" lon="-99.312735"><ele>3341.4</ele><time>2020-10-25T15:45:05.000Z</time></trkpt>
   <trkpt lat="19.274919" lon="-99.312630"><ele>3343.1</ele><time>2020-10-25T15:45:20.000Z</time></trkpt>
   <trkpt lat="19.274945" lon="-99.312542"><ele>3343.8</ele><time>2020-10-25T15:45:33.000Z</time></trkpt>
   <trkpt lat="19.275096" lon="-99.312546"><ele>3345.0</ele><time>2020-10-25T15:45:51.000Z</time></trkpt>
   <trkpt lat="19.275386" lon="-99.312124"><ele>3347.6</ele><time>2020-10-25T15:46:35.000Z</time></trkpt>
   <trkpt lat="19.276162" lon="-99.311354"><ele>3356.5</ele><time>2020-10-25T15:47:40.000Z</time></trkpt>
   <trkpt lat="19.276703" lon="-99.310680"><ele>3363.8</ele><time>2020-10-25T15:48:23.000Z</time></trkpt>
   <trkpt lat="19.276745" lon="-99.310448"><ele>3365.9</ele><time>2020-10-25T15:48:41.000Z</time></trkpt>
   <trkpt lat="19.276518" lon="-99.310257"><ele>3369.8</ele><time>2020-10-25T15:49:09.000Z</time></trkpt>
   <trkpt lat="19.275765" lon="-99.310235"><ele>3377.3</ele><time>2020-10-25T15:49:59.000Z</time></trkpt>
   <trkpt lat="19.275371" lon="-99.310446"><ele>3381.8</ele><time>2020-10-25T15:50:28.000Z</time></trkpt>
   <trkpt lat="19.275165" lon="-99.310755"><ele>3384.9</ele><time>2020-10-25T15:50:57.000Z</time></trkpt>
   <trkpt lat="19.274881" lon="-99.310943"><ele>3388.6</ele><time>2020-10-25T15:51:48.000Z</time></trkpt>
   <trkpt lat="19.274179" lon="-99.311232"><ele>3399.9</ele><time>2020-10-25T15:53:08.000Z</time></trkpt>
   <trkpt lat="19.273620" lon="-99.311317"><ele>3406.8</ele><time>2020-10-25T15:53:42.000Z</time></trkpt>
   <trkpt lat="19.272808" lon="-99.310997"><ele>3415.8</ele><time>2020-10-25T15:54:41.000Z</time></trkpt>
   <trkpt lat="19.272657" lon="-99.310872"><ele>3416.8</ele><time>2020-10-25T15:54:53.000Z</time></trkpt>
   <trkpt lat="19.272099" lon="-99.310739"><ele>3424.6</ele><time>2020-10-25T15:55:36.000Z</time></trkpt>
   <trkpt lat="19.271324" lon="-99.310885"><ele>3431.1</ele><time>2020-10-25T15:56:28.000Z</time></trkpt>
   <trkpt lat="19.270910" lon="-99.311135"><ele>3434.5</ele><time>2020-10-25T15:57:01.000Z</time></trkpt>
   <trkpt lat="19.269498" lon="-99.311015"><ele>3449.8</ele><time>2020-10-25T15:58:45.000Z</time></trkpt>
   <trkpt lat="19.269427" lon="-99.310858"><ele>3452.5</ele><time>2020-10-25T15:59:06.000Z</time></trkpt>
   <trkpt lat="19.270138" lon="-99.310386"><ele>3453.1</ele><time>2020-10-25T15:59:39.000Z</time></trkpt>
   <trkpt lat="19.270536" lon="-99.309915"><ele>3453.0</ele><time>2020-10-25T15:59:49.000Z</time></trkpt>
   <trkpt lat="19.270833" lon="-99.309749"><ele>3453.3</ele><time>2020-10-25T16:00:01.000Z</time></trkpt>
   <trkpt lat="19.270981" lon="-99.309484"><ele>3451.6</ele><time>2020-10-25T16:00:13.000Z</time></trkpt>
   <trkpt lat="19.271058" lon="-99.309181"><ele>3450.3</ele><time>2020-10-25T16:00:25.000Z</time></trkpt>
   <trkpt lat="19.270873" lon="-99.308749"><ele>3447.1</ele><time>2020-10-25T16:00:36.000Z</time></trkpt>
   <trkpt lat="19.270888" lon="-99.308438"><ele>3444.1</ele><time>2020-10-25T16:00:47.000Z</time></trkpt>
   <trkpt lat="19.271697" lon="-99.308423"><ele>3445.0</ele><time>2020-10-25T16:01:33.000Z</time></trkpt>
   <trkpt lat="19.272247" lon="-99.308815"><ele>3445.2</ele><time>2020-10-25T16:02:03.000Z</time></trkpt>
   <trkpt lat="19.272616" lon="-99.308567"><ele>3449.5</ele><time>2020-10-25T16:02:29.000Z</time></trkpt>
   <trkpt lat="19.272864" lon="-99.308668"><ele>3451.5</ele><time>2020-10-25T16:02:42.000Z</time></trkpt>
   <trkpt lat="19.273187" lon="-99.308676"><ele>3452.7</ele><time>2020-10-25T16:02:59.000Z</time></trkpt>
   <trkpt lat="19.273746" lon="-99.308499"><ele>3455.6</ele><time>2020-10-25T16:03:23.000Z</time></trkpt>
   <trkpt lat="19.274346" lon="-99.307885"><ele>3461.5</ele><time>2020-10-25T16:04:08.000Z</time></trkpt>
   <trkpt lat="19.275182" lon="-99.306527"><ele>3464.9</ele><time>2020-10-25T16:05:10.000Z</time></trkpt>
   <trkpt lat="19.275567" lon="-99.306503"><ele>3464.2</ele><time>2020-10-25T16:05:20.000Z</time></trkpt>
   <trkpt lat="19.276013" lon="-99.306312"><ele>3466.5</ele><time>2020-10-25T16:05:55.000Z</time></trkpt>
   <trkpt lat="19.276748" lon="-99.306279"><ele>3469.3</ele><time>2020-10-25T16:06:24.000Z</time></trkpt>
   <trkpt lat="19.278027" lon="-99.305468"><ele>3471.0</ele><time>2020-10-25T16:07:18.000Z</time></trkpt>
   <trkpt lat="19.278290" lon="-99.304990"><ele>3471.7</ele><time>2020-10-25T16:07:33.000Z</time></trkpt>
   <trkpt lat="19.278741" lon="-99.304427"><ele>3474.9</ele><time>2020-10-25T16:08:02.000Z</time></trkpt>
   <trkpt lat="19.278935" lon="-99.303960"><ele>3478.4</ele><time>2020-10-25T16:08:29.000Z</time></trkpt>
   <trkpt lat="19.278922" lon="-99.303705"><ele>3482.1</ele><time>2020-10-25T16:09:28.000Z</time></trkpt>
   <trkpt lat="19.277964" lon="-99.304215"><ele>3491.7</ele><time>2020-10-25T16:10:57.000Z</time></trkpt>
   <trkpt lat="19.276684" lon="-99.304292"><ele>3503.6</ele><time>2020-10-25T16:12:43.000Z</time></trkpt>
   <trkpt lat="19.275926" lon="-99.304171"><ele>3507.0</ele><time>2020-10-25T16:13:38.000Z</time></trkpt>
   <trkpt lat="19.275515" lon="-99.303977"><ele>3506.8</ele><time>2020-10-25T16:14:57.000Z</time></trkpt>
   <trkpt lat="19.274752" lon="-99.304054"><ele>3512.5</ele><time>2020-10-25T16:15:32.000Z</time></trkpt>
   <trkpt lat="19.273792" lon="-99.303475"><ele>3517.2</ele><time>2020-10-25T16:16:15.000Z</time></trkpt>
   <trkpt lat="19.273412" lon="-99.303361"><ele>3520.2</ele><time>2020-10-25T16:16:43.000Z</time></trkpt>
   <trkpt lat="19.272496" lon="-99.303739"><ele>3526.5</ele><time>2020-10-25T16:19:19.000Z</time></trkpt>
   <trkpt lat="19.271831" lon="-99.304230"><ele>3529.4</ele><time>2020-10-25T16:19:53.000Z</time></trkpt>
   <trkpt lat="19.270882" lon="-99.304603"><ele>3528.1</ele><time>2020-10-25T16:20:28.000Z</time></trkpt>
   <trkpt lat="19.270379" lon="-99.305045"><ele>3526.9</ele><time>2020-10-25T16:20:43.000Z</time></trkpt>
   <trkpt lat="19.269790" lon="-99.304955"><ele>3527.7</ele><time>2020-10-25T16:21:03.000Z</time></trkpt>
   <trkpt lat="19.269224" lon="-99.305152"><ele>3528.4</ele><time>2020-10-25T16:21:20.000Z</time></trkpt>
   <trkpt lat="19.268684" lon="-99.305108"><ele>3533.4</ele><time>2020-10-25T16:21:57.000Z</time></trkpt>
   <trkpt lat="19.268556" lon="-99.305181"><ele>3534.8</ele><time>2020-10-25T16:22:27.000Z</time></trkpt>
   <trkpt lat="19.268175" lon="-99.305036"><ele>3530.0</ele><time>2020-10-25T16:22:50.000Z</time></trkpt>
   <trkpt lat="19.267930" lon="-99.304843"><ele>3525.7</ele><time>2020-10-25T16:22:59.000Z</time></trkpt>
   <trkpt lat="19.267598" lon="-99.305110"><ele>3519.8</ele><time>2020-10-25T16:23:12.000Z</time></trkpt>
   <trkpt lat="19.266965" lon="-99.305229"><ele>3510.8</ele><time>2020-10-25T16:23:28.000Z</time></trkpt>
   <trkpt lat="19.266939" lon="-99.305164"><ele>3509.3</ele><time>2020-10-25T16:23:35.000Z</time></trkpt>
   <trkpt lat="19.267266" lon="-99.304918"><ele>3503.7</ele><time>2020-10-25T16:23:56.000Z</time></trkpt>
   <trkpt lat="19.267264" lon="-99.304781"><ele>3500.4</ele><time>2020-10-25T16:26:00.000Z</time></trkpt>
   <trkpt lat="19.267146" lon="-99.304662"><ele>3498.0</ele><time>2020-10-25T16:26:37.000Z</time></trkpt>
   <trkpt lat="19.266779" lon="-99.304640"><ele>3492.4</ele><time>2020-10-25T16:29:51.000Z</time></trkpt>
   <trkpt lat="19.266339" lon="-99.304878"><ele>3484.6</ele><time>2020-10-25T16:31:42.000Z</time></trkpt>
   <trkpt lat="19.266214" lon="-99.305116"><ele>3479.6</ele><time>2020-10-25T16:32:19.000Z</time></trkpt>
   <trkpt lat="19.266044" lon="-99.305244"><ele>3476.7</ele><time>2020-10-25T16:32:40.000Z</time></trkpt>
   <trkpt lat="19.265784" lon="-99.306240"><ele>3472.1</ele><time>2020-10-25T16:35:12.000Z</time></trkpt>
   <trkpt lat="19.265304" lon="-99.306691"><ele>3470.9</ele><time>2020-10-25T16:35:45.000Z</time></trkpt>
   <trkpt lat="19.265216" lon="-99.306849"><ele>3470.3</ele><time>2020-10-25T16:35:52.000Z</time></trkpt>
   <trkpt lat="19.265249" lon="-99.306956"><ele>3470.1</ele><time>2020-10-25T16:37:09.000Z</time></trkpt>
   <trkpt lat="19.264618" lon="-99.307920"><ele>3468.2</ele><time>2020-10-25T16:37:58.000Z</time></trkpt>
   <trkpt lat="19.264159" lon="-99.308148"><ele>3467.3</ele><time>2020-10-25T16:38:07.000Z</time></trkpt>
   <trkpt lat="19.264232" lon="-99.308205"><ele>3467.0</ele><time>2020-10-25T16:38:19.000Z</time></trkpt>
   <trkpt lat="19.264130" lon="-99.308010"><ele>3467.1</ele><time>2020-10-25T16:39:01.000Z</time></trkpt>
   <trkpt lat="19.264283" lon="-99.307416"><ele>3458.4</ele><time>2020-10-25T16:39:18.000Z</time></trkpt>
   <trkpt lat="19.263884" lon="-99.306987"><ele>3449.4</ele><time>2020-10-25T16:39:36.000Z</time></trkpt>
   <trkpt lat="19.263580" lon="-99.306944"><ele>3444.5</ele><time>2020-10-25T16:39:44.000Z</time></trkpt>
   <trkpt lat="19.263276" lon="-99.307052"><ele>3439.4</ele><time>2020-10-25T16:39:57.000Z</time></trkpt>
   <trkpt lat="19.263131" lon="-99.306713"><ele>3422.5</ele><time>2020-10-25T16:40:22.000Z</time></trkpt>
   <trkpt lat="19.262657" lon="-99.306534"><ele>3416.1</ele><time>2020-10-25T16:41:00.000Z</time></trkpt>
   <trkpt lat="19.262655" lon="-99.306669"><ele>3413.8</ele><time>2020-10-25T16:41:11.000Z</time></trkpt>
   <trkpt lat="19.262310" lon="-99.306799"><ele>3408.8</ele><time>2020-10-25T16:41:28.000Z</time></trkpt>
   <trkpt lat="19.261906" lon="-99.306793"><ele>3403.2</ele><time>2020-10-25T16:41:42.000Z</time></trkpt>
   <trkpt lat="19.260954" lon="-99.307063"><ele>3389.0</ele><time>2020-10-25T16:42:11.000Z</time></trkpt>
   <trkpt lat="19.260782" lon="-99.306861"><ele>3378.9</ele><time>2020-10-25T16:42:30.000Z</time></trkpt>
   <trkpt lat="19.260156" lon="-99.306477"><ele>3354.4</ele><time>2020-10-25T16:43:21.000Z</time></trkpt>
   <trkpt lat="19.259647" lon="-99.306611"><ele>3340.4</ele><time>2020-10-25T16:44:16.000Z</time></trkpt>
   <trkpt lat="19.259444" lon="-99.306556"><ele>3335.3</ele><time>2020-10-25T16:44:28.000Z</time></trkpt>
   <trkpt lat="19.259145" lon="-99.306192"><ele>3323.1</ele><time>2020-10-25T16:44:53.000Z</time></trkpt>
   <trkpt lat="19.259102" lon="-99.305672"><ele>3309.1</ele><time>2020-10-25T16:45:19.000Z</time></trkpt>
   <trkpt lat="19.259325" lon="-99.305291"><ele>3303.4</ele><time>2020-10-25T16:45:30.000Z</time></trkpt>
   <trkpt lat="19.259596" lon="-99.304517"><ele>3299.4</ele><time>2020-10-25T16:45:42.000Z</time></trkpt>
   <trkpt lat="19.260453" lon="-99.303587"><ele>3289.7</ele><time>2020-10-25T16:46:05.000Z</time></trkpt>
   <trkpt lat="19.260716" lon="-99.303184"><ele>3286.8</ele><time>2020-10-25T16:46:25.000Z</time></trkpt>
   <trkpt lat="19.260711" lon="-99.302946"><ele>3284.9</ele><time>2020-10-25T16:46:36.000Z</time></trkpt>
   <trkpt lat="19.261204" lon="-99.302265"><ele>3278.8</ele><time>2020-10-25T16:46:57.000Z</time></trkpt>
   <trkpt lat="19.262147" lon="-99.301951"><ele>3283.1</ele><time>2020-10-25T16:47:53.000Z</time></trkpt>
   <trkpt lat="19.262483" lon="-99.302053"><ele>3286.4</ele><time>2020-10-25T16:48:12.000Z</time></trkpt>
   <trkpt lat="19.262939" lon="-99.302054"><ele>3288.5</ele><time>2020-10-25T16:48:42.000Z</time></trkpt>
   <trkpt lat="19.263176" lon="-99.301842"><ele>3288.5</ele><time>2020-10-25T16:48:58.000Z</time></trkpt>
   <trkpt lat="19.263433" lon="-99.301439"><ele>3287.4</ele><time>2020-10-25T16:49:05.000Z</time></trkpt>
   <trkpt lat="19.264072" lon="-99.301065"><ele>3285.5</ele><time>2020-10-25T16:49:26.000Z</time></trkpt>
   <trkpt lat="19.264299" lon="-99.300822"><ele>3284.8</ele><time>2020-10-25T16:49:59.000Z</time></trkpt>
   <trkpt lat="19.264523" lon="-99.300914"><ele>3283.6</ele><time>2020-10-25T16:50:18.000Z</time></trkpt>
   <trkpt lat="19.264979" lon="-99.300847"><ele>3280.9</ele><time>2020-10-25T16:50:54.000Z</time></trkpt>
   <trkpt lat="19.265339" lon="-99.300907"><ele>3280.1</ele><time>2020-10-25T16:51:04.000Z</time></trkpt>
   <trkpt lat="19.265166" lon="-99.300862"><ele>3280.0</ele><time>2020-10-25T16:51:15.000Z</time></trkpt>
   <trkpt lat="19.265369" lon="-99.300901"><ele>3278.6</ele><time>2020-10-25T16:51:47.000Z</time></trkpt>
   <trkpt lat="19.265366" lon="-99.301014"><ele>3277.2</ele><time>2020-10-25T16:53:18.000Z</time></trkpt>
   <trkpt lat="19.265576" lon="-99.300377"><ele>3270.9</ele><time>2020-10-25T16:53:38.000Z</time></trkpt>
   <trkpt lat="19.265737" lon="-99.300203"><ele>3269.9</ele><time>2020-10-25T16:53:47.000Z</time></trkpt>
   <trkpt lat="19.266901" lon="-99.299621"><ele>3268.8</ele><time>2020-10-25T16:54:50.000Z</time></trkpt>
   <trkpt lat="19.267271" lon="-99.299042"><ele>3274.0</ele><time>2020-10-25T16:55:08.000Z</time></trkpt>
   <trkpt lat="19.267694" lon="-99.298729"><ele>3279.1</ele><time>2020-10-25T16:55:51.000Z</time></trkpt>
   <trkpt lat="19.268319" lon="-99.298501"><ele>3291.4</ele><time>2020-10-25T16:57:10.000Z</time></trkpt>
   <trkpt lat="19.268297" lon="-99.298658"><ele>3293.7</ele><time>2020-10-25T16:57:28.000Z</time></trkpt>
   <trkpt lat="19.268448" lon="-99.298574"><ele>3295.7</ele><time>2020-10-25T16:58:00.000Z</time></trkpt>
   <trkpt lat="19.269123" lon="-99.297472"><ele>3309.8</ele><time>2020-10-25T17:00:02.000Z</time></trkpt>
   <trkpt lat="19.269392" lon="-99.296692"><ele>3320.0</ele><time>2020-10-25T17:01:40.000Z</time></trkpt>
   <trkpt lat="19.269640" lon="-99.296267"><ele>3333.4</ele><time>2020-10-25T17:03:16.000Z</time></trkpt>
   <trkpt lat="19.269674" lon="-99.295902"><ele>3341.8</ele><time>2020-10-25T17:04:22.000Z</time></trkpt>
   <trkpt lat="19.269582" lon="-99.295434"><ele>3349.9</ele><time>2020-10-25T17:05:15.000Z</time></trkpt>
   <trkpt lat="19.269826" lon="-99.294681"><ele>3354.8</ele><time>2020-10-25T17:07:01.000Z</time></trkpt>
   <trkpt lat="19.269731" lon="-99.294592"><ele>3355.8</ele><time>2020-10-25T17:12:47.000Z</time></trkpt>
   <trkpt lat="19.269829" lon="-99.294629"><ele>3354.3</ele><time>2020-10-25T17:16:01.000Z</time></trkpt>
   <trkpt lat="19.269706" lon="-99.294781"><ele>3353.5</ele><time>2020-10-25T17:16:50.000Z</time></trkpt>
   <trkpt lat="19.269606" lon="-99.295244"><ele>3351.0</ele><time>2020-10-25T17:17:24.000Z</time></trkpt>
   <trkpt lat="19.269658" lon="-99.295917"><ele>3340.3</ele><time>2020-10-25T17:17:58.000Z</time></trkpt>
   <trkpt lat="19.269552" lon="-99.296428"><ele>3327.0</ele><time>2020-10-25T17:19:50.000Z</time></trkpt>
   <trkpt lat="19.269285" lon="-99.296836"><ele>3317.0</ele><time>2020-10-25T17:20:48.000Z</time></trkpt>
   <trkpt lat="19.269231" lon="-99.297194"><ele>3312.5</ele><time>2020-10-25T17:23:59.000Z</time></trkpt>
   <trkpt lat="19.268978" lon="-99.297553"><ele>3309.6</ele><time>2020-10-25T17:24:24.000Z</time></trkpt>
   <trkpt lat="19.268783" lon="-99.298032"><ele>3305.1</ele><time>2020-10-25T17:24:52.000Z</time></trkpt>
   <trkpt lat="19.268330" lon="-99.298567"><ele>3296.1</ele><time>2020-10-25T17:25:23.000Z</time></trkpt>
   <trkpt lat="19.268363" lon="-99.298430"><ele>3294.2</ele><time>2020-10-25T17:26:02.000Z</time></trkpt>
   <trkpt lat="19.267694" lon="-99.298718"><ele>3282.4</ele><time>2020-10-25T17:26:29.000Z</time></trkpt>
   <trkpt lat="19.267124" lon="-99.299107"><ele>3274.0</ele><time>2020-10-25T17:26:55.000Z</time></trkpt>
   <trkpt lat="19.266846" lon="-99.299485"><ele>3270.3</ele><time>2020-10-25T17:27:10.000Z</time></trkpt>
   <trkpt lat="19.266811" lon="-99.299831"><ele>3268.8</ele><time>2020-10-25T17:27:39.000Z</time></trkpt>
   <trkpt lat="19.266120" lon="-99.300515"><ele>3269.6</ele><time>2020-10-25T17:28:05.000Z</time></trkpt>
   <trkpt lat="19.265149" lon="-99.300935"><ele>3279.0</ele><time>2020-10-25T17:29:53.000Z</time></trkpt>
   <trkpt lat="19.264241" lon="-99.300809"><ele>3282.7</ele><time>2020-10-25T17:31:02.000Z</time></trkpt>
   <trkpt lat="19.263792" lon="-99.301159"><ele>3285.4</ele><time>2020-10-25T17:31:24.000Z</time></trkpt>
   <trkpt lat="19.263825" lon="-99.301280"><ele>3285.8</ele><time>2020-10-25T17:32:53.000Z</time></trkpt>
   <trkpt lat="19.263284" lon="-99.301811"><ele>3288.2</ele><time>2020-10-25T17:33:34.000Z</time></trkpt>
   <trkpt lat="19.262795" lon="-99.301899"><ele>3288.3</ele><time>2020-10-25T17:33:52.000Z</time></trkpt>
   <trkpt lat="19.262061" lon="-99.301865"><ele>3279.8</ele><time>2020-10-25T17:34:10.000Z</time></trkpt>
   <trkpt lat="19.261647" lon="-99.302037"><ele>3277.3</ele><time>2020-10-25T17:34:20.000Z</time></trkpt>
   <trkpt lat="19.260833" lon="-99.302820"><ele>3284.3</ele><time>2020-10-25T17:35:11.000Z</time></trkpt>
   <trkpt lat="19.260391" lon="-99.303347"><ele>3289.4</ele><time>2020-10-25T17:35:37.000Z</time></trkpt>
   <trkpt lat="19.260191" lon="-99.303720"><ele>3292.1</ele><time>2020-10-25T17:35:53.000Z</time></trkpt>
   <trkpt lat="19.259862" lon="-99.304021"><ele>3296.0</ele><time>2020-10-25T17:36:21.000Z</time></trkpt>
   <trkpt lat="19.259361" lon="-99.304780"><ele>3300.2</ele><time>2020-10-25T17:37:09.000Z</time></trkpt>
   <trkpt lat="19.259204" lon="-99.305348"><ele>3305.3</ele><time>2020-10-25T17:37:53.000Z</time></trkpt>
   <trkpt lat="19.258878" lon="-99.305743"><ele>3311.4</ele><time>2020-10-25T17:38:42.000Z</time></trkpt>
   <trkpt lat="19.258858" lon="-99.306314"><ele>3315.7</ele><time>2020-10-25T17:39:20.000Z</time></trkpt>
   <trkpt lat="19.259169" lon="-99.306880"><ele>3323.9</ele><time>2020-10-25T17:40:15.000Z</time></trkpt>
   <trkpt lat="19.259231" lon="-99.306816"><ele>3324.8</ele><time>2020-10-25T17:40:48.000Z</time></trkpt>
   <trkpt lat="19.259460" lon="-99.306838"><ele>3333.0</ele><time>2020-10-25T17:41:12.000Z</time></trkpt>
   <trkpt lat="19.260188" lon="-99.306480"><ele>3352.7</ele><time>2020-10-25T17:42:11.000Z</time></trkpt>
   <trkpt lat="19.260421" lon="-99.306481"><ele>3358.8</ele><time>2020-10-25T17:42:41.000Z</time></trkpt>
   <trkpt lat="19.260556" lon="-99.306764"><ele>3368.0</ele><time>2020-10-25T17:43:39.000Z</time></trkpt>
   <trkpt lat="19.260514" lon="-99.307100"><ele>3376.4</ele><time>2020-10-25T17:44:19.000Z</time></trkpt>
   <trkpt lat="19.260714" lon="-99.307268"><ele>3382.7</ele><time>2020-10-25T17:44:52.000Z</time></trkpt>
   <trkpt lat="19.261258" lon="-99.307069"><ele>3393.9</ele><time>2020-10-25T17:45:46.000Z</time></trkpt>
   <trkpt lat="19.261658" lon="-99.307064"><ele>3399.6</ele><time>2020-10-25T17:46:25.000Z</time></trkpt>
   <trkpt lat="19.262096" lon="-99.306879"><ele>3407.5</ele><time>2020-10-25T17:47:15.000Z</time></trkpt>
   <trkpt lat="19.262485" lon="-99.306601"><ele>3415.2</ele><time>2020-10-25T17:47:58.000Z</time></trkpt>
   <trkpt lat="19.262845" lon="-99.306506"><ele>3421.2</ele><time>2020-10-25T17:48:28.000Z</time></trkpt>
   <trkpt lat="19.263008" lon="-99.306615"><ele>3424.5</ele><time>2020-10-25T17:48:52.000Z</time></trkpt>
   <trkpt lat="19.262908" lon="-99.307053"><ele>3431.8</ele><time>2020-10-25T17:49:51.000Z</time></trkpt>
   <trkpt lat="19.263146" lon="-99.307072"><ele>3435.7</ele><time>2020-10-25T17:50:23.000Z</time></trkpt>
   <trkpt lat="19.263644" lon="-99.306948"><ele>3443.9</ele><time>2020-10-25T17:50:58.000Z</time></trkpt>
   <trkpt lat="19.263924" lon="-99.307024"><ele>3448.4</ele><time>2020-10-25T17:51:24.000Z</time></trkpt>
   <trkpt lat="19.264201" lon="-99.307272"><ele>3454.3</ele><time>2020-10-25T17:51:57.000Z</time></trkpt>
   <trkpt lat="19.264199" lon="-99.307397"><ele>3456.2</ele><time>2020-10-25T17:52:14.000Z</time></trkpt>
   <trkpt lat="19.264034" lon="-99.307586"><ele>3460.1</ele><time>2020-10-25T17:52:34.000Z</time></trkpt>
   <trkpt lat="19.264173" lon="-99.308274"><ele>3466.5</ele><time>2020-10-25T17:54:01.000Z</time></trkpt>
   <trkpt lat="19.263941" lon="-99.309068"><ele>3458.1</ele><time>2020-10-25T17:54:16.000Z</time></trkpt>
   <trkpt lat="19.263365" lon="-99.309953"><ele>3450.5</ele><time>2020-10-25T17:54:50.000Z</time></trkpt>
   <trkpt lat="19.262990" lon="-99.310368"><ele>3446.3</ele><time>2020-10-25T17:55:05.000Z</time></trkpt>
   <trkpt lat="19.262751" lon="-99.311030"><ele>3442.4</ele><time>2020-10-25T17:55:26.000Z</time></trkpt>
   <trkpt lat="19.262103" lon="-99.311912"><ele>3452.6</ele><time>2020-10-25T17:56:32.000Z</time></trkpt>
   <trkpt lat="19.261845" lon="-99.312398"><ele>3455.4</ele><time>2020-10-25T17:56:56.000Z</time></trkpt>
   <trkpt lat="19.261388" lon="-99.312929"><ele>3457.3</ele><time>2020-10-25T17:57:20.000Z</time></trkpt>
   <trkpt lat="19.260888" lon="-99.313138"><ele>3462.6</ele><time>2020-10-25T17:57:47.000Z</time></trkpt>
   <trkpt lat="19.260498" lon="-99.313165"><ele>3467.0</ele><time>2020-10-25T17:58:16.000Z</time></trkpt>
   <trkpt lat="19.260211" lon="-99.313421"><ele>3471.0</ele><time>2020-10-25T17:58:48.000Z</time></trkpt>
   <trkpt lat="19.260550" lon="-99.314174"><ele>3475.0</ele><time>2020-10-25T17:59:53.000Z</time></trkpt>
   <trkpt lat="19.260959" lon="-99.314702"><ele>3480.6</ele><time>2020-10-25T18:00:37.000Z</time></trkpt>
   <trkpt lat="19.261107" lon="-99.315270"><ele>3486.5</ele><time>2020-10-25T18:01:18.000Z</time></trkpt>
   <trkpt lat="19.261473" lon="-99.315921"><ele>3490.9</ele><time>2020-10-25T18:01:48.000Z</time></trkpt>
   <trkpt lat="19.261862" lon="-99.318331"><ele>3497.0</ele><time>2020-10-25T18:03:02.000Z</time></trkpt>
   <trkpt lat="19.262164" lon="-99.318828"><ele>3500.6</ele><time>2020-10-25T18:03:26.000Z</time></trkpt>
   <trkpt lat="19.261786" lon="-99.318509"><ele>3506.9</ele><time>2020-10-25T18:06:36.000Z</time></trkpt>
   <trkpt lat="19.261514" lon="-99.318420"><ele>3508.9</ele><time>2020-10-25T18:06:58.000Z</time></trkpt>
   <trkpt lat="19.261194" lon="-99.318460"><ele>3511.1</ele><time>2020-10-25T18:07:22.000Z</time></trkpt>
   <trkpt lat="19.260299" lon="-99.318016"><ele>3514.3</ele><time>2020-10-25T18:08:08.000Z</time></trkpt>
   <trkpt lat="19.259406" lon="-99.318109"><ele>3513.8</ele><time>2020-10-25T18:08:44.000Z</time></trkpt>
   <trkpt lat="19.258210" lon="-99.317904"><ele>3510.2</ele><time>2020-10-25T18:09:02.000Z</time></trkpt>
   <trkpt lat="19.257807" lon="-99.317955"><ele>3508.8</ele><time>2020-10-25T18:09:14.000Z</time></trkpt>
   <trkpt lat="19.257622" lon="-99.318148"><ele>3507.7</ele><time>2020-10-25T18:09:23.000Z</time></trkpt>
   <trkpt lat="19.257098" lon="-99.318401"><ele>3506.4</ele><time>2020-10-25T18:09:40.000Z</time></trkpt>
   <trkpt lat="19.256766" lon="-99.318384"><ele>3505.3</ele><time>2020-10-25T18:09:46.000Z</time></trkpt>
   <trkpt lat="19.256158" lon="-99.318568"><ele>3501.2</ele><time>2020-10-25T18:09:58.000Z</time></trkpt>
   <trkpt lat="19.255510" lon="-99.318508"><ele>3496.0</ele><time>2020-10-25T18:10:20.000Z</time></trkpt>
   <trkpt lat="19.254740" lon="-99.318562"><ele>3489.8</ele><time>2020-10-25T18:10:50.000Z</time></trkpt>
   <trkpt lat="19.254395" lon="-99.318695"><ele>3485.2</ele><time>2020-10-25T18:11:13.000Z</time></trkpt>
   <trkpt lat="19.253143" lon="-99.318936"><ele>3473.5</ele><time>2020-10-25T18:11:38.000Z</time></trkpt>
   <trkpt lat="19.252654" lon="-99.318926"><ele>3469.8</ele><time>2020-10-25T18:11:46.000Z</time></trkpt>
   <trkpt lat="19.252308" lon="-99.319048"><ele>3468.2</ele><time>2020-10-25T18:11:53.000Z</time></trkpt>
   <trkpt lat="19.252262" lon="-99.319155"><ele>3466.8</ele><time>2020-10-25T18:12:01.000Z</time></trkpt>
   <trkpt lat="19.251824" lon="-99.319288"><ele>3462.4</ele><time>2020-10-25T18:12:16.000Z</time></trkpt>
   <trkpt lat="19.251487" lon="-99.319179"><ele>3461.6</ele><time>2020-10-25T18:12:37.000Z</time></trkpt>
   <trkpt lat="19.251032" lon="-99.319218"><ele>3460.6</ele><time>2020-10-25T18:12:45.000Z</time></trkpt>
   <trkpt lat="19.250284" lon="-99.318978"><ele>3455.2</ele><time>2020-10-25T18:13:05.000Z</time></trkpt>
   <trkpt lat="19.249797" lon="-99.318597"><ele>3451.4</ele><time>2020-10-25T18:13:20.000Z</time></trkpt>
   <trkpt lat="19.249208" lon="-99.318275"><ele>3447.0</ele><time>2020-10-25T18:13:32.000Z</time></trkpt>
   <trkpt lat="19.248771" lon="-99.318251"><ele>3443.6</ele><time>2020-10-25T18:13:47.000Z</time></trkpt>
   <trkpt lat="19.248435" lon="-99.318424"><ele>3440.3</ele><time>2020-10-25T18:13:56.000Z</time></trkpt>
   <trkpt lat="19.247552" lon="-99.318246"><ele>3430.6</ele><time>2020-10-25T18:14:20.000Z</time></trkpt>
   <trkpt lat="19.246622" lon="-99.318532"><ele>3433.1</ele><time>2020-10-25T18:15:14.000Z</time></trkpt>
   <trkpt lat="19.246102" lon="-99.318847"><ele>3438.7</ele><time>2020-10-25T18:15:50.000Z</time></trkpt>
   <trkpt lat="19.245759" lon="-99.319220"><ele>3443.4</ele><time>2020-10-25T18:16:18.000Z</time></trkpt>
   <trkpt lat="19.245609" lon="-99.319681"><ele>3447.7</ele><time>2020-10-25T18:16:57.000Z</time></trkpt>
   <trkpt lat="19.245353" lon="-99.321978"><ele>3468.3</ele><time>2020-10-25T18:20:28.000Z</time></trkpt>
   <trkpt lat="19.245155" lon="-99.322380"><ele>3472.4</ele><time>2020-10-25T18:21:07.000Z</time></trkpt>
   <trkpt lat="19.244925" lon="-99.323507"><ele>3482.7</ele><time>2020-10-25T18:22:27.000Z</time></trkpt>
   <trkpt lat="19.245082" lon="-99.324635"><ele>3493.3</ele><time>2020-10-25T18:24:45.000Z</time></trkpt>
   <trkpt lat="19.245047" lon="-99.325139"><ele>3497.8</ele><time>2020-10-25T18:25:28.000Z</time></trkpt>
   <trkpt lat="19.245167" lon="-99.325732"><ele>3504.6</ele><time>2020-10-25T18:28:37.000Z</time></trkpt>
   <trkpt lat="19.245140" lon="-99.326072"><ele>3507.6</ele><time>2020-10-25T18:29:03.000Z</time></trkpt>
   <trkpt lat="19.245503" lon="-99.326751"><ele>3517.1</ele><time>2020-10-25T18:30:51.000Z</time></trkpt>
   <trkpt lat="19.245637" lon="-99.327232"><ele>3522.5</ele><time>2020-10-25T18:31:36.000Z</time></trkpt>
   <trkpt lat="19.245532" lon="-99.327431"><ele>3524.7</ele><time>2020-10-25T18:31:53.000Z</time></trkpt>
   <trkpt lat="19.245141" lon="-99.327731"><ele>3524.5</ele><time>2020-10-25T18:32:05.000Z</time></trkpt>
   <trkpt lat="19.244122" lon="-99.328103"><ele>3527.0</ele><time>2020-10-25T18:32:46.000Z</time></trkpt>
   <trkpt lat="19.243600" lon="-99.328439"><ele>3531.8</ele><time>2020-10-25T18:33:54.000Z</time></trkpt>
   <trkpt lat="19.243444" lon="-99.329409"><ele>3546.9</ele><time>2020-10-25T18:36:46.000Z</time></trkpt>
   <trkpt lat="19.243515" lon="-99.330034"><ele>3553.3</ele><time>2020-10-25T18:37:29.000Z</time></trkpt>
   <trkpt lat="19.243766" lon="-99.330662"><ele>3562.7</ele><time>2020-10-25T18:38:38.000Z</time></trkpt>
   <trkpt lat="19.244241" lon="-99.331128"><ele>3569.6</ele><time>2020-10-25T18:39:28.000Z</time></trkpt>
   <trkpt lat="19.244744" lon="-99.331437"><ele>3571.0</ele><time>2020-10-25T18:39:56.000Z</time></trkpt>
   <trkpt lat="19.244900" lon="-99.331457"><ele>3570.6</ele><time>2020-10-25T18:40:23.000Z</time></trkpt>
   <trkpt lat="19.245152" lon="-99.331695"><ele>3570.7</ele><time>2020-10-25T18:40:35.000Z</time></trkpt>
   <trkpt lat="19.245562" lon="-99.331790"><ele>3571.2</ele><time>2020-10-25T18:40:54.000Z</time></trkpt>
   <trkpt lat="19.246663" lon="-99.332556"><ele>3566.0</ele><time>2020-10-25T18:41:34.000Z</time></trkpt>
   <trkpt lat="19.247507" lon="-99.332892"><ele>3560.8</ele><time>2020-10-25T18:42:02.000Z</time></trkpt>
   <trkpt lat="19.248083" lon="-99.333083"><ele>3559.3</ele><time>2020-10-25T18:42:19.000Z</time></trkpt>
   <trkpt lat="19.248965" lon="-99.333240"><ele>3565.1</ele><time>2020-10-25T18:42:57.000Z</time></trkpt>
   <trkpt lat="19.249707" lon="-99.333170"><ele>3571.1</ele><time>2020-10-25T18:43:45.000Z</time></trkpt>
   <trkpt lat="19.250585" lon="-99.332908"><ele>3578.4</ele><time>2020-10-25T18:44:39.000Z</time></trkpt>
   <trkpt lat="19.250993" lon="-99.332957"><ele>3581.7</ele><time>2020-10-25T18:45:14.000Z</time></trkpt>
   <trkpt lat="19.251890" lon="-99.333267"><ele>3589.3</ele><time>2020-10-25T18:47:11.000Z</time></trkpt>
   <trkpt lat="19.254237" lon="-99.334807"><ele>3611.7</ele><time>2020-10-25T18:51:02.000Z</time></trkpt>
   <trkpt lat="19.254636" lon="-99.334952"><ele>3615.0</ele><time>2020-10-25T18:51:28.000Z</time></trkpt>
   <trkpt lat="19.255272" lon="-99.335052"><ele>3620.2</ele><time>2020-10-25T18:52:16.000Z</time></trkpt>
   <trkpt lat="19.255549" lon="-99.334984"><ele>3622.5</ele><time>2020-10-25T18:52:26.000Z</time></trkpt>
   <trkpt lat="19.255995" lon="-99.335076"><ele>3626.2</ele><time>2020-10-25T18:52:52.000Z</time></trkpt>
   <trkpt lat="19.257879" lon="-99.334965"><ele>3636.6</ele><time>2020-10-25T18:54:19.000Z</time></trkpt>
   <trkpt lat="19.259962" lon="-99.334179"><ele>3646.6</ele><time>2020-10-25T18:56:03.000Z</time></trkpt>
   <trkpt lat="19.260706" lon="-99.334046"><ele>3648.5</ele><time>2020-10-25T18:56:39.000Z</time></trkpt>
   <trkpt lat="19.261273" lon="-99.333706"><ele>3650.2</ele><time>2020-10-25T18:57:30.000Z</time></trkpt>
   <trkpt lat="19.261432" lon="-99.333098"><ele>3645.2</ele><time>2020-10-25T18:57:55.000Z</time></trkpt>
   <trkpt lat="19.261454" lon="-99.332429"><ele>3637.7</ele><time>2020-10-25T18:58:19.000Z</time></trkpt>
   <trkpt lat="19.261763" lon="-99.332044"><ele>3632.7</ele><time>2020-10-25T18:58:40.000Z</time></trkpt>
   <trkpt lat="19.261797" lon="-99.331756"><ele>3630.6</ele><time>2020-10-25T18:58:51.000Z</time></trkpt>
   <trkpt lat="19.262073" lon="-99.331076"><ele>3627.4</ele><time>2020-10-25T18:59:12.000Z</time></trkpt>
   <trkpt lat="19.262593" lon="-99.330013"><ele>3624.0</ele><time>2020-10-25T18:59:41.000Z</time></trkpt>
   <trkpt lat="19.263166" lon="-99.329126"><ele>3623.2</ele><time>2020-10-25T19:00:09.000Z</time></trkpt>
   <trkpt lat="19.263613" lon="-99.328613"><ele>3622.7</ele><time>2020-10-25T19:00:30.000Z</time></trkpt>
   <trkpt lat="19.263296" lon="-99.330057"><ele>3604.0</ele><time>2020-10-25T19:02:24.000Z</time></trkpt>
   <trkpt lat="19.263223" lon="-99.331482"><ele>3584.1</ele><time>2020-10-25T19:04:35.000Z</time></trkpt>
   <trkpt lat="19.263374" lon="-99.331480"><ele>3581.6</ele><time>2020-10-25T19:04:46.000Z</time></trkpt>
   <trkpt lat="19.263749" lon="-99.331216"><ele>3575.6</ele><time>2020-10-25T19:05:00.000Z</time></trkpt>
   <trkpt lat="19.263957" lon="-99.331186"><ele>3573.8</ele><time>2020-10-25T19:05:06.000Z</time></trkpt>
   <trkpt lat="19.264316" lon="-99.331289"><ele>3570.3</ele><time>2020-10-25T19:05:16.000Z</time></trkpt>
   <trkpt lat="19.264611" lon="-99.331523"><ele>3565.6</ele><time>2020-10-25T19:05:32.000Z</time></trkpt>
   <trkpt lat="19.265136" lon="-99.331561"><ele>3559.9</ele><time>2020-10-25T19:05:46.000Z</time></trkpt>
   <trkpt lat="19.265481" lon="-99.331429"><ele>3556.8</ele><time>2020-10-25T19:05:55.000Z</time></trkpt>
   <trkpt lat="19.265832" lon="-99.331090"><ele>3551.2</ele><time>2020-10-25T19:06:09.000Z</time></trkpt>
   <trkpt lat="19.266261" lon="-99.331055"><ele>3544.1</ele><time>2020-10-25T19:06:32.000Z</time></trkpt>
   <trkpt lat="19.266387" lon="-99.331088"><ele>3541.9</ele><time>2020-10-25T19:07:49.000Z</time></trkpt>
   <trkpt lat="19.266271" lon="-99.331401"><ele>3537.3</ele><time>2020-10-25T19:08:04.000Z</time></trkpt>
   <trkpt lat="19.266347" lon="-99.331528"><ele>3535.3</ele><time>2020-10-25T19:08:16.000Z</time></trkpt>
   <trkpt lat="19.267491" lon="-99.331063"><ele>3518.2</ele><time>2020-10-25T19:08:55.000Z</time></trkpt>
   <trkpt lat="19.268003" lon="-99.330998"><ele>3511.3</ele><time>2020-10-25T19:09:41.000Z</time></trkpt>
   <trkpt lat="19.268630" lon="-99.330679"><ele>3502.6</ele><time>2020-10-25T19:10:02.000Z</time></trkpt>
   <trkpt lat="19.268892" lon="-99.330623"><ele>3499.5</ele><time>2020-10-25T19:10:11.000Z</time></trkpt>
   <trkpt lat="19.269256" lon="-99.330373"><ele>3494.7</ele><time>2020-10-25T19:10:29.000Z</time></trkpt>
   <trkpt lat="19.269716" lon="-99.330231"><ele>3490.0</ele><time>2020-10-25T19:10:44.000Z</time></trkpt>
   <trkpt lat="19.270184" lon="-99.329738"><ele>3484.9</ele><time>2020-10-25T19:11:00.000Z</time></trkpt>
   <trkpt lat="19.270777" lon="-99.329297"><ele>3476.0</ele><time>2020-10-25T19:11:26.000Z</time></trkpt>
   <trkpt lat="19.271281" lon="-99.329143"><ele>3469.6</ele><time>2020-10-25T19:11:39.000Z</time></trkpt>
   <trkpt lat="19.272751" lon="-99.329213"><ele>3448.2</ele><time>2020-10-25T19:12:36.000Z</time></trkpt>
   <trkpt lat="19.273126" lon="-99.329330"><ele>3440.1</ele><time>2020-10-25T19:12:54.000Z</time></trkpt>
   <trkpt lat="19.273773" lon="-99.329347"><ele>3427.8</ele><time>2020-10-25T19:13:13.000Z</time></trkpt>
   <trkpt lat="19.274185" lon="-99.329445"><ele>3423.0</ele><time>2020-10-25T19:13:25.000Z</time></trkpt>
   <trkpt lat="19.275430" lon="-99.329258"><ele>3414.9</ele><time>2020-10-25T19:13:55.000Z</time></trkpt>
   <trkpt lat="19.275573" lon="-99.329379"><ele>3413.4</ele><time>2020-10-25T19:14:01.000Z</time></trkpt>
   <trkpt lat="19.276286" lon="-99.329652"><ele>3404.4</ele><time>2020-10-25T19:14:34.000Z</time></trkpt>
   <trkpt lat="19.276560" lon="-99.329595"><ele>3402.1</ele><time>2020-10-25T19:14:42.000Z</time></trkpt>
   <trkpt lat="19.276817" lon="-99.329657"><ele>3399.8</ele><time>2020-10-25T19:14:50.000Z</time></trkpt>
   <trkpt lat="19.277161" lon="-99.329482"><ele>3396.8</ele><time>2020-10-25T19:15:00.000Z</time></trkpt>
   <trkpt lat="19.277646" lon="-99.329403"><ele>3392.3</ele><time>2020-10-25T19:15:14.000Z</time></trkpt>
   <trkpt lat="19.277872" lon="-99.329497"><ele>3390.0</ele><time>2020-10-25T19:15:22.000Z</time></trkpt>
   <trkpt lat="19.278474" lon="-99.329545"><ele>3384.6</ele><time>2020-10-25T19:15:39.000Z</time></trkpt>
   <trkpt lat="19.279585" lon="-99.329874"><ele>3375.3</ele><time>2020-10-25T19:16:09.000Z</time></trkpt>
   <trkpt lat="19.280036" lon="-99.329887"><ele>3373.5</ele><time>2020-10-25T19:16:25.000Z</time></trkpt>
   <trkpt lat="19.280948" lon="-99.330160"><ele>3364.1</ele><time>2020-10-25T19:16:55.000Z</time></trkpt>
   <trkpt lat="19.281562" lon="-99.330538"><ele>3354.6</ele><time>2020-10-25T19:17:20.000Z</time></trkpt>
   <trkpt lat="19.282715" lon="-99.330857"><ele>3342.7</ele><time>2020-10-25T19:18:07.000Z</time></trkpt>
   <trkpt lat="19.283574" lon="-99.331553"><ele>3331.2</ele><time>2020-10-25T19:18:39.000Z</time></trkpt>
   <trkpt lat="19.284106" lon="-99.331737"><ele>3325.4</ele><time>2020-10-25T19:18:54.000Z</time></trkpt>
   <trkpt lat="19.284902" lon="-99.332292"><ele>3316.2</ele><time>2020-10-25T19:20:47.000Z</time></trkpt>
   <trkpt lat="19.284887" lon="-99.332385"><ele>3316.3</ele><time>2020-10-25T19:20:56.000Z</time></trkpt>
   <trkpt lat="19.285583" lon="-99.332238"><ele>3314.7</ele><time>2020-10-25T19:21:20.000Z</time></trkpt>
   <trkpt lat="19.285969" lon="-99.332561"><ele>3310.6</ele><time>2020-10-25T19:21:33.000Z</time></trkpt>
   <trkpt lat="19.286449" lon="-99.332521"><ele>3306.8</ele><time>2020-10-25T19:21:42.000Z</time></trkpt>
   <trkpt lat="19.287040" lon="-99.332795"><ele>3296.8</ele><time>2020-10-25T19:22:05.000Z</time></trkpt>
   <trkpt lat="19.287486" lon="-99.332686"><ele>3290.9</ele><time>2020-10-25T19:22:18.000Z</time></trkpt>
   <trkpt lat="19.288318" lon="-99.333034"><ele>3285.2</ele><time>2020-10-25T19:22:43.000Z</time></trkpt>
   <trkpt lat="19.288635" lon="-99.333274"><ele>3281.1</ele><time>2020-10-25T19:22:55.000Z</time></trkpt>
   <trkpt lat="19.289104" lon="-99.333298"><ele>3277.2</ele><time>2020-10-25T19:23:11.000Z</time></trkpt>
   <trkpt lat="19.289459" lon="-99.333461"><ele>3276.0</ele><time>2020-10-25T19:23:20.000Z</time></trkpt>
   <trkpt lat="19.289725" lon="-99.333452"><ele>3275.7</ele><time>2020-10-25T19:23:28.000Z</time></trkpt>
   <trkpt lat="19.290145" lon="-99.333234"><ele>3276.1</ele><time>2020-10-25T19:23:47.000Z</time></trkpt>
   <trkpt lat="19.290723" lon="-99.333361"><ele>3272.4</ele><time>2020-10-25T19:24:13.000Z</time></trkpt>
   <trkpt lat="19.291463" lon="-99.333067"><ele>3264.9</ele><time>2020-10-25T19:24:39.000Z</time></trkpt>
   <trkpt lat="19.291803" lon="-99.332603"><ele>3260.7</ele><time>2020-10-25T19:24:54.000Z</time></trkpt>
   <trkpt lat="19.292618" lon="-99.332551"><ele>3249.7</ele><time>2020-10-25T19:25:19.000Z</time></trkpt>
   <trkpt lat="19.293378" lon="-99.332084"><ele>3245.4</ele><time>2020-10-25T19:25:48.000Z</time></trkpt>
   <trkpt lat="19.294470" lon="-99.331739"><ele>3233.6</ele><time>2020-10-25T19:34:00.000Z</time></trkpt>
   <trkpt lat="19.294366" lon="-99.331715"><ele>3233.1</ele><time>2020-10-25T19:34:05.000Z</time></trkpt>
   <trkpt lat="19.294419" lon="-99.331601"><ele>3232.6</ele><time>2020-10-25T19:34:11.000Z</time></trkpt>
   <trkpt lat="19.294917" lon="-99.331283"><ele>3229.9</ele><time>2020-10-25T19:34:21.000Z</time></trkpt>
   <trkpt lat="19.295105" lon="-99.331260"><ele>3229.0</ele><time>2020-10-25T19:34:31.000Z</time></trkpt>
   <trkpt lat="19.295215" lon="-99.330816"><ele>3227.3</ele><time>2020-10-25T19:34:55.000Z</time></trkpt>
   <trkpt lat="19.295215" lon="-99.330911"><ele>3226.9</ele><time>2020-10-25T19:35:30.000Z</time></trkpt>
   <trkpt lat="19.295632" lon="-99.330659"><ele>3225.2</ele><time>2020-10-25T19:35:36.000Z</time></trkpt>
   <trkpt lat="19.295506" lon="-99.330796"><ele>3224.8</ele><time>2020-10-25T19:35:39.000Z</time></trkpt>
   <trkpt lat="19.295812" lon="-99.330638"><ele>3224.0</ele><time>2020-10-25T19:35:43.000Z</time></trkpt>
   <trkpt lat="19.296036" lon="-99.330413"><ele>3222.6</ele><time>2020-10-25T19:35:52.000Z</time></trkpt>
   <trkpt lat="19.296254" lon="-99.330362"><ele>3220.9</ele><time>2020-10-25T19:36:02.000Z</time></trkpt>
   <trkpt lat="19.296661" lon="-99.330061"><ele>3216.0</ele><time>2020-10-25T19:36:09.000Z</time></trkpt>
   <trkpt lat="19.296908" lon="-99.329730"><ele>3212.4</ele><time>2020-10-25T19:36:18.000Z</time></trkpt>
   <trkpt lat="19.297334" lon="-99.329839"><ele>3208.8</ele><time>2020-10-25T19:36:31.000Z</time></trkpt>
   <trkpt lat="19.297727" lon="-99.329751"><ele>3206.0</ele><time>2020-10-25T19:36:44.000Z</time></trkpt>
   <trkpt lat="19.298466" lon="-99.329933"><ele>3201.1</ele><time>2020-10-25T19:36:59.000Z</time></trkpt>
   <trkpt lat="19.298992" lon="-99.329894"><ele>3197.5</ele><time>2020-10-25T19:37:15.000Z</time></trkpt>
   <trkpt lat="19.298956" lon="-99.329967"><ele>3197.0</ele><time>2020-10-25T19:37:19.000Z</time></trkpt>
   <trkpt lat="19.299037" lon="-99.329975"><ele>3196.5</ele><time>2020-10-25T19:37:22.000Z</time></trkpt>
   <trkpt lat="19.299323" lon="-99.329847"><ele>3195.2</ele><time>2020-10-25T19:37:27.000Z</time></trkpt>
   <trkpt lat="19.299275" lon="-99.329793"><ele>3195.0</ele><time>2020-10-25T19:37:30.000Z</time></trkpt>
   <trkpt lat="19.299784" lon="-99.329798"><ele>3193.1</ele><time>2020-10-25T19:37:36.000Z</time></trkpt>
   <trkpt lat="19.300300" lon="-99.329625"><ele>3189.4</ele><time>2020-10-25T19:37:48.000Z</time></trkpt>
   <trkpt lat="19.300835" lon="-99.329112"><ele>3181.9</ele><time>2020-10-25T19:38:13.000Z</time></trkpt>
   <trkpt lat="19.301464" lon="-99.329126"><ele>3176.8</ele><time>2020-10-25T19:38:28.000Z</time></trkpt>
   <trkpt lat="19.301683" lon="-99.329302"><ele>3174.5</ele><time>2020-10-25T19:38:38.000Z</time></trkpt>
   <trkpt lat="19.302119" lon="-99.329125"><ele>3171.5</ele><time>2020-10-25T19:38:56.000Z</time></trkpt>
   <trkpt lat="19.302651" lon="-99.329241"><ele>3170.3</ele><time>2020-10-25T19:39:16.000Z</time></trkpt>
   <trkpt lat="19.302472" lon="-99.329221"><ele>3170.1</ele><time>2020-10-25T19:39:19.000Z</time></trkpt>
   <trkpt lat="19.302723" lon="-99.329074"><ele>3169.8</ele><time>2020-10-25T19:39:31.000Z</time></trkpt>
   <trkpt lat="19.303308" lon="-99.329019"><ele>3168.0</ele><time>2020-10-25T19:39:44.000Z</time></trkpt>
   <trkpt lat="19.303840" lon="-99.328729"><ele>3172.8</ele><time>2020-10-25T19:39:55.000Z</time></trkpt>
   <trkpt lat="19.303854" lon="-99.328783"><ele>3172.8</ele><time>2020-10-25T19:39:58.000Z</time></trkpt>
   <trkpt lat="19.303795" lon="-99.327781"><ele>3171.3</ele><time>2020-10-25T19:40:17.000Z</time></trkpt>
   <trkpt lat="19.303741" lon="-99.327802"><ele>3171.2</ele><time>2020-10-25T19:40:22.000Z</time></trkpt>
   <trkpt lat="19.303956" lon="-99.327480"><ele>3170.8</ele><time>2020-10-25T19:40:38.000Z</time></trkpt>
   <trkpt lat="19.303826" lon="-99.326968"><ele>3178.0</ele><time>2020-10-25T19:41:02.000Z</time></trkpt>
   <trkpt lat="19.304002" lon="-99.325943"><ele>3168.1</ele><time>2020-10-25T19:41:27.000Z</time></trkpt>
   <trkpt lat="19.303997" lon="-99.325568"><ele>3171.2</ele><time>2020-10-25T19:41:35.000Z</time></trkpt>
   <trkpt lat="19.304328" lon="-99.325442"><ele>3172.5</ele><time>2020-10-25T19:41:49.000Z</time></trkpt>
   <trkpt lat="19.305089" lon="-99.325442"><ele>3175.4</ele><time>2020-10-25T19:42:26.000Z</time></trkpt>
   <trkpt lat="19.305439" lon="-99.325299"><ele>3175.0</ele><time>2020-10-25T19:42:31.000Z</time></trkpt>
   <trkpt lat="19.306147" lon="-99.325223"><ele>3174.7</ele><time>2020-10-25T19:42:53.000Z</time></trkpt>
   <trkpt lat="19.307413" lon="-99.324753"><ele>3175.9</ele><time>2020-10-25T19:43:30.000Z</time></trkpt>
   <trkpt lat="19.307855" lon="-99.324160"><ele>3173.6</ele><time>2020-10-25T19:44:09.000Z</time></trkpt>
   <trkpt lat="19.307775" lon="-99.324143"><ele>3173.3</ele><time>2020-10-25T19:44:17.000Z</time></trkpt>
   <trkpt lat="19.307855" lon="-99.323795"><ele>3165.8</ele><time>2020-10-25T19:44:32.000Z</time></trkpt>
   <trkpt lat="19.307720" lon="-99.323273"><ele>3166.8</ele><time>2020-10-25T19:44:42.000Z</time></trkpt>
   <trkpt lat="19.307567" lon="-99.322905"><ele>3162.7</ele><time>2020-10-25T19:44:48.000Z</time></trkpt>
   <trkpt lat="19.306659" lon="-99.321776"><ele>3147.2</ele><time>2020-10-25T19:45:35.000Z</time></trkpt>
   <trkpt lat="19.306340" lon="-99.321616"><ele>3143.9</ele><time>2020-10-25T19:45:44.000Z</time></trkpt>
   <trkpt lat="19.306055" lon="-99.321607"><ele>3141.4</ele><time>2020-10-25T19:45:52.000Z</time></trkpt>
   <trkpt lat="19.305647" lon="-99.321897"><ele>3136.5</ele><time>2020-10-25T19:46:09.000Z</time></trkpt>
   <trkpt lat="19.304798" lon="-99.321623"><ele>3127.6</ele><time>2020-10-25T19:46:32.000Z</time></trkpt>
   <trkpt lat="19.304059" lon="-99.321911"><ele>3127.0</ele><time>2020-10-25T19:47:23.000Z</time></trkpt>
   <trkpt lat="19.303245" lon="-99.321867"><ele>3129.0</ele><time>2020-10-25T19:47:52.000Z</time></trkpt>
   <trkpt lat="19.302575" lon="-99.322027"><ele>3130.5</ele><time>2020-10-25T19:48:09.000Z</time></trkpt>
   <trkpt lat="19.302065" lon="-99.321724"><ele>3131.2</ele><time>2020-10-25T19:48:32.000Z</time></trkpt>
   <trkpt lat="19.301598" lon="-99.321153"><ele>3132.3</ele><time>2020-10-25T19:49:21.000Z</time></trkpt>
   <trkpt lat="19.301928" lon="-99.320612"><ele>3128.3</ele><time>2020-10-25T19:50:02.000Z</time></trkpt>
   <trkpt lat="19.302579" lon="-99.320150"><ele>3123.2</ele><time>2020-10-25T19:50:25.000Z</time></trkpt>
   <trkpt lat="19.303004" lon="-99.319509"><ele>3117.2</ele><time>2020-10-25T19:51:07.000Z</time></trkpt>
   <trkpt lat="19.303122" lon="-99.319047"><ele>3111.8</ele><time>2020-10-25T19:52:39.000Z</time></trkpt>
   <trkpt lat="19.303474" lon="-99.318830"><ele>3107.6</ele><time>2020-10-25T19:53:06.000Z</time></trkpt>
   <trkpt lat="19.304376" lon="-99.317780"><ele>3096.1</ele><time>2020-10-25T19:54:00.000Z</time></trkpt>
   <trkpt lat="19.305896" lon="-99.316698"><ele>3088.5</ele><time>2020-10-25T19:54:53.000Z</time></trkpt>
   <trkpt lat="19.306414" lon="-99.316190"><ele>3084.1</ele><time>2020-10-25T19:55:34.000Z</time></trkpt>
   <trkpt lat="19.307312" lon="-99.316109"><ele>3069.9</ele><time>2020-10-25T19:56:11.000Z</time></trkpt>
   <trkpt lat="19.307532" lon="-99.315988"><ele>3065.5</ele><time>2020-10-25T19:56:23.000Z</time></trkpt>
   <trkpt lat="19.307835" lon="-99.315550"><ele>3058.5</ele><time>2020-10-25T19:57:37.000Z</time></trkpt>
   <trkpt lat="19.308787" lon="-99.315031"><ele>3051.0</ele><time>2020-10-25T19:58:15.000Z</time></trkpt>
   <trkpt lat="19.309179" lon="-99.314554"><ele>3045.0</ele><time>2020-10-25T19:58:42.000Z</time></trkpt>
   <trkpt lat="19.309998" lon="-99.314152"><ele>3033.7</ele><time>2020-10-25T19:59:33.000Z</time></trkpt>
   <trkpt lat="19.311959" lon="-99.312566"><ele>3005.0</ele><time>2020-10-25T20:00:52.000Z</time></trkpt>
   <trkpt lat="19.312469" lon="-99.311674"><ele>2996.1</ele><time>2020-10-25T20:01:40.000Z</time></trkpt>
   <trkpt lat="19.312351" lon="-99.311378"><ele>2996.7</ele><time>2020-10-25T20:02:23.000Z</time></trkpt>
   <trkpt lat="19.312052" lon="-99.311217"><ele>2997.0</ele><time>2020-10-25T20:04:20.000Z</time></trkpt>
   <trkpt lat="19.312041" lon="-99.311325"><ele>2997.0</ele><time>2020-10-25T20:11:43.000Z</time></trkpt>
   <trkpt lat="19.312082" lon="-99.311246"><ele>2996.3</ele><time>2020-10-25T20:38:57.000Z</time></trkpt>
   <trkpt lat="19.312234" lon="-99.311221"><ele>2996.0</ele><time>2020-10-25T20:39:42.000Z</time></trkpt>
   <trkpt lat="19.312673" lon="-99.311317"><ele>2990.8</ele><time>2020-10-25T20:40:00.000Z</time></trkpt>
   <trkpt lat="19.312734" lon="-99.311699"><ele>2991.2</ele><time>2020-10-25T20:40:17.000Z</time></trkpt>
   <trkpt lat="19.311391" lon="-99.313170"><ele>2994.6</ele><time>2020-10-25T20:41:09.000Z</time></trkpt>
   <trkpt lat="19.311317" lon="-99.313360"><ele>2994.9</ele><time>2020-10-25T20:41:13.000Z</time></trkpt>
   <trkpt lat="19.311488" lon="-99.313860"><ele>2995.3</ele><time>2020-10-25T20:41:27.000Z</time></trkpt>
   <trkpt lat="19.311222" lon="-99.314070"><ele>2994.6</ele><time>2020-10-25T20:41:32.000Z</time></trkpt>
   <trkpt lat="19.311125" lon="-99.314247"><ele>2994.5</ele><time>2020-10-25T20:41:35.000Z</time></trkpt>
   <trkpt lat="19.311163" lon="-99.314756"><ele>2994.2</ele><time>2020-10-25T20:41:43.000Z</time></trkpt>
   <trkpt lat="19.311005" lon="-99.315102"><ele>2994.0</ele><time>2020-10-25T20:41:49.000Z</time></trkpt>
   <trkpt lat="19.309009" lon="-99.317196"><ele>2995.1</ele><time>2020-10-25T20:42:38.000Z</time></trkpt>
   <trkpt lat="19.308998" lon="-99.317294"><ele>2995.1</ele><time>2020-10-25T20:42:40.000Z</time></trkpt>
   <trkpt lat="19.309108" lon="-99.317380"><ele>2995.2</ele><time>2020-10-25T20:42:46.000Z</time></trkpt>
   <trkpt lat="19.309646" lon="-99.317516"><ele>2998.0</ele><time>2020-10-25T20:43:08.000Z</time></trkpt>
   <trkpt lat="19.310604" lon="-99.317361"><ele>2998.0</ele><time>2020-10-25T20:43:19.000Z</time></trkpt>
   <trkpt lat="19.311655" lon="-99.316913"><ele>2998.8</ele><time>2020-10-25T20:43:40.000Z</time></trkpt>
   <trkpt lat="19.312863" lon="-99.316294"><ele>3003.8</ele><time>2020-10-25T20:44:19.000Z</time></trkpt>
   <trkpt lat="19.313268" lon="-99.316034"><ele>3003.8</ele><time>2020-10-25T20:44:23.000Z</time></trkpt>
   <trkpt lat="19.313580" lon="-99.315702"><ele>3004.2</ele><time>2020-10-25T20:44:30.000Z</time></trkpt>
   <trkpt lat="19.313494" lon="-99.315708"><ele>3004.3</ele><time>2020-10-25T20:44:38.000Z</time></trkpt>
   <trkpt lat="19.313966" lon="-99.315462"><ele>3004.1</ele><time>2020-10-25T20:44:43.000Z</time></trkpt>
   <trkpt lat="19.314430" lon="-99.315347"><ele>3003.6</ele><time>2020-10-25T20:44:49.000Z</time></trkpt>
   <trkpt lat="19.315062" lon="-99.315382"><ele>3002.6</ele><time>2020-10-25T20:44:59.000Z</time></trkpt>
   <trkpt lat="19.315249" lon="-99.315225"><ele>3001.9</ele><time>2020-10-25T20:45:02.000Z</time></trkpt>
   <trkpt lat="19.315581" lon="-99.314410"><ele>2998.1</ele><time>2020-10-25T20:45:09.000Z</time></trkpt>
   <trkpt lat="19.315951" lon="-99.313765"><ele>2995.3</ele><time>2020-10-25T20:45:18.000Z</time></trkpt>
   <trkpt lat="19.316545" lon="-99.313646"><ele>2993.9</ele><time>2020-10-25T20:45:27.000Z</time></trkpt>
   <trkpt lat="19.316710" lon="-99.313731"><ele>2993.6</ele><time>2020-10-25T20:45:29.000Z</time></trkpt>
   <trkpt lat="19.316970" lon="-99.314070"><ele>2993.3</ele><time>2020-10-25T20:45:33.000Z</time></trkpt>
   <trkpt lat="19.317493" lon="-99.314237"><ele>2993.0</ele><time>2020-10-25T20:45:41.000Z</time></trkpt>
   <trkpt lat="19.318112" lon="-99.314122"><ele>2992.9</ele><time>2020-10-25T20:45:54.000Z</time></trkpt>
   <trkpt lat="19.318607" lon="-99.313845"><ele>2993.0</ele><time>2020-10-25T20:46:04.000Z</time></trkpt>
   <trkpt lat="19.319248" lon="-99.313682"><ele>2992.9</ele><time>2020-10-25T20:46:17.000Z</time></trkpt>
   <trkpt lat="19.319153" lon="-99.313669"><ele>2992.9</ele><time>2020-10-25T20:46:21.000Z</time></trkpt>
   <trkpt lat="19.319232" lon="-99.313540"><ele>2993.0</ele><time>2020-10-25T20:46:29.000Z</time></trkpt>
   <trkpt lat="19.319851" lon="-99.313236"><ele>2993.0</ele><time>2020-10-25T20:46:37.000Z</time></trkpt>
   <trkpt lat="19.320342" lon="-99.312858"><ele>2992.5</ele><time>2020-10-25T20:46:45.000Z</time></trkpt>
   <trkpt lat="19.320912" lon="-99.312783"><ele>2991.9</ele><time>2020-10-25T20:46:56.000Z</time></trkpt>
   <trkpt lat="19.321729" lon="-99.312417"><ele>2988.5</ele><time>2020-10-25T20:47:11.000Z</time></trkpt>
   <trkpt lat="19.322065" lon="-99.312208"><ele>2986.4</ele><time>2020-10-25T20:47:17.000Z</time></trkpt>
   <trkpt lat="19.322086" lon="-99.312126"><ele>2986.0</ele><time>2020-10-25T20:47:19.000Z</time></trkpt>
   <trkpt lat="19.322011" lon="-99.312100"><ele>2985.2</ele><time>2020-10-25T20:47:39.000Z</time></trkpt>
   <trkpt lat="19.322077" lon="-99.312092"><ele>2984.6</ele><time>2020-10-25T20:48:43.000Z</time></trkpt>
   <trkpt lat="19.321996" lon="-99.312109"><ele>2983.8</ele><time>2020-10-25T20:50:37.000Z</time></trkpt>
  </trkseg>
 </trk>
</gpx>
