<?xml version="1.0" encoding="UTF-8"?>
<gpx version="1.1" creator="Strava (via strava-mcp)" xmlns="http://www.topografix.com/GPX/1/1">
 <metadata><name>Nevado de Toluca</name><time>2018-11-18T14:09:57.000Z</time></metadata>
 <trk>
  <name>Nevado de Toluca</name>
  <type>Hike</type>
  <trkseg>
   <trkpt lat="19.131396" lon="-99.789884"><ele>3732.2</ele><time>2018-11-18T14:09:57.000Z</time></trkpt>
   <trkpt lat="19.130931" lon="-99.788996"><ele>3746.8</ele><time>2018-11-18T14:11:54.000Z</time></trkpt>
   <trkpt lat="19.130752" lon="-99.788851"><ele>3749.5</ele><time>2018-11-18T14:12:12.000Z</time></trkpt>
   <trkpt lat="19.130630" lon="-99.788071"><ele>3762.1</ele><time>2018-11-18T14:13:41.000Z</time></trkpt>
   <trkpt lat="19.129739" lon="-99.785311"><ele>3803.9</ele><time>2018-11-18T14:19:05.000Z</time></trkpt>
   <trkpt lat="19.129700" lon="-99.784285"><ele>3817.6</ele><time>2018-11-18T14:20:56.000Z</time></trkpt>
   <trkpt lat="19.129775" lon="-99.784145"><ele>3819.9</ele><time>2018-11-18T14:21:16.000Z</time></trkpt>
   <trkpt lat="19.129548" lon="-99.784078"><ele>3822.7</ele><time>2018-11-18T14:21:47.000Z</time></trkpt>
   <trkpt lat="19.129326" lon="-99.784377"><ele>3828.3</ele><time>2018-11-18T14:22:47.000Z</time></trkpt>
   <trkpt lat="19.129398" lon="-99.783757"><ele>3840.2</ele><time>2018-11-18T14:24:16.000Z</time></trkpt>
   <trkpt lat="19.128589" lon="-99.782572"><ele>3870.9</ele><time>2018-11-18T14:28:09.000Z</time></trkpt>
   <trkpt lat="19.128183" lon="-99.781668"><ele>3895.8</ele><time>2018-11-18T14:32:23.000Z</time></trkpt>
   <trkpt lat="19.128248" lon="-99.781650"><ele>3897.8</ele><time>2018-11-18T14:32:31.000Z</time></trkpt>
   <trkpt lat="19.127639" lon="-99.780811"><ele>3924.5</ele><time>2018-11-18T14:38:49.000Z</time></trkpt>
   <trkpt lat="19.127873" lon="-99.780961"><ele>3920.0</ele><time>2018-11-18T14:38:52.000Z</time></trkpt>
   <trkpt lat="19.127880" lon="-99.781048"><ele>3920.0</ele><time>2018-11-18T14:39:05.000Z</time></trkpt>
   <trkpt lat="19.125833" lon="-99.780967"><ele>3934.5</ele><time>2018-11-18T14:43:02.000Z</time></trkpt>
   <trkpt lat="19.125798" lon="-99.780880"><ele>3935.2</ele><time>2018-11-18T14:43:09.000Z</time></trkpt>
   <trkpt lat="19.125458" lon="-99.781022"><ele>3938.7</ele><time>2018-11-18T14:43:45.000Z</time></trkpt>
   <trkpt lat="19.124370" lon="-99.780507"><ele>3944.1</ele><time>2018-11-18T14:49:09.000Z</time></trkpt>
   <trkpt lat="19.124563" lon="-99.780483"><ele>3946.1</ele><time>2018-11-18T14:49:26.000Z</time></trkpt>
   <trkpt lat="19.125789" lon="-99.779728"><ele>3959.6</ele><time>2018-11-18T14:51:55.000Z</time></trkpt>
   <trkpt lat="19.125792" lon="-99.779546"><ele>3962.0</ele><time>2018-11-18T14:52:23.000Z</time></trkpt>
   <trkpt lat="19.125593" lon="-99.779183"><ele>3965.7</ele><time>2018-11-18T14:53:26.000Z</time></trkpt>
   <trkpt lat="19.123005" lon="-99.779220"><ele>3988.2</ele><time>2018-11-18T15:02:08.000Z</time></trkpt>
   <trkpt lat="19.123054" lon="-99.779285"><ele>3989.0</ele><time>2018-11-18T15:02:11.000Z</time></trkpt>
   <trkpt lat="19.122226" lon="-99.779745"><ele>3997.0</ele><time>2018-11-18T15:03:50.000Z</time></trkpt>
   <trkpt lat="19.121524" lon="-99.779904"><ele>4003.2</ele><time>2018-11-18T15:05:39.000Z</time></trkpt>
   <trkpt lat="19.121558" lon="-99.779973"><ele>4003.8</ele><time>2018-11-18T15:05:48.000Z</time></trkpt>
   <trkpt lat="19.121311" lon="-99.780170"><ele>4006.5</ele><time>2018-11-18T15:06:18.000Z</time></trkpt>
   <trkpt lat="19.120927" lon="-99.780200"><ele>4007.8</ele><time>2018-11-18T15:07:17.000Z</time></trkpt>
   <trkpt lat="19.121156" lon="-99.780335"><ele>4003.0</ele><time>2018-11-18T15:14:37.000Z</time></trkpt>
   <trkpt lat="19.120890" lon="-99.780556"><ele>4001.2</ele><time>2018-11-18T15:15:30.000Z</time></trkpt>
   <trkpt lat="19.120870" lon="-99.781114"><ele>4000.6</ele><time>2018-11-18T15:16:05.000Z</time></trkpt>
   <trkpt lat="19.120241" lon="-99.781949"><ele>3993.7</ele><time>2018-11-18T15:17:45.000Z</time></trkpt>
   <trkpt lat="19.120329" lon="-99.781958"><ele>3995.0</ele><time>2018-11-18T15:17:55.000Z</time></trkpt>
   <trkpt lat="19.118531" lon="-99.783292"><ele>3982.7</ele><time>2018-11-18T15:21:16.000Z</time></trkpt>
   <trkpt lat="19.118818" lon="-99.783132"><ele>3983.2</ele><time>2018-11-18T15:21:19.000Z</time></trkpt>
   <trkpt lat="19.118989" lon="-99.783297"><ele>3984.5</ele><time>2018-11-18T15:21:57.000Z</time></trkpt>
   <trkpt lat="19.119247" lon="-99.784520"><ele>3972.9</ele><time>2018-11-18T15:23:37.000Z</time></trkpt>
   <trkpt lat="19.119075" lon="-99.784458"><ele>3975.0</ele><time>2018-11-18T15:23:45.000Z</time></trkpt>
   <trkpt lat="19.118313" lon="-99.784697"><ele>3975.9</ele><time>2018-11-18T15:24:53.000Z</time></trkpt>
   <trkpt lat="19.118224" lon="-99.784901"><ele>3970.5</ele><time>2018-11-18T15:25:13.000Z</time></trkpt>
   <trkpt lat="19.118300" lon="-99.785212"><ele>3959.0</ele><time>2018-11-18T15:25:43.000Z</time></trkpt>
   <trkpt lat="19.117773" lon="-99.785443"><ele>3935.7</ele><time>2018-11-18T15:26:48.000Z</time></trkpt>
   <trkpt lat="19.117835" lon="-99.785325"><ele>3939.9</ele><time>2018-11-18T15:26:56.000Z</time></trkpt>
   <trkpt lat="19.117746" lon="-99.785226"><ele>3941.5</ele><time>2018-11-18T15:27:08.000Z</time></trkpt>
   <trkpt lat="19.117808" lon="-99.785359"><ele>3938.2</ele><time>2018-11-18T15:27:48.000Z</time></trkpt>
   <trkpt lat="19.117758" lon="-99.785469"><ele>3934.0</ele><time>2018-11-18T15:27:52.000Z</time></trkpt>
   <trkpt lat="19.117638" lon="-99.785603"><ele>3926.6</ele><time>2018-11-18T15:28:02.000Z</time></trkpt>
   <trkpt lat="19.117491" lon="-99.785617"><ele>3924.8</ele><time>2018-11-18T15:30:03.000Z</time></trkpt>
   <trkpt lat="19.117565" lon="-99.785812"><ele>3921.1</ele><time>2018-11-18T15:30:13.000Z</time></trkpt>
   <trkpt lat="19.117318" lon="-99.785804"><ele>3920.1</ele><time>2018-11-18T15:33:00.000Z</time></trkpt>
   <trkpt lat="19.117401" lon="-99.785789"><ele>3919.7</ele><time>2018-11-18T15:34:49.000Z</time></trkpt>
   <trkpt lat="19.117309" lon="-99.785541"><ele>3924.7</ele><time>2018-11-18T15:37:06.000Z</time></trkpt>
   <trkpt lat="19.117196" lon="-99.785550"><ele>3925.2</ele><time>2018-11-18T15:37:29.000Z</time></trkpt>
   <trkpt lat="19.117112" lon="-99.785717"><ele>3922.8</ele><time>2018-11-18T15:38:19.000Z</time></trkpt>
   <trkpt lat="19.117138" lon="-99.785565"><ele>3925.3</ele><time>2018-11-18T15:38:33.000Z</time></trkpt>
   <trkpt lat="19.117094" lon="-99.785638"><ele>3925.3</ele><time>2018-11-18T15:38:50.000Z</time></trkpt>
   <trkpt lat="19.117070" lon="-99.785547"><ele>3929.0</ele><time>2018-11-18T15:39:37.000Z</time></trkpt>
   <trkpt lat="19.116979" lon="-99.785616"><ele>3931.2</ele><time>2018-11-18T15:40:36.000Z</time></trkpt>
   <trkpt lat="19.116762" lon="-99.785529"><ele>3948.2</ele><time>2018-11-18T15:42:19.000Z</time></trkpt>
   <trkpt lat="19.116793" lon="-99.785370"><ele>3956.3</ele><time>2018-11-18T15:43:14.000Z</time></trkpt>
   <trkpt lat="19.116660" lon="-99.785036"><ele>3967.2</ele><time>2018-11-18T15:44:37.000Z</time></trkpt>
   <trkpt lat="19.115878" lon="-99.784218"><ele>3991.5</ele><time>2018-11-18T15:47:21.000Z</time></trkpt>
   <trkpt lat="19.115768" lon="-99.783990"><ele>3995.3</ele><time>2018-11-18T15:48:14.000Z</time></trkpt>
   <trkpt lat="19.115589" lon="-99.783887"><ele>3999.1</ele><time>2018-11-18T15:48:58.000Z</time></trkpt>
   <trkpt lat="19.115304" lon="-99.782979"><ele>4008.8</ele><time>2018-11-18T15:51:18.000Z</time></trkpt>
   <trkpt lat="19.114889" lon="-99.782257"><ele>4029.7</ele><time>2018-11-18T15:53:56.000Z</time></trkpt>
   <trkpt lat="19.114461" lon="-99.782183"><ele>4039.5</ele><time>2018-11-18T15:54:47.000Z</time></trkpt>
   <trkpt lat="19.114494" lon="-99.782086"><ele>4041.3</ele><time>2018-11-18T15:55:09.000Z</time></trkpt>
   <trkpt lat="19.114376" lon="-99.781852"><ele>4045.6</ele><time>2018-11-18T15:55:52.000Z</time></trkpt>
   <trkpt lat="19.113429" lon="-99.781161"><ele>4062.9</ele><time>2018-11-18T16:05:56.000Z</time></trkpt>
   <trkpt lat="19.112608" lon="-99.780419"><ele>4083.8</ele><time>2018-11-18T16:08:29.000Z</time></trkpt>
   <trkpt lat="19.112145" lon="-99.779780"><ele>4096.8</ele><time>2018-11-18T16:10:00.000Z</time></trkpt>
   <trkpt lat="19.111868" lon="-99.779668"><ele>4104.9</ele><time>2018-11-18T16:11:30.000Z</time></trkpt>
   <trkpt lat="19.111529" lon="-99.779130"><ele>4114.1</ele><time>2018-11-18T16:12:59.000Z</time></trkpt>
   <trkpt lat="19.111130" lon="-99.778801"><ele>4122.0</ele><time>2018-11-18T16:14:08.000Z</time></trkpt>
   <trkpt lat="19.110953" lon="-99.778746"><ele>4127.0</ele><time>2018-11-18T16:14:30.000Z</time></trkpt>
   <trkpt lat="19.110887" lon="-99.778610"><ele>4130.6</ele><time>2018-11-18T16:15:00.000Z</time></trkpt>
   <trkpt lat="19.110412" lon="-99.778258"><ele>4139.5</ele><time>2018-11-18T16:16:31.000Z</time></trkpt>
   <trkpt lat="19.109855" lon="-99.777448"><ele>4162.8</ele><time>2018-11-18T16:21:03.000Z</time></trkpt>
   <trkpt lat="19.109353" lon="-99.776977"><ele>4168.3</ele><time>2018-11-18T16:22:49.000Z</time></trkpt>
   <trkpt lat="19.108953" lon="-99.776882"><ele>4178.3</ele><time>2018-11-18T16:25:05.000Z</time></trkpt>
   <trkpt lat="19.108949" lon="-99.776956"><ele>4180.9</ele><time>2018-11-18T16:35:00.000Z</time></trkpt>
   <trkpt lat="19.108461" lon="-99.776785"><ele>4199.8</ele><time>2018-11-18T16:38:42.000Z</time></trkpt>
   <trkpt lat="19.107975" lon="-99.777027"><ele>4228.7</ele><time>2018-11-18T16:42:27.000Z</time></trkpt>
   <trkpt lat="19.107895" lon="-99.776993"><ele>4234.2</ele><time>2018-11-18T16:43:25.000Z</time></trkpt>
   <trkpt lat="19.107736" lon="-99.777127"><ele>4249.3</ele><time>2018-11-18T16:44:19.000Z</time></trkpt>
   <trkpt lat="19.107367" lon="-99.777198"><ele>4266.3</ele><time>2018-11-18T16:46:13.000Z</time></trkpt>
   <trkpt lat="19.107142" lon="-99.776638"><ele>4278.4</ele><time>2018-11-18T16:51:11.000Z</time></trkpt>
   <trkpt lat="19.106440" lon="-99.775988"><ele>4294.7</ele><time>2018-11-18T16:53:05.000Z</time></trkpt>
   <trkpt lat="19.105968" lon="-99.775386"><ele>4298.7</ele><time>2018-11-18T16:57:11.000Z</time></trkpt>
   <trkpt lat="19.105784" lon="-99.775292"><ele>4305.3</ele><time>2018-11-18T16:59:31.000Z</time></trkpt>
   <trkpt lat="19.105702" lon="-99.774825"><ele>4335.4</ele><time>2018-11-18T17:03:24.000Z</time></trkpt>
   <trkpt lat="19.105600" lon="-99.774844"><ele>4339.0</ele><time>2018-11-18T17:04:04.000Z</time></trkpt>
   <trkpt lat="19.105428" lon="-99.774606"><ele>4355.6</ele><time>2018-11-18T17:07:39.000Z</time></trkpt>
   <trkpt lat="19.105338" lon="-99.774183"><ele>4374.6</ele><time>2018-11-18T17:09:28.000Z</time></trkpt>
   <trkpt lat="19.105104" lon="-99.773718"><ele>4379.2</ele><time>2018-11-18T17:10:16.000Z</time></trkpt>
   <trkpt lat="19.105066" lon="-99.773792"><ele>4382.2</ele><time>2018-11-18T17:10:37.000Z</time></trkpt>
   <trkpt lat="19.104998" lon="-99.773664"><ele>4385.1</ele><time>2018-11-18T17:11:52.000Z</time></trkpt>
   <trkpt lat="19.104844" lon="-99.773610"><ele>4389.3</ele><time>2018-11-18T17:12:40.000Z</time></trkpt>
   <trkpt lat="19.104822" lon="-99.773368"><ele>4405.3</ele><time>2018-11-18T17:13:18.000Z</time></trkpt>
   <trkpt lat="19.104701" lon="-99.773267"><ele>4413.9</ele><time>2018-11-18T17:14:18.000Z</time></trkpt>
   <trkpt lat="19.104745" lon="-99.773186"><ele>4419.1</ele><time>2018-11-18T17:17:42.000Z</time></trkpt>
   <trkpt lat="19.104699" lon="-99.773341"><ele>4428.4</ele><time>2018-11-18T17:20:59.000Z</time></trkpt>
   <trkpt lat="19.104690" lon="-99.773146"><ele>4432.7</ele><time>2018-11-18T17:22:24.000Z</time></trkpt>
   <trkpt lat="19.104376" lon="-99.772710"><ele>4449.1</ele><time>2018-11-18T17:25:28.000Z</time></trkpt>
   <trkpt lat="19.104194" lon="-99.772150"><ele>4472.9</ele><time>2018-11-18T17:29:38.000Z</time></trkpt>
   <trkpt lat="19.103684" lon="-99.771582"><ele>4509.3</ele><time>2018-11-18T17:34:23.000Z</time></trkpt>
   <trkpt lat="19.103564" lon="-99.769687"><ele>4573.5</ele><time>2018-11-18T17:50:22.000Z</time></trkpt>
   <trkpt lat="19.103518" lon="-99.769300"><ele>4591.5</ele><time>2018-11-18T17:53:45.000Z</time></trkpt>
   <trkpt lat="19.103364" lon="-99.769095"><ele>4609.5</ele><time>2018-11-18T17:56:06.000Z</time></trkpt>
   <trkpt lat="19.103395" lon="-99.768956"><ele>4614.5</ele><time>2018-11-18T17:59:39.000Z</time></trkpt>
   <trkpt lat="19.103301" lon="-99.768931"><ele>4616.3</ele><time>2018-11-18T18:00:56.000Z</time></trkpt>
   <trkpt lat="19.102927" lon="-99.768354"><ele>4625.3</ele><time>2018-11-18T18:03:31.000Z</time></trkpt>
   <trkpt lat="19.102201" lon="-99.768029"><ele>4643.6</ele><time>2018-11-18T18:09:06.000Z</time></trkpt>
   <trkpt lat="19.102205" lon="-99.767943"><ele>4644.4</ele><time>2018-11-18T18:11:10.000Z</time></trkpt>
   <trkpt lat="19.101878" lon="-99.767724"><ele>4653.6</ele><time>2018-11-18T18:15:33.000Z</time></trkpt>
   <trkpt lat="19.101836" lon="-99.767585"><ele>4654.5</ele><time>2018-11-18T18:36:37.000Z</time></trkpt>
   <trkpt lat="19.101915" lon="-99.767769"><ele>4654.3</ele><time>2018-11-18T18:57:55.000Z</time></trkpt>
   <trkpt lat="19.102097" lon="-99.767799"><ele>4653.2</ele><time>2018-11-18T19:00:19.000Z</time></trkpt>
   <trkpt lat="19.102179" lon="-99.768028"><ele>4645.3</ele><time>2018-11-18T19:03:55.000Z</time></trkpt>
   <trkpt lat="19.102348" lon="-99.768118"><ele>4644.0</ele><time>2018-11-18T19:06:25.000Z</time></trkpt>
   <trkpt lat="19.102397" lon="-99.768068"><ele>4642.5</ele><time>2018-11-18T19:07:44.000Z</time></trkpt>
   <trkpt lat="19.102933" lon="-99.768371"><ele>4624.3</ele><time>2018-11-18T19:21:43.000Z</time></trkpt>
   <trkpt lat="19.103350" lon="-99.769021"><ele>4611.7</ele><time>2018-11-18T19:23:30.000Z</time></trkpt>
   <trkpt lat="19.104061" lon="-99.768977"><ele>4588.7</ele><time>2018-11-18T19:27:51.000Z</time></trkpt>
   <trkpt lat="19.104099" lon="-99.769873"><ele>4549.9</ele><time>2018-11-18T19:37:31.000Z</time></trkpt>
   <trkpt lat="19.104198" lon="-99.769914"><ele>4545.8</ele><time>2018-11-18T19:38:36.000Z</time></trkpt>
   <trkpt lat="19.104268" lon="-99.770555"><ele>4496.1</ele><time>2018-11-18T19:43:36.000Z</time></trkpt>
   <trkpt lat="19.104587" lon="-99.771412"><ele>4453.6</ele><time>2018-11-18T19:46:58.000Z</time></trkpt>
   <trkpt lat="19.104808" lon="-99.771733"><ele>4441.8</ele><time>2018-11-18T19:48:24.000Z</time></trkpt>
   <trkpt lat="19.105181" lon="-99.772083"><ele>4404.3</ele><time>2018-11-18T19:50:11.000Z</time></trkpt>
   <trkpt lat="19.105389" lon="-99.772175"><ele>4389.7</ele><time>2018-11-18T19:50:59.000Z</time></trkpt>
   <trkpt lat="19.105471" lon="-99.772371"><ele>4377.8</ele><time>2018-11-18T19:51:56.000Z</time></trkpt>
   <trkpt lat="19.105526" lon="-99.772351"><ele>4373.0</ele><time>2018-11-18T19:52:16.000Z</time></trkpt>
   <trkpt lat="19.105619" lon="-99.772764"><ele>4355.1</ele><time>2018-11-18T19:53:54.000Z</time></trkpt>
   <trkpt lat="19.106071" lon="-99.773244"><ele>4325.5</ele><time>2018-11-18T19:58:01.000Z</time></trkpt>
   <trkpt lat="19.106138" lon="-99.773566"><ele>4314.4</ele><time>2018-11-18T19:58:48.000Z</time></trkpt>
   <trkpt lat="19.106391" lon="-99.773911"><ele>4290.8</ele><time>2018-11-18T20:00:02.000Z</time></trkpt>
   <trkpt lat="19.106970" lon="-99.774294"><ele>4272.2</ele><time>2018-11-18T20:03:14.000Z</time></trkpt>
   <trkpt lat="19.108196" lon="-99.775864"><ele>4207.4</ele><time>2018-11-18T20:12:45.000Z</time></trkpt>
   <trkpt lat="19.108321" lon="-99.775899"><ele>4202.5</ele><time>2018-11-18T20:13:16.000Z</time></trkpt>
   <trkpt lat="19.108659" lon="-99.776356"><ele>4190.5</ele><time>2018-11-18T20:14:56.000Z</time></trkpt>
   <trkpt lat="19.108797" lon="-99.776400"><ele>4184.5</ele><time>2018-11-18T20:15:34.000Z</time></trkpt>
   <trkpt lat="19.109203" lon="-99.776782"><ele>4183.2</ele><time>2018-11-18T20:18:11.000Z</time></trkpt>
   <trkpt lat="19.109328" lon="-99.777069"><ele>4182.1</ele><time>2018-11-18T20:19:21.000Z</time></trkpt>
   <trkpt lat="19.109384" lon="-99.777011"><ele>4179.9</ele><time>2018-11-18T20:20:07.000Z</time></trkpt>
   <trkpt lat="19.109430" lon="-99.777121"><ele>4175.0</ele><time>2018-11-18T20:29:31.000Z</time></trkpt>
   <trkpt lat="19.109800" lon="-99.777373"><ele>4166.0</ele><time>2018-11-18T20:31:18.000Z</time></trkpt>
   <trkpt lat="19.110337" lon="-99.778296"><ele>4145.1</ele><time>2018-11-18T20:33:24.000Z</time></trkpt>
   <trkpt lat="19.111434" lon="-99.779052"><ele>4119.4</ele><time>2018-11-18T20:37:05.000Z</time></trkpt>
   <trkpt lat="19.111741" lon="-99.779587"><ele>4109.3</ele><time>2018-11-18T20:38:08.000Z</time></trkpt>
   <trkpt lat="19.111891" lon="-99.779719"><ele>4107.1</ele><time>2018-11-18T20:38:26.000Z</time></trkpt>
   <trkpt lat="19.112150" lon="-99.779780"><ele>4101.2</ele><time>2018-11-18T20:39:06.000Z</time></trkpt>
   <trkpt lat="19.112908" lon="-99.780701"><ele>4077.7</ele><time>2018-11-18T20:41:16.000Z</time></trkpt>
   <trkpt lat="19.114388" lon="-99.781857"><ele>4047.1</ele><time>2018-11-18T20:45:22.000Z</time></trkpt>
   <trkpt lat="19.114460" lon="-99.782152"><ele>4044.7</ele><time>2018-11-18T20:46:16.000Z</time></trkpt>
   <trkpt lat="19.114849" lon="-99.782276"><ele>4036.2</ele><time>2018-11-18T20:47:04.000Z</time></trkpt>
   <trkpt lat="19.115097" lon="-99.782611"><ele>4023.1</ele><time>2018-11-18T20:47:45.000Z</time></trkpt>
   <trkpt lat="19.115600" lon="-99.783856"><ele>4003.6</ele><time>2018-11-18T20:52:02.000Z</time></trkpt>
   <trkpt lat="19.116628" lon="-99.785142"><ele>3970.3</ele><time>2018-11-18T20:55:00.000Z</time></trkpt>
   <trkpt lat="19.116701" lon="-99.785524"><ele>3958.5</ele><time>2018-11-18T20:56:34.000Z</time></trkpt>
   <trkpt lat="19.116895" lon="-99.785635"><ele>3946.8</ele><time>2018-11-18T20:58:15.000Z</time></trkpt>
   <trkpt lat="19.117055" lon="-99.785569"><ele>3936.2</ele><time>2018-11-18T20:59:03.000Z</time></trkpt>
   <trkpt lat="19.117075" lon="-99.785627"><ele>3933.2</ele><time>2018-11-18T20:59:12.000Z</time></trkpt>
   <trkpt lat="19.117299" lon="-99.785606"><ele>3926.3</ele><time>2018-11-18T21:00:04.000Z</time></trkpt>
   <trkpt lat="19.117757" lon="-99.785978"><ele>3927.9</ele><time>2018-11-18T21:01:48.000Z</time></trkpt>
   <trkpt lat="19.117878" lon="-99.785933"><ele>3929.7</ele><time>2018-11-18T21:02:10.000Z</time></trkpt>
   <trkpt lat="19.117594" lon="-99.785435"><ele>3939.0</ele><time>2018-11-18T21:03:34.000Z</time></trkpt>
   <trkpt lat="19.117610" lon="-99.785257"><ele>3942.3</ele><time>2018-11-18T21:04:35.000Z</time></trkpt>
   <trkpt lat="19.117851" lon="-99.785220"><ele>3943.1</ele><time>2018-11-18T21:05:10.000Z</time></trkpt>
   <trkpt lat="19.117971" lon="-99.785329"><ele>3947.0</ele><time>2018-11-18T21:05:45.000Z</time></trkpt>
   <trkpt lat="19.118213" lon="-99.785317"><ele>3955.3</ele><time>2018-11-18T21:06:12.000Z</time></trkpt>
   <trkpt lat="19.118399" lon="-99.784691"><ele>3976.6</ele><time>2018-11-18T21:07:41.000Z</time></trkpt>
   <trkpt lat="19.118664" lon="-99.784640"><ele>3976.4</ele><time>2018-11-18T21:08:14.000Z</time></trkpt>
   <trkpt lat="19.119027" lon="-99.784310"><ele>3973.4</ele><time>2018-11-18T21:09:17.000Z</time></trkpt>
   <trkpt lat="19.119088" lon="-99.784006"><ele>3972.9</ele><time>2018-11-18T21:09:43.000Z</time></trkpt>
   <trkpt lat="19.118989" lon="-99.783919"><ele>3975.0</ele><time>2018-11-18T21:09:56.000Z</time></trkpt>
   <trkpt lat="19.118925" lon="-99.783600"><ele>3981.0</ele><time>2018-11-18T21:10:20.000Z</time></trkpt>
   <trkpt lat="19.119058" lon="-99.782948"><ele>3983.0</ele><time>2018-11-18T21:11:19.000Z</time></trkpt>
   <trkpt lat="19.119213" lon="-99.782864"><ele>3982.5</ele><time>2018-11-18T21:11:36.000Z</time></trkpt>
   <trkpt lat="19.119400" lon="-99.782890"><ele>3982.5</ele><time>2018-11-18T21:12:09.000Z</time></trkpt>
   <trkpt lat="19.119610" lon="-99.782620"><ele>3983.6</ele><time>2018-11-18T21:13:09.000Z</time></trkpt>
   <trkpt lat="19.119924" lon="-99.782802"><ele>3987.5</ele><time>2018-11-18T21:14:51.000Z</time></trkpt>
   <trkpt lat="19.120072" lon="-99.782800"><ele>3985.4</ele><time>2018-11-18T21:15:02.000Z</time></trkpt>
   <trkpt lat="19.120171" lon="-99.782549"><ele>3991.3</ele><time>2018-11-18T21:15:23.000Z</time></trkpt>
   <trkpt lat="19.120141" lon="-99.782127"><ele>3995.5</ele><time>2018-11-18T21:16:06.000Z</time></trkpt>
   <trkpt lat="19.120491" lon="-99.781910"><ele>3993.0</ele><time>2018-11-18T21:16:42.000Z</time></trkpt>
   <trkpt lat="19.120482" lon="-99.781513"><ele>3999.2</ele><time>2018-11-18T21:17:19.000Z</time></trkpt>
   <trkpt lat="19.120823" lon="-99.781193"><ele>4000.6</ele><time>2018-11-18T21:18:07.000Z</time></trkpt>
   <trkpt lat="19.121015" lon="-99.780422"><ele>4003.1</ele><time>2018-11-18T21:19:20.000Z</time></trkpt>
   <trkpt lat="19.121313" lon="-99.780349"><ele>4007.2</ele><time>2018-11-18T21:19:53.000Z</time></trkpt>
   <trkpt lat="19.121379" lon="-99.780143"><ele>4006.4</ele><time>2018-11-18T21:20:22.000Z</time></trkpt>
   <trkpt lat="19.121867" lon="-99.779834"><ele>4003.3</ele><time>2018-11-18T21:21:18.000Z</time></trkpt>
   <trkpt lat="19.122210" lon="-99.779778"><ele>4001.8</ele><time>2018-11-18T21:21:52.000Z</time></trkpt>
   <trkpt lat="19.122885" lon="-99.779357"><ele>3997.2</ele><time>2018-11-18T21:23:05.000Z</time></trkpt>
   <trkpt lat="19.123126" lon="-99.779312"><ele>3996.1</ele><time>2018-11-18T21:23:32.000Z</time></trkpt>
   <trkpt lat="19.123145" lon="-99.779459"><ele>3992.9</ele><time>2018-11-18T21:24:06.000Z</time></trkpt>
   <trkpt lat="19.122952" lon="-99.779970"><ele>3984.8</ele><time>2018-11-18T21:25:13.000Z</time></trkpt>
   <trkpt lat="19.123033" lon="-99.780094"><ele>3982.7</ele><time>2018-11-18T21:25:33.000Z</time></trkpt>
   <trkpt lat="19.123025" lon="-99.780434"><ele>3979.0</ele><time>2018-11-18T21:25:58.000Z</time></trkpt>
   <trkpt lat="19.123127" lon="-99.780832"><ele>3971.4</ele><time>2018-11-18T21:26:54.000Z</time></trkpt>
   <trkpt lat="19.123426" lon="-99.781232"><ele>3957.3</ele><time>2018-11-18T21:27:44.000Z</time></trkpt>
   <trkpt lat="19.123677" lon="-99.781413"><ele>3950.3</ele><time>2018-11-18T21:28:15.000Z</time></trkpt>
   <trkpt lat="19.123898" lon="-99.781813"><ele>3945.2</ele><time>2018-11-18T21:28:58.000Z</time></trkpt>
   <trkpt lat="19.124073" lon="-99.781895"><ele>3944.1</ele><time>2018-11-18T21:29:16.000Z</time></trkpt>
   <trkpt lat="19.124219" lon="-99.781877"><ele>3943.6</ele><time>2018-11-18T21:29:28.000Z</time></trkpt>
   <trkpt lat="19.124447" lon="-99.781683"><ele>3942.6</ele><time>2018-11-18T21:29:52.000Z</time></trkpt>
   <trkpt lat="19.124666" lon="-99.781160"><ele>3940.8</ele><time>2018-11-18T21:30:38.000Z</time></trkpt>
   <trkpt lat="19.124862" lon="-99.781257"><ele>3940.3</ele><time>2018-11-18T21:30:57.000Z</time></trkpt>
   <trkpt lat="19.125222" lon="-99.781054"><ele>3939.2</ele><time>2018-11-18T21:31:31.000Z</time></trkpt>
   <trkpt lat="19.125512" lon="-99.781041"><ele>3938.2</ele><time>2018-11-18T21:31:58.000Z</time></trkpt>
   <trkpt lat="19.125843" lon="-99.780892"><ele>3935.6</ele><time>2018-11-18T21:32:33.000Z</time></trkpt>
   <trkpt lat="19.125963" lon="-99.780942"><ele>3935.0</ele><time>2018-11-18T21:32:42.000Z</time></trkpt>
   <trkpt lat="19.126085" lon="-99.781213"><ele>3933.5</ele><time>2018-11-18T21:33:05.000Z</time></trkpt>
   <trkpt lat="19.126299" lon="-99.781343"><ele>3932.1</ele><time>2018-11-18T21:33:24.000Z</time></trkpt>
   <trkpt lat="19.126846" lon="-99.781461"><ele>3928.7</ele><time>2018-11-18T21:34:13.000Z</time></trkpt>
   <trkpt lat="19.127616" lon="-99.781462"><ele>3923.8</ele><time>2018-11-18T21:35:20.000Z</time></trkpt>
   <trkpt lat="19.127844" lon="-99.781261"><ele>3922.2</ele><time>2018-11-18T21:35:46.000Z</time></trkpt>
   <trkpt lat="19.127926" lon="-99.781000"><ele>3920.7</ele><time>2018-11-18T21:36:06.000Z</time></trkpt>
   <trkpt lat="19.128030" lon="-99.780968"><ele>3915.8</ele><time>2018-11-18T21:36:21.000Z</time></trkpt>
   <trkpt lat="19.128279" lon="-99.781366"><ele>3903.8</ele><time>2018-11-18T21:37:01.000Z</time></trkpt>
   <trkpt lat="19.128241" lon="-99.781747"><ele>3893.3</ele><time>2018-11-18T21:37:46.000Z</time></trkpt>
   <trkpt lat="19.128578" lon="-99.782556"><ele>3872.1</ele><time>2018-11-18T21:39:22.000Z</time></trkpt>
   <trkpt lat="19.128749" lon="-99.782738"><ele>3865.8</ele><time>2018-11-18T21:39:51.000Z</time></trkpt>
   <trkpt lat="19.128714" lon="-99.782873"><ele>3863.0</ele><time>2018-11-18T21:40:04.000Z</time></trkpt>
   <trkpt lat="19.129541" lon="-99.784197"><ele>3832.3</ele><time>2018-11-18T21:42:56.000Z</time></trkpt>
   <trkpt lat="19.129641" lon="-99.784958"><ele>3819.9</ele><time>2018-11-18T21:44:33.000Z</time></trkpt>
   <trkpt lat="19.129574" lon="-99.785243"><ele>3816.0</ele><time>2018-11-18T21:44:58.000Z</time></trkpt>
   <trkpt lat="19.129796" lon="-99.785536"><ele>3810.1</ele><time>2018-11-18T21:45:27.000Z</time></trkpt>
   <trkpt lat="19.129920" lon="-99.785973"><ele>3802.5</ele><time>2018-11-18T21:46:19.000Z</time></trkpt>
   <trkpt lat="19.130244" lon="-99.786421"><ele>3793.1</ele><time>2018-11-18T21:47:11.000Z</time></trkpt>
   <trkpt lat="19.130560" lon="-99.787133"><ele>3780.2</ele><time>2018-11-18T21:48:13.000Z</time></trkpt>
   <trkpt lat="19.130519" lon="-99.788043"><ele>3765.8</ele><time>2018-11-18T21:49:21.000Z</time></trkpt>
   <trkpt lat="19.130724" lon="-99.788909"><ele>3751.1</ele><time>2018-11-18T21:50:45.000Z</time></trkpt>
   <trkpt lat="19.131158" lon="-99.789349"><ele>3742.0</ele><time>2018-11-18T21:52:14.000Z</time></trkpt>
   <trkpt lat="19.131213" lon="-99.789519"><ele>3738.7</ele><time>2018-11-18T21:52:31.000Z</time></trkpt>
  </trkseg>
 </trk>
</gpx>
