<?xml version="1.0" encoding="UTF-8"?>
<gpx version="1.1" creator="Strava (via strava-mcp)" xmlns="http://www.topografix.com/GPX/1/1">
 <metadata><name>Paso de Cortés</name><time>2023-09-10T15:56:42.000Z</time></metadata>
 <trk>
  <name>Paso de Cortés</name>
  <type>Hike</type>
  <trkseg>
   <trkpt lat="19.092226" lon="-98.647686"><ele>3684.3</ele><time>2023-09-10T15:56:42.000Z</time></trkpt>
   <trkpt lat="19.092668" lon="-98.647896"><ele>3685.6</ele><time>2023-09-10T15:57:38.000Z</time></trkpt>
   <trkpt lat="19.092900" lon="-98.647901"><ele>3686.0</ele><time>2023-09-10T15:58:04.000Z</time></trkpt>
   <trkpt lat="19.093424" lon="-98.647823"><ele>3684.9</ele><time>2023-09-10T15:58:51.000Z</time></trkpt>
   <trkpt lat="19.093576" lon="-98.647726"><ele>3684.5</ele><time>2023-09-10T15:59:23.000Z</time></trkpt>
   <trkpt lat="19.094021" lon="-98.647696"><ele>3683.5</ele><time>2023-09-10T16:02:19.000Z</time></trkpt>
   <trkpt lat="19.094276" lon="-98.647794"><ele>3684.5</ele><time>2023-09-10T16:02:54.000Z</time></trkpt>
   <trkpt lat="19.094629" lon="-98.648136"><ele>3686.4</ele><time>2023-09-10T16:03:38.000Z</time></trkpt>
   <trkpt lat="19.095143" lon="-98.647805"><ele>3687.7</ele><time>2023-09-10T16:04:40.000Z</time></trkpt>
   <trkpt lat="19.095451" lon="-98.647799"><ele>3689.5</ele><time>2023-09-10T16:05:10.000Z</time></trkpt>
   <trkpt lat="19.096022" lon="-98.647944"><ele>3694.3</ele><time>2023-09-10T16:06:05.000Z</time></trkpt>
   <trkpt lat="19.096443" lon="-98.648257"><ele>3699.3</ele><time>2023-09-10T16:07:01.000Z</time></trkpt>
   <trkpt lat="19.097087" lon="-98.648224"><ele>3705.6</ele><time>2023-09-10T16:08:05.000Z</time></trkpt>
   <trkpt lat="19.097589" lon="-98.648023"><ele>3710.6</ele><time>2023-09-10T16:09:00.000Z</time></trkpt>
   <trkpt lat="19.097737" lon="-98.647783"><ele>3711.8</ele><time>2023-09-10T16:09:26.000Z</time></trkpt>
   <trkpt lat="19.098053" lon="-98.647634"><ele>3713.3</ele><time>2023-09-10T16:09:57.000Z</time></trkpt>
   <trkpt lat="19.098093" lon="-98.647535"><ele>3714.1</ele><time>2023-09-10T16:10:06.000Z</time></trkpt>
   <trkpt lat="19.099057" lon="-98.647108"><ele>3726.4</ele><time>2023-09-10T16:14:18.000Z</time></trkpt>
   <trkpt lat="19.099306" lon="-98.647517"><ele>3732.2</ele><time>2023-09-10T16:15:14.000Z</time></trkpt>
   <trkpt lat="19.099339" lon="-98.647793"><ele>3735.2</ele><time>2023-09-10T16:15:41.000Z</time></trkpt>
   <trkpt lat="19.099576" lon="-98.648025"><ele>3740.1</ele><time>2023-09-10T16:16:14.000Z</time></trkpt>
   <trkpt lat="19.100831" lon="-98.648148"><ele>3755.5</ele><time>2023-09-10T16:18:27.000Z</time></trkpt>
   <trkpt lat="19.101240" lon="-98.648017"><ele>3758.8</ele><time>2023-09-10T16:19:09.000Z</time></trkpt>
   <trkpt lat="19.101767" lon="-98.648028"><ele>3764.6</ele><time>2023-09-10T16:20:06.000Z</time></trkpt>
   <trkpt lat="19.102473" lon="-98.647658"><ele>3773.3</ele><time>2023-09-10T16:21:32.000Z</time></trkpt>
   <trkpt lat="19.102848" lon="-98.647612"><ele>3776.8</ele><time>2023-09-10T16:22:07.000Z</time></trkpt>
   <trkpt lat="19.102884" lon="-98.647691"><ele>3777.9</ele><time>2023-09-10T16:22:18.000Z</time></trkpt>
   <trkpt lat="19.103016" lon="-98.647695"><ele>3779.5</ele><time>2023-09-10T16:22:30.000Z</time></trkpt>
   <trkpt lat="19.103765" lon="-98.647333"><ele>3789.8</ele><time>2023-09-10T16:24:46.000Z</time></trkpt>
   <trkpt lat="19.104067" lon="-98.647265"><ele>3794.9</ele><time>2023-09-10T16:25:19.000Z</time></trkpt>
   <trkpt lat="19.104588" lon="-98.646934"><ele>3804.4</ele><time>2023-09-10T16:26:26.000Z</time></trkpt>
   <trkpt lat="19.104848" lon="-98.647042"><ele>3810.3</ele><time>2023-09-10T16:27:09.000Z</time></trkpt>
   <trkpt lat="19.105205" lon="-98.646969"><ele>3813.4</ele><time>2023-09-10T16:27:49.000Z</time></trkpt>
   <trkpt lat="19.105654" lon="-98.646687"><ele>3816.7</ele><time>2023-09-10T16:28:30.000Z</time></trkpt>
   <trkpt lat="19.106069" lon="-98.646657"><ele>3823.0</ele><time>2023-09-10T16:29:20.000Z</time></trkpt>
   <trkpt lat="19.106331" lon="-98.646449"><ele>3826.5</ele><time>2023-09-10T16:30:31.000Z</time></trkpt>
   <trkpt lat="19.107936" lon="-98.646712"><ele>3843.0</ele><time>2023-09-10T16:33:44.000Z</time></trkpt>
   <trkpt lat="19.108138" lon="-98.646875"><ele>3843.8</ele><time>2023-09-10T16:34:10.000Z</time></trkpt>
   <trkpt lat="19.108157" lon="-98.647282"><ele>3842.1</ele><time>2023-09-10T16:34:44.000Z</time></trkpt>
   <trkpt lat="19.108581" lon="-98.647759"><ele>3842.8</ele><time>2023-09-10T16:35:42.000Z</time></trkpt>
   <trkpt lat="19.109076" lon="-98.647836"><ele>3845.1</ele><time>2023-09-10T16:36:28.000Z</time></trkpt>
   <trkpt lat="19.109617" lon="-98.647464"><ele>3849.8</ele><time>2023-09-10T16:38:10.000Z</time></trkpt>
   <trkpt lat="19.110117" lon="-98.646505"><ele>3863.2</ele><time>2023-09-10T16:40:47.000Z</time></trkpt>
   <trkpt lat="19.110629" lon="-98.646220"><ele>3871.0</ele><time>2023-09-10T16:42:35.000Z</time></trkpt>
   <trkpt lat="19.111576" lon="-98.646023"><ele>3880.2</ele><time>2023-09-10T16:44:52.000Z</time></trkpt>
   <trkpt lat="19.113337" lon="-98.646021"><ele>3901.7</ele><time>2023-09-10T16:48:34.000Z</time></trkpt>
   <trkpt lat="19.114061" lon="-98.645914"><ele>3913.9</ele><time>2023-09-10T16:50:13.000Z</time></trkpt>
   <trkpt lat="19.114328" lon="-98.645742"><ele>3920.0</ele><time>2023-09-10T16:51:22.000Z</time></trkpt>
   <trkpt lat="19.114427" lon="-98.645810"><ele>3923.4</ele><time>2023-09-10T16:51:56.000Z</time></trkpt>
   <trkpt lat="19.114877" lon="-98.645714"><ele>3930.5</ele><time>2023-09-10T16:53:06.000Z</time></trkpt>
   <trkpt lat="19.115081" lon="-98.645757"><ele>3933.9</ele><time>2023-09-10T16:53:41.000Z</time></trkpt>
   <trkpt lat="19.115279" lon="-98.645949"><ele>3937.5</ele><time>2023-09-10T16:54:06.000Z</time></trkpt>
   <trkpt lat="19.116443" lon="-98.648357"><ele>3947.8</ele><time>2023-09-10T16:58:12.000Z</time></trkpt>
   <trkpt lat="19.116850" lon="-98.648678"><ele>3948.8</ele><time>2023-09-10T16:59:00.000Z</time></trkpt>
   <trkpt lat="19.117792" lon="-98.648900"><ele>3953.7</ele><time>2023-09-10T17:00:35.000Z</time></trkpt>
   <trkpt lat="19.118409" lon="-98.649408"><ele>3958.5</ele><time>2023-09-10T17:01:51.000Z</time></trkpt>
   <trkpt lat="19.118970" lon="-98.649551"><ele>3955.0</ele><time>2023-09-10T17:02:43.000Z</time></trkpt>
   <trkpt lat="19.119797" lon="-98.649517"><ele>3948.0</ele><time>2023-09-10T17:03:53.000Z</time></trkpt>
   <trkpt lat="19.119946" lon="-98.649783"><ele>3947.9</ele><time>2023-09-10T17:04:20.000Z</time></trkpt>
   <trkpt lat="19.120000" lon="-98.650224"><ele>3950.7</ele><time>2023-09-10T17:05:13.000Z</time></trkpt>
   <trkpt lat="19.120263" lon="-98.650587"><ele>3952.0</ele><time>2023-09-10T17:05:52.000Z</time></trkpt>
   <trkpt lat="19.121255" lon="-98.651302"><ele>3949.1</ele><time>2023-09-10T17:07:49.000Z</time></trkpt>
   <trkpt lat="19.121568" lon="-98.651615"><ele>3946.2</ele><time>2023-09-10T17:08:26.000Z</time></trkpt>
   <trkpt lat="19.121739" lon="-98.651986"><ele>3942.5</ele><time>2023-09-10T17:09:02.000Z</time></trkpt>
   <trkpt lat="19.122313" lon="-98.651838"><ele>3939.6</ele><time>2023-09-10T17:09:58.000Z</time></trkpt>
   <trkpt lat="19.123020" lon="-98.652023"><ele>3935.1</ele><time>2023-09-10T17:11:12.000Z</time></trkpt>
   <trkpt lat="19.122962" lon="-98.651812"><ele>3933.0</ele><time>2023-09-10T17:11:32.000Z</time></trkpt>
   <trkpt lat="19.123069" lon="-98.651674"><ele>3931.3</ele><time>2023-09-10T17:11:49.000Z</time></trkpt>
   <trkpt lat="19.123613" lon="-98.651586"><ele>3928.9</ele><time>2023-09-10T17:12:40.000Z</time></trkpt>
   <trkpt lat="19.123912" lon="-98.651447"><ele>3928.1</ele><time>2023-09-10T17:13:09.000Z</time></trkpt>
   <trkpt lat="19.124610" lon="-98.649542"><ele>3924.2</ele><time>2023-09-10T17:16:05.000Z</time></trkpt>
   <trkpt lat="19.125058" lon="-98.649008"><ele>3923.0</ele><time>2023-09-10T17:17:16.000Z</time></trkpt>
   <trkpt lat="19.125537" lon="-98.648009"><ele>3912.2</ele><time>2023-09-10T17:19:06.000Z</time></trkpt>
   <trkpt lat="19.125580" lon="-98.647328"><ele>3907.8</ele><time>2023-09-10T17:20:11.000Z</time></trkpt>
   <trkpt lat="19.125535" lon="-98.646861"><ele>3907.4</ele><time>2023-09-10T17:20:53.000Z</time></trkpt>
   <trkpt lat="19.125387" lon="-98.646634"><ele>3906.6</ele><time>2023-09-10T17:21:35.000Z</time></trkpt>
   <trkpt lat="19.124958" lon="-98.646440"><ele>3906.9</ele><time>2023-09-10T17:22:17.000Z</time></trkpt>
   <trkpt lat="19.124417" lon="-98.646032"><ele>3904.1</ele><time>2023-09-10T17:23:18.000Z</time></trkpt>
   <trkpt lat="19.123956" lon="-98.645922"><ele>3893.1</ele><time>2023-09-10T17:24:19.000Z</time></trkpt>
   <trkpt lat="19.124042" lon="-98.645380"><ele>3887.2</ele><time>2023-09-10T17:25:18.000Z</time></trkpt>
   <trkpt lat="19.123868" lon="-98.645280"><ele>3883.1</ele><time>2023-09-10T17:25:37.000Z</time></trkpt>
   <trkpt lat="19.124240" lon="-98.644635"><ele>3878.2</ele><time>2023-09-10T17:27:41.000Z</time></trkpt>
   <trkpt lat="19.124033" lon="-98.644786"><ele>3876.3</ele><time>2023-09-10T17:28:12.000Z</time></trkpt>
   <trkpt lat="19.124021" lon="-98.645017"><ele>3884.0</ele><time>2023-09-10T17:28:35.000Z</time></trkpt>
   <trkpt lat="19.124175" lon="-98.644911"><ele>3888.7</ele><time>2023-09-10T17:29:01.000Z</time></trkpt>
   <trkpt lat="19.124327" lon="-98.644929"><ele>3891.7</ele><time>2023-09-10T17:29:36.000Z</time></trkpt>
   <trkpt lat="19.124445" lon="-98.644642"><ele>3893.4</ele><time>2023-09-10T17:30:04.000Z</time></trkpt>
   <trkpt lat="19.124612" lon="-98.644852"><ele>3897.2</ele><time>2023-09-10T17:30:38.000Z</time></trkpt>
   <trkpt lat="19.124634" lon="-98.645038"><ele>3899.0</ele><time>2023-09-10T17:31:03.000Z</time></trkpt>
   <trkpt lat="19.125060" lon="-98.644684"><ele>3897.1</ele><time>2023-09-10T17:31:59.000Z</time></trkpt>
   <trkpt lat="19.125375" lon="-98.644194"><ele>3893.3</ele><time>2023-09-10T17:32:57.000Z</time></trkpt>
   <trkpt lat="19.125877" lon="-98.643713"><ele>3883.8</ele><time>2023-09-10T17:34:15.000Z</time></trkpt>
   <trkpt lat="19.126110" lon="-98.643306"><ele>3869.8</ele><time>2023-09-10T17:35:38.000Z</time></trkpt>
   <trkpt lat="19.126104" lon="-98.643131"><ele>3864.1</ele><time>2023-09-10T17:36:16.000Z</time></trkpt>
   <trkpt lat="19.126233" lon="-98.643109"><ele>3863.1</ele><time>2023-09-10T17:37:05.000Z</time></trkpt>
   <trkpt lat="19.126405" lon="-98.642853"><ele>3857.5</ele><time>2023-09-10T17:37:47.000Z</time></trkpt>
   <trkpt lat="19.126372" lon="-98.642726"><ele>3855.1</ele><time>2023-09-10T17:38:04.000Z</time></trkpt>
   <trkpt lat="19.126275" lon="-98.642686"><ele>3854.1</ele><time>2023-09-10T17:38:17.000Z</time></trkpt>
   <trkpt lat="19.126291" lon="-98.642492"><ele>3851.6</ele><time>2023-09-10T17:38:49.000Z</time></trkpt>
   <trkpt lat="19.125703" lon="-98.642458"><ele>3848.2</ele><time>2023-09-10T17:41:52.000Z</time></trkpt>
   <trkpt lat="19.125435" lon="-98.642074"><ele>3841.5</ele><time>2023-09-10T17:42:54.000Z</time></trkpt>
   <trkpt lat="19.124910" lon="-98.641858"><ele>3841.1</ele><time>2023-09-10T17:43:51.000Z</time></trkpt>
   <trkpt lat="19.124260" lon="-98.640921"><ele>3832.1</ele><time>2023-09-10T17:45:30.000Z</time></trkpt>
   <trkpt lat="19.124272" lon="-98.640571"><ele>3826.8</ele><time>2023-09-10T17:45:58.000Z</time></trkpt>
   <trkpt lat="19.124125" lon="-98.640433"><ele>3821.4</ele><time>2023-09-10T17:46:16.000Z</time></trkpt>
   <trkpt lat="19.124102" lon="-98.640214"><ele>3816.0</ele><time>2023-09-10T17:46:34.000Z</time></trkpt>
   <trkpt lat="19.123745" lon="-98.640321"><ele>3812.9</ele><time>2023-09-10T17:46:59.000Z</time></trkpt>
   <trkpt lat="19.123707" lon="-98.640264"><ele>3807.7</ele><time>2023-09-10T17:47:08.000Z</time></trkpt>
   <trkpt lat="19.123886" lon="-98.640113"><ele>3812.2</ele><time>2023-09-10T17:49:44.000Z</time></trkpt>
   <trkpt lat="19.123506" lon="-98.640219"><ele>3798.5</ele><time>2023-09-10T17:50:34.000Z</time></trkpt>
   <trkpt lat="19.123195" lon="-98.640564"><ele>3800.0</ele><time>2023-09-10T17:51:10.000Z</time></trkpt>
   <trkpt lat="19.123106" lon="-98.640576"><ele>3797.8</ele><time>2023-09-10T17:51:18.000Z</time></trkpt>
   <trkpt lat="19.123080" lon="-98.640498"><ele>3795.6</ele><time>2023-09-10T17:51:36.000Z</time></trkpt>
   <trkpt lat="19.123092" lon="-98.640583"><ele>3797.8</ele><time>2023-09-10T17:52:39.000Z</time></trkpt>
   <trkpt lat="19.122982" lon="-98.640612"><ele>3795.9</ele><time>2023-09-10T18:02:25.000Z</time></trkpt>
   <trkpt lat="19.123093" lon="-98.640526"><ele>3789.6</ele><time>2023-09-10T18:03:49.000Z</time></trkpt>
   <trkpt lat="19.123044" lon="-98.640642"><ele>3792.5</ele><time>2023-09-10T18:08:20.000Z</time></trkpt>
   <trkpt lat="19.123094" lon="-98.640604"><ele>3791.8</ele><time>2023-09-10T18:08:43.000Z</time></trkpt>
   <trkpt lat="19.123069" lon="-98.640544"><ele>3791.0</ele><time>2023-09-10T18:09:47.000Z</time></trkpt>
   <trkpt lat="19.123039" lon="-98.640617"><ele>3791.6</ele><time>2023-09-10T18:19:46.000Z</time></trkpt>
   <trkpt lat="19.123028" lon="-98.640309"><ele>3787.7</ele><time>2023-09-10T18:41:15.000Z</time></trkpt>
   <trkpt lat="19.122989" lon="-98.640581"><ele>3792.2</ele><time>2023-09-10T18:41:31.000Z</time></trkpt>
   <trkpt lat="19.123073" lon="-98.640603"><ele>3791.8</ele><time>2023-09-10T18:50:46.000Z</time></trkpt>
   <trkpt lat="19.122987" lon="-98.640578"><ele>3792.2</ele><time>2023-09-10T18:54:11.000Z</time></trkpt>
   <trkpt lat="19.123075" lon="-98.640618"><ele>3791.8</ele><time>2023-09-10T18:58:20.000Z</time></trkpt>
   <trkpt lat="19.122640" lon="-98.640991"><ele>3795.5</ele><time>2023-09-10T18:59:50.000Z</time></trkpt>
   <trkpt lat="19.122090" lon="-98.641202"><ele>3797.4</ele><time>2023-09-10T19:00:55.000Z</time></trkpt>
   <trkpt lat="19.121214" lon="-98.640470"><ele>3790.4</ele><time>2023-09-10T19:02:36.000Z</time></trkpt>
   <trkpt lat="19.120670" lon="-98.640461"><ele>3789.3</ele><time>2023-09-10T19:03:22.000Z</time></trkpt>
   <trkpt lat="19.120451" lon="-98.640576"><ele>3790.3</ele><time>2023-09-10T19:03:41.000Z</time></trkpt>
   <trkpt lat="19.120445" lon="-98.640686"><ele>3791.6</ele><time>2023-09-10T19:03:53.000Z</time></trkpt>
   <trkpt lat="19.120273" lon="-98.640650"><ele>3789.9</ele><time>2023-09-10T19:04:14.000Z</time></trkpt>
   <trkpt lat="19.120025" lon="-98.640759"><ele>3791.2</ele><time>2023-09-10T19:04:39.000Z</time></trkpt>
   <trkpt lat="19.119555" lon="-98.640667"><ele>3791.3</ele><time>2023-09-10T19:05:17.000Z</time></trkpt>
   <trkpt lat="19.119258" lon="-98.640708"><ele>3795.3</ele><time>2023-09-10T19:05:49.000Z</time></trkpt>
   <trkpt lat="19.118774" lon="-98.640569"><ele>3799.0</ele><time>2023-09-10T19:06:36.000Z</time></trkpt>
   <trkpt lat="19.118608" lon="-98.640431"><ele>3801.3</ele><time>2023-09-10T19:06:56.000Z</time></trkpt>
   <trkpt lat="19.118432" lon="-98.640433"><ele>3801.0</ele><time>2023-09-10T19:07:18.000Z</time></trkpt>
   <trkpt lat="19.118291" lon="-98.640335"><ele>3799.2</ele><time>2023-09-10T19:07:40.000Z</time></trkpt>
   <trkpt lat="19.118106" lon="-98.639876"><ele>3794.2</ele><time>2023-09-10T19:08:15.000Z</time></trkpt>
   <trkpt lat="19.117893" lon="-98.639746"><ele>3791.8</ele><time>2023-09-10T19:08:37.000Z</time></trkpt>
   <trkpt lat="19.117702" lon="-98.640021"><ele>3798.1</ele><time>2023-09-10T19:09:06.000Z</time></trkpt>
   <trkpt lat="19.116897" lon="-98.640502"><ele>3797.7</ele><time>2023-09-10T19:10:48.000Z</time></trkpt>
   <trkpt lat="19.113857" lon="-98.641207"><ele>3782.0</ele><time>2023-09-10T19:15:57.000Z</time></trkpt>
   <trkpt lat="19.113708" lon="-98.640943"><ele>3777.6</ele><time>2023-09-10T19:16:20.000Z</time></trkpt>
   <trkpt lat="19.113408" lon="-98.640758"><ele>3769.3</ele><time>2023-09-10T19:16:56.000Z</time></trkpt>
   <trkpt lat="19.113196" lon="-98.640473"><ele>3763.1</ele><time>2023-09-10T19:17:22.000Z</time></trkpt>
   <trkpt lat="19.112776" lon="-98.640267"><ele>3759.6</ele><time>2023-09-10T19:17:59.000Z</time></trkpt>
   <trkpt lat="19.112653" lon="-98.640123"><ele>3757.4</ele><time>2023-09-10T19:18:13.000Z</time></trkpt>
   <trkpt lat="19.112450" lon="-98.640090"><ele>3757.5</ele><time>2023-09-10T19:18:28.000Z</time></trkpt>
   <trkpt lat="19.112297" lon="-98.639931"><ele>3755.3</ele><time>2023-09-10T19:18:45.000Z</time></trkpt>
   <trkpt lat="19.111944" lon="-98.639927"><ele>3758.7</ele><time>2023-09-10T19:19:13.000Z</time></trkpt>
   <trkpt lat="19.111713" lon="-98.639692"><ele>3753.6</ele><time>2023-09-10T19:19:38.000Z</time></trkpt>
   <trkpt lat="19.111562" lon="-98.639416"><ele>3746.1</ele><time>2023-09-10T19:20:04.000Z</time></trkpt>
   <trkpt lat="19.111021" lon="-98.638888"><ele>3738.4</ele><time>2023-09-10T19:21:04.000Z</time></trkpt>
   <trkpt lat="19.110916" lon="-98.638442"><ele>3732.7</ele><time>2023-09-10T19:21:38.000Z</time></trkpt>
   <trkpt lat="19.110617" lon="-98.638277"><ele>3732.3</ele><time>2023-09-10T19:22:04.000Z</time></trkpt>
   <trkpt lat="19.110537" lon="-98.638023"><ele>3728.8</ele><time>2023-09-10T19:22:23.000Z</time></trkpt>
   <trkpt lat="19.110265" lon="-98.637721"><ele>3724.2</ele><time>2023-09-10T19:22:53.000Z</time></trkpt>
   <trkpt lat="19.110120" lon="-98.637370"><ele>3720.2</ele><time>2023-09-10T19:23:22.000Z</time></trkpt>
   <trkpt lat="19.109317" lon="-98.636318"><ele>3712.3</ele><time>2023-09-10T19:25:05.000Z</time></trkpt>
   <trkpt lat="19.108718" lon="-98.635957"><ele>3706.0</ele><time>2023-09-10T19:25:31.000Z</time></trkpt>
   <trkpt lat="19.108567" lon="-98.635708"><ele>3703.1</ele><time>2023-09-10T19:25:50.000Z</time></trkpt>
   <trkpt lat="19.108277" lon="-98.635660"><ele>3700.2</ele><time>2023-09-10T19:26:16.000Z</time></trkpt>
   <trkpt lat="19.107901" lon="-98.635389"><ele>3693.7</ele><time>2023-09-10T19:26:48.000Z</time></trkpt>
   <trkpt lat="19.107726" lon="-98.635013"><ele>3689.9</ele><time>2023-09-10T19:27:20.000Z</time></trkpt>
   <trkpt lat="19.106933" lon="-98.634087"><ele>3671.9</ele><time>2023-09-10T19:28:47.000Z</time></trkpt>
   <trkpt lat="19.106359" lon="-98.634130"><ele>3680.6</ele><time>2023-09-10T19:29:55.000Z</time></trkpt>
   <trkpt lat="19.106103" lon="-98.633991"><ele>3682.6</ele><time>2023-09-10T19:30:23.000Z</time></trkpt>
   <trkpt lat="19.105717" lon="-98.633373"><ele>3687.9</ele><time>2023-09-10T19:31:32.000Z</time></trkpt>
   <trkpt lat="19.105133" lon="-98.632785"><ele>3689.7</ele><time>2023-09-10T19:32:36.000Z</time></trkpt>
   <trkpt lat="19.104912" lon="-98.632692"><ele>3689.1</ele><time>2023-09-10T19:32:55.000Z</time></trkpt>
   <trkpt lat="19.104655" lon="-98.632782"><ele>3687.4</ele><time>2023-09-10T19:33:19.000Z</time></trkpt>
   <trkpt lat="19.104444" lon="-98.633056"><ele>3685.7</ele><time>2023-09-10T19:34:07.000Z</time></trkpt>
   <trkpt lat="19.103723" lon="-98.633515"><ele>3683.4</ele><time>2023-09-10T19:35:11.000Z</time></trkpt>
   <trkpt lat="19.101926" lon="-98.633291"><ele>3684.4</ele><time>2023-09-10T19:37:40.000Z</time></trkpt>
   <trkpt lat="19.100359" lon="-98.632991"><ele>3685.7</ele><time>2023-09-10T19:39:51.000Z</time></trkpt>
   <trkpt lat="19.100017" lon="-98.632987"><ele>3686.3</ele><time>2023-09-10T19:40:18.000Z</time></trkpt>
   <trkpt lat="19.099751" lon="-98.633167"><ele>3688.1</ele><time>2023-09-10T19:40:44.000Z</time></trkpt>
   <trkpt lat="19.099735" lon="-98.633366"><ele>3689.1</ele><time>2023-09-10T19:41:15.000Z</time></trkpt>
   <trkpt lat="19.099485" lon="-98.633710"><ele>3689.8</ele><time>2023-09-10T19:41:42.000Z</time></trkpt>
   <trkpt lat="19.099435" lon="-98.634095"><ele>3690.8</ele><time>2023-09-10T19:42:13.000Z</time></trkpt>
   <trkpt lat="19.099677" lon="-98.634880"><ele>3691.4</ele><time>2023-09-10T19:43:19.000Z</time></trkpt>
   <trkpt lat="19.099980" lon="-98.635183"><ele>3692.0</ele><time>2023-09-10T19:43:56.000Z</time></trkpt>
   <trkpt lat="19.099835" lon="-98.635510"><ele>3690.2</ele><time>2023-09-10T19:44:25.000Z</time></trkpt>
   <trkpt lat="19.099860" lon="-98.636592"><ele>3684.7</ele><time>2023-09-10T19:45:48.000Z</time></trkpt>
   <trkpt lat="19.099744" lon="-98.637684"><ele>3678.7</ele><time>2023-09-10T19:47:12.000Z</time></trkpt>
   <trkpt lat="19.099874" lon="-98.639198"><ele>3672.5</ele><time>2023-09-10T19:49:08.000Z</time></trkpt>
   <trkpt lat="19.099685" lon="-98.639878"><ele>3668.3</ele><time>2023-09-10T19:50:08.000Z</time></trkpt>
   <trkpt lat="19.099772" lon="-98.640173"><ele>3665.5</ele><time>2023-09-10T19:50:32.000Z</time></trkpt>
   <trkpt lat="19.100035" lon="-98.640450"><ele>3662.1</ele><time>2023-09-10T19:51:01.000Z</time></trkpt>
   <trkpt lat="19.100026" lon="-98.640600"><ele>3660.9</ele><time>2023-09-10T19:51:13.000Z</time></trkpt>
   <trkpt lat="19.099704" lon="-98.640579"><ele>3660.4</ele><time>2023-09-10T19:51:49.000Z</time></trkpt>
   <trkpt lat="19.099684" lon="-98.640643"><ele>3660.6</ele><time>2023-09-10T19:53:01.000Z</time></trkpt>
   <trkpt lat="19.099322" lon="-98.640686"><ele>3664.2</ele><time>2023-09-10T20:03:48.000Z</time></trkpt>
   <trkpt lat="19.098982" lon="-98.640506"><ele>3666.8</ele><time>2023-09-10T20:04:23.000Z</time></trkpt>
   <trkpt lat="19.098355" lon="-98.640426"><ele>3668.3</ele><time>2023-09-10T20:05:12.000Z</time></trkpt>
   <trkpt lat="19.097017" lon="-98.640659"><ele>3676.5</ele><time>2023-09-10T20:07:10.000Z</time></trkpt>
   <trkpt lat="19.096533" lon="-98.641350"><ele>3673.9</ele><time>2023-09-10T20:08:16.000Z</time></trkpt>
   <trkpt lat="19.095296" lon="-98.642522"><ele>3667.9</ele><time>2023-09-10T20:10:26.000Z</time></trkpt>
   <trkpt lat="19.094809" lon="-98.643203"><ele>3666.5</ele><time>2023-09-10T20:11:32.000Z</time></trkpt>
   <trkpt lat="19.094356" lon="-98.643674"><ele>3665.7</ele><time>2023-09-10T20:12:24.000Z</time></trkpt>
   <trkpt lat="19.093627" lon="-98.644249"><ele>3664.8</ele><time>2023-09-10T20:13:36.000Z</time></trkpt>
   <trkpt lat="19.092967" lon="-98.644450"><ele>3664.9</ele><time>2023-09-10T20:14:33.000Z</time></trkpt>
   <trkpt lat="19.091580" lon="-98.644529"><ele>3667.0</ele><time>2023-09-10T20:16:25.000Z</time></trkpt>
   <trkpt lat="19.089712" lon="-98.645237"><ele>3674.1</ele><time>2023-09-10T20:19:04.000Z</time></trkpt>
   <trkpt lat="19.089195" lon="-98.645364"><ele>3675.9</ele><time>2023-09-10T20:19:45.000Z</time></trkpt>
   <trkpt lat="19.088706" lon="-98.645588"><ele>3677.6</ele><time>2023-09-10T20:20:26.000Z</time></trkpt>
   <trkpt lat="19.087301" lon="-98.646519"><ele>3681.5</ele><time>2023-09-10T20:22:41.000Z</time></trkpt>
  </trkseg>
 </trk>
</gpx>
