<?xml version="1.0" encoding="UTF-8"?>
<gpx version="1.1" creator="Strava (via strava-mcp)" xmlns="http://www.topografix.com/GPX/1/1">
 <metadata><name>Pico de Orizaba</name><time>2018-11-24T06:37:55.000Z</time></metadata>
 <trk>
  <name>Pico de Orizaba</name>
  <type>Hike</type>
  <trkseg>
   <trkpt lat="19.057602" lon="-97.269785"><ele>4253.2</ele><time>2018-11-24T06:37:55.000Z</time></trkpt>
   <trkpt lat="19.057681" lon="-97.269710"><ele>4253.6</ele><time>2018-11-24T06:38:36.000Z</time></trkpt>
   <trkpt lat="19.057718" lon="-97.269757"><ele>4254.3</ele><time>2018-11-24T06:38:54.000Z</time></trkpt>
   <trkpt lat="19.057622" lon="-97.269719"><ele>4256.2</ele><time>2018-11-24T06:41:23.000Z</time></trkpt>
   <trkpt lat="19.057615" lon="-97.269878"><ele>4261.7</ele><time>2018-11-24T06:41:48.000Z</time></trkpt>
   <trkpt lat="19.057186" lon="-97.270021"><ele>4271.6</ele><time>2018-11-24T06:43:29.000Z</time></trkpt>
   <trkpt lat="19.056767" lon="-97.270089"><ele>4285.3</ele><time>2018-11-24T06:45:55.000Z</time></trkpt>
   <trkpt lat="19.056525" lon="-97.270036"><ele>4293.8</ele><time>2018-11-24T06:46:36.000Z</time></trkpt>
   <trkpt lat="19.056265" lon="-97.270151"><ele>4304.1</ele><time>2018-11-24T06:47:38.000Z</time></trkpt>
   <trkpt lat="19.056131" lon="-97.270083"><ele>4307.2</ele><time>2018-11-24T06:48:28.000Z</time></trkpt>
   <trkpt lat="19.056070" lon="-97.270152"><ele>4308.7</ele><time>2018-11-24T06:48:33.000Z</time></trkpt>
   <trkpt lat="19.055888" lon="-97.270009"><ele>4312.3</ele><time>2018-11-24T06:49:12.000Z</time></trkpt>
   <trkpt lat="19.055809" lon="-97.270113"><ele>4316.9</ele><time>2018-11-24T06:49:23.000Z</time></trkpt>
   <trkpt lat="19.055851" lon="-97.270005"><ele>4321.9</ele><time>2018-11-24T06:49:44.000Z</time></trkpt>
   <trkpt lat="19.055658" lon="-97.270052"><ele>4328.0</ele><time>2018-11-24T06:50:12.000Z</time></trkpt>
   <trkpt lat="19.055348" lon="-97.269949"><ele>4335.6</ele><time>2018-11-24T06:52:08.000Z</time></trkpt>
   <trkpt lat="19.055343" lon="-97.270008"><ele>4338.1</ele><time>2018-11-24T06:52:22.000Z</time></trkpt>
   <trkpt lat="19.055144" lon="-97.269972"><ele>4348.5</ele><time>2018-11-24T06:53:41.000Z</time></trkpt>
   <trkpt lat="19.055070" lon="-97.270101"><ele>4352.4</ele><time>2018-11-24T06:55:01.000Z</time></trkpt>
   <trkpt lat="19.054879" lon="-97.270151"><ele>4363.8</ele><time>2018-11-24T06:56:34.000Z</time></trkpt>
   <trkpt lat="19.054559" lon="-97.270006"><ele>4377.8</ele><time>2018-11-24T06:58:53.000Z</time></trkpt>
   <trkpt lat="19.054499" lon="-97.270144"><ele>4383.7</ele><time>2018-11-24T06:59:44.000Z</time></trkpt>
   <trkpt lat="19.054012" lon="-97.270011"><ele>4416.6</ele><time>2018-11-24T07:04:45.000Z</time></trkpt>
   <trkpt lat="19.053970" lon="-97.270122"><ele>4422.4</ele><time>2018-11-24T07:05:26.000Z</time></trkpt>
   <trkpt lat="19.053789" lon="-97.270113"><ele>4430.1</ele><time>2018-11-24T07:07:23.000Z</time></trkpt>
   <trkpt lat="19.053700" lon="-97.270267"><ele>4435.6</ele><time>2018-11-24T07:10:36.000Z</time></trkpt>
   <trkpt lat="19.053596" lon="-97.270225"><ele>4438.9</ele><time>2018-11-24T07:11:17.000Z</time></trkpt>
   <trkpt lat="19.053297" lon="-97.270494"><ele>4458.0</ele><time>2018-11-24T07:14:50.000Z</time></trkpt>
   <trkpt lat="19.053052" lon="-97.270600"><ele>4479.2</ele><time>2018-11-24T07:17:04.000Z</time></trkpt>
   <trkpt lat="19.052826" lon="-97.270940"><ele>4501.9</ele><time>2018-11-24T07:21:15.000Z</time></trkpt>
   <trkpt lat="19.052824" lon="-97.271058"><ele>4507.3</ele><time>2018-11-24T07:22:19.000Z</time></trkpt>
   <trkpt lat="19.052580" lon="-97.271158"><ele>4520.0</ele><time>2018-11-24T07:24:14.000Z</time></trkpt>
   <trkpt lat="19.052429" lon="-97.271062"><ele>4518.3</ele><time>2018-11-24T07:25:35.000Z</time></trkpt>
   <trkpt lat="19.052044" lon="-97.271004"><ele>4527.1</ele><time>2018-11-24T07:28:51.000Z</time></trkpt>
   <trkpt lat="19.051980" lon="-97.271128"><ele>4533.3</ele><time>2018-11-24T07:29:21.000Z</time></trkpt>
   <trkpt lat="19.051345" lon="-97.271174"><ele>4564.6</ele><time>2018-11-24T07:34:10.000Z</time></trkpt>
   <trkpt lat="19.051028" lon="-97.270981"><ele>4564.1</ele><time>2018-11-24T07:36:52.000Z</time></trkpt>
   <trkpt lat="19.050917" lon="-97.271079"><ele>4574.0</ele><time>2018-11-24T07:37:37.000Z</time></trkpt>
   <trkpt lat="19.050613" lon="-97.271008"><ele>4592.8</ele><time>2018-11-24T07:40:08.000Z</time></trkpt>
   <trkpt lat="19.050443" lon="-97.270740"><ele>4594.7</ele><time>2018-11-24T07:41:30.000Z</time></trkpt>
   <trkpt lat="19.050308" lon="-97.270685"><ele>4597.2</ele><time>2018-11-24T07:42:16.000Z</time></trkpt>
   <trkpt lat="19.049320" lon="-97.270763"><ele>4630.8</ele><time>2018-11-24T07:47:21.000Z</time></trkpt>
   <trkpt lat="19.049031" lon="-97.270890"><ele>4645.6</ele><time>2018-11-24T07:48:51.000Z</time></trkpt>
   <trkpt lat="19.048801" lon="-97.270776"><ele>4656.7</ele><time>2018-11-24T07:50:33.000Z</time></trkpt>
   <trkpt lat="19.048719" lon="-97.270841"><ele>4658.7</ele><time>2018-11-24T07:51:01.000Z</time></trkpt>
   <trkpt lat="19.048563" lon="-97.270816"><ele>4661.8</ele><time>2018-11-24T07:52:10.000Z</time></trkpt>
   <trkpt lat="19.048298" lon="-97.270683"><ele>4666.0</ele><time>2018-11-24T07:53:48.000Z</time></trkpt>
   <trkpt lat="19.048276" lon="-97.270777"><ele>4666.7</ele><time>2018-11-24T07:54:24.000Z</time></trkpt>
   <trkpt lat="19.048333" lon="-97.270672"><ele>4665.3</ele><time>2018-11-24T08:00:08.000Z</time></trkpt>
   <trkpt lat="19.048289" lon="-97.270752"><ele>4666.1</ele><time>2018-11-24T08:01:58.000Z</time></trkpt>
   <trkpt lat="19.048189" lon="-97.270640"><ele>4669.0</ele><time>2018-11-24T08:03:51.000Z</time></trkpt>
   <trkpt lat="19.048297" lon="-97.270372"><ele>4665.4</ele><time>2018-11-24T08:05:22.000Z</time></trkpt>
   <trkpt lat="19.048064" lon="-97.270220"><ele>4673.8</ele><time>2018-11-24T08:06:37.000Z</time></trkpt>
   <trkpt lat="19.048005" lon="-97.270081"><ele>4674.2</ele><time>2018-11-24T08:07:02.000Z</time></trkpt>
   <trkpt lat="19.047825" lon="-97.270075"><ele>4682.0</ele><time>2018-11-24T08:07:51.000Z</time></trkpt>
   <trkpt lat="19.047729" lon="-97.269957"><ele>4684.5</ele><time>2018-11-24T08:08:46.000Z</time></trkpt>
   <trkpt lat="19.047474" lon="-97.269939"><ele>4697.4</ele><time>2018-11-24T08:10:26.000Z</time></trkpt>
   <trkpt lat="19.047446" lon="-97.270087"><ele>4697.6</ele><time>2018-11-24T08:11:20.000Z</time></trkpt>
   <trkpt lat="19.047266" lon="-97.270151"><ele>4702.8</ele><time>2018-11-24T08:13:14.000Z</time></trkpt>
   <trkpt lat="19.047076" lon="-97.269965"><ele>4710.1</ele><time>2018-11-24T08:15:47.000Z</time></trkpt>
   <trkpt lat="19.046898" lon="-97.269959"><ele>4719.9</ele><time>2018-11-24T08:17:23.000Z</time></trkpt>
   <trkpt lat="19.046699" lon="-97.269794"><ele>4727.6</ele><time>2018-11-24T08:19:17.000Z</time></trkpt>
   <trkpt lat="19.046433" lon="-97.269942"><ele>4740.5</ele><time>2018-11-24T08:21:51.000Z</time></trkpt>
   <trkpt lat="19.046078" lon="-97.269955"><ele>4755.3</ele><time>2018-11-24T08:24:38.000Z</time></trkpt>
   <trkpt lat="19.045945" lon="-97.270062"><ele>4759.4</ele><time>2018-11-24T08:25:36.000Z</time></trkpt>
   <trkpt lat="19.045883" lon="-97.269879"><ele>4764.3</ele><time>2018-11-24T08:26:16.000Z</time></trkpt>
   <trkpt lat="19.045770" lon="-97.269901"><ele>4769.7</ele><time>2018-11-24T08:26:34.000Z</time></trkpt>
   <trkpt lat="19.045797" lon="-97.269847"><ele>4768.4</ele><time>2018-11-24T08:28:01.000Z</time></trkpt>
   <trkpt lat="19.045684" lon="-97.269760"><ele>4773.4</ele><time>2018-11-24T08:45:13.000Z</time></trkpt>
   <trkpt lat="19.045139" lon="-97.269579"><ele>4795.9</ele><time>2018-11-24T08:51:09.000Z</time></trkpt>
   <trkpt lat="19.045060" lon="-97.269619"><ele>4797.9</ele><time>2018-11-24T08:51:20.000Z</time></trkpt>
   <trkpt lat="19.045059" lon="-97.269531"><ele>4798.9</ele><time>2018-11-24T08:51:49.000Z</time></trkpt>
   <trkpt lat="19.044842" lon="-97.269507"><ele>4806.0</ele><time>2018-11-24T08:54:42.000Z</time></trkpt>
   <trkpt lat="19.044794" lon="-97.269411"><ele>4809.2</ele><time>2018-11-24T08:54:48.000Z</time></trkpt>
   <trkpt lat="19.044617" lon="-97.269462"><ele>4815.1</ele><time>2018-11-24T08:55:02.000Z</time></trkpt>
   <trkpt lat="19.044407" lon="-97.269380"><ele>4826.3</ele><time>2018-11-24T08:58:06.000Z</time></trkpt>
   <trkpt lat="19.044322" lon="-97.269439"><ele>4830.0</ele><time>2018-11-24T08:58:12.000Z</time></trkpt>
   <trkpt lat="19.044272" lon="-97.269362"><ele>4834.1</ele><time>2018-11-24T08:58:30.000Z</time></trkpt>
   <trkpt lat="19.044211" lon="-97.269441"><ele>4839.2</ele><time>2018-11-24T08:59:35.000Z</time></trkpt>
   <trkpt lat="19.043928" lon="-97.269220"><ele>4852.9</ele><time>2018-11-24T09:02:09.000Z</time></trkpt>
   <trkpt lat="19.043843" lon="-97.269244"><ele>4855.9</ele><time>2018-11-24T09:02:42.000Z</time></trkpt>
   <trkpt lat="19.043836" lon="-97.269063"><ele>4859.8</ele><time>2018-11-24T09:03:52.000Z</time></trkpt>
   <trkpt lat="19.043900" lon="-97.269183"><ele>4865.5</ele><time>2018-11-24T09:04:01.000Z</time></trkpt>
   <trkpt lat="19.043696" lon="-97.269174"><ele>4874.5</ele><time>2018-11-24T09:05:07.000Z</time></trkpt>
   <trkpt lat="19.043697" lon="-97.268996"><ele>4884.9</ele><time>2018-11-24T09:06:11.000Z</time></trkpt>
   <trkpt lat="19.043348" lon="-97.269068"><ele>4904.8</ele><time>2018-11-24T09:12:12.000Z</time></trkpt>
   <trkpt lat="19.043123" lon="-97.268923"><ele>4913.1</ele><time>2018-11-24T09:13:21.000Z</time></trkpt>
   <trkpt lat="19.043102" lon="-97.268795"><ele>4916.9</ele><time>2018-11-24T09:14:31.000Z</time></trkpt>
   <trkpt lat="19.042855" lon="-97.268796"><ele>4928.2</ele><time>2018-11-24T09:17:49.000Z</time></trkpt>
   <trkpt lat="19.042878" lon="-97.268671"><ele>4933.4</ele><time>2018-11-24T09:18:27.000Z</time></trkpt>
   <trkpt lat="19.042745" lon="-97.268844"><ele>4941.3</ele><time>2018-11-24T09:18:54.000Z</time></trkpt>
   <trkpt lat="19.042691" lon="-97.268625"><ele>4947.6</ele><time>2018-11-24T09:20:20.000Z</time></trkpt>
   <trkpt lat="19.042602" lon="-97.268611"><ele>4952.4</ele><time>2018-11-24T09:21:15.000Z</time></trkpt>
   <trkpt lat="19.042532" lon="-97.268741"><ele>4955.9</ele><time>2018-11-24T09:21:30.000Z</time></trkpt>
   <trkpt lat="19.042492" lon="-97.268696"><ele>4959.4</ele><time>2018-11-24T09:22:14.000Z</time></trkpt>
   <trkpt lat="19.042310" lon="-97.268822"><ele>4966.9</ele><time>2018-11-24T09:22:49.000Z</time></trkpt>
   <trkpt lat="19.042340" lon="-97.268751"><ele>4968.5</ele><time>2018-11-24T09:22:56.000Z</time></trkpt>
   <trkpt lat="19.042234" lon="-97.268769"><ele>4976.3</ele><time>2018-11-24T09:24:14.000Z</time></trkpt>
   <trkpt lat="19.042039" lon="-97.268930"><ele>4985.8</ele><time>2018-11-24T09:26:45.000Z</time></trkpt>
   <trkpt lat="19.041943" lon="-97.268862"><ele>4990.8</ele><time>2018-11-24T09:28:03.000Z</time></trkpt>
   <trkpt lat="19.041712" lon="-97.269037"><ele>4999.8</ele><time>2018-11-24T09:30:35.000Z</time></trkpt>
   <trkpt lat="19.041687" lon="-97.269143"><ele>5002.3</ele><time>2018-11-24T09:35:03.000Z</time></trkpt>
   <trkpt lat="19.041679" lon="-97.269036"><ele>5008.1</ele><time>2018-11-24T09:41:50.000Z</time></trkpt>
   <trkpt lat="19.041660" lon="-97.269112"><ele>5011.5</ele><time>2018-11-24T09:43:15.000Z</time></trkpt>
   <trkpt lat="19.041554" lon="-97.269062"><ele>5014.8</ele><time>2018-11-24T09:45:10.000Z</time></trkpt>
   <trkpt lat="19.041292" lon="-97.269143"><ele>5025.2</ele><time>2018-11-24T09:47:39.000Z</time></trkpt>
   <trkpt lat="19.041171" lon="-97.269354"><ele>5033.3</ele><time>2018-11-24T09:50:11.000Z</time></trkpt>
   <trkpt lat="19.040666" lon="-97.269604"><ele>5051.8</ele><time>2018-11-24T09:55:36.000Z</time></trkpt>
   <trkpt lat="19.040265" lon="-97.270037"><ele>5075.9</ele><time>2018-11-24T09:59:12.000Z</time></trkpt>
   <trkpt lat="19.040228" lon="-97.270115"><ele>5078.7</ele><time>2018-11-24T09:59:55.000Z</time></trkpt>
   <trkpt lat="19.040346" lon="-97.270427"><ele>5084.7</ele><time>2018-11-24T10:15:54.000Z</time></trkpt>
   <trkpt lat="19.040342" lon="-97.270231"><ele>5079.8</ele><time>2018-11-24T10:29:29.000Z</time></trkpt>
   <trkpt lat="19.040183" lon="-97.270448"><ele>5088.9</ele><time>2018-11-24T10:34:18.000Z</time></trkpt>
   <trkpt lat="19.040215" lon="-97.270360"><ele>5086.5</ele><time>2018-11-24T10:34:30.000Z</time></trkpt>
   <trkpt lat="19.040066" lon="-97.270351"><ele>5089.4</ele><time>2018-11-24T10:34:51.000Z</time></trkpt>
   <trkpt lat="19.040040" lon="-97.270212"><ele>5087.8</ele><time>2018-11-24T10:35:05.000Z</time></trkpt>
   <trkpt lat="19.039883" lon="-97.270558"><ele>5099.3</ele><time>2018-11-24T10:35:29.000Z</time></trkpt>
   <trkpt lat="19.039931" lon="-97.270456"><ele>5094.7</ele><time>2018-11-24T10:35:38.000Z</time></trkpt>
   <trkpt lat="19.039873" lon="-97.270473"><ele>5098.0</ele><time>2018-11-24T10:36:47.000Z</time></trkpt>
   <trkpt lat="19.039627" lon="-97.270750"><ele>5115.1</ele><time>2018-11-24T10:38:48.000Z</time></trkpt>
   <trkpt lat="19.039539" lon="-97.270562"><ele>5115.4</ele><time>2018-11-24T10:40:06.000Z</time></trkpt>
   <trkpt lat="19.039395" lon="-97.270827"><ele>5129.4</ele><time>2018-11-24T10:41:30.000Z</time></trkpt>
   <trkpt lat="19.039262" lon="-97.270811"><ele>5132.2</ele><time>2018-11-24T10:42:39.000Z</time></trkpt>
   <trkpt lat="19.039095" lon="-97.271172"><ele>5140.0</ele><time>2018-11-24T10:44:33.000Z</time></trkpt>
   <trkpt lat="19.038787" lon="-97.270973"><ele>5147.7</ele><time>2018-11-24T10:47:15.000Z</time></trkpt>
   <trkpt lat="19.038614" lon="-97.271295"><ele>5157.7</ele><time>2018-11-24T10:50:38.000Z</time></trkpt>
   <trkpt lat="19.038451" lon="-97.271267"><ele>5162.2</ele><time>2018-11-24T10:52:20.000Z</time></trkpt>
   <trkpt lat="19.038372" lon="-97.271333"><ele>5166.2</ele><time>2018-11-24T10:53:55.000Z</time></trkpt>
   <trkpt lat="19.038169" lon="-97.271224"><ele>5176.1</ele><time>2018-11-24T10:56:24.000Z</time></trkpt>
   <trkpt lat="19.037930" lon="-97.271743"><ele>5191.3</ele><time>2018-11-24T11:00:17.000Z</time></trkpt>
   <trkpt lat="19.037210" lon="-97.271027"><ele>5219.8</ele><time>2018-11-24T11:10:51.000Z</time></trkpt>
   <trkpt lat="19.036803" lon="-97.271424"><ele>5242.0</ele><time>2018-11-24T11:17:49.000Z</time></trkpt>
   <trkpt lat="19.036575" lon="-97.271009"><ele>5249.1</ele><time>2018-11-24T11:25:23.000Z</time></trkpt>
   <trkpt lat="19.036075" lon="-97.271316"><ele>5272.3</ele><time>2018-11-24T11:31:53.000Z</time></trkpt>
   <trkpt lat="19.035829" lon="-97.270979"><ele>5289.4</ele><time>2018-11-24T11:38:26.000Z</time></trkpt>
   <trkpt lat="19.035590" lon="-97.271077"><ele>5301.7</ele><time>2018-11-24T11:42:15.000Z</time></trkpt>
   <trkpt lat="19.035509" lon="-97.270853"><ele>5310.9</ele><time>2018-11-24T11:46:09.000Z</time></trkpt>
   <trkpt lat="19.035400" lon="-97.270811"><ele>5316.6</ele><time>2018-11-24T11:48:07.000Z</time></trkpt>
   <trkpt lat="19.035189" lon="-97.270878"><ele>5324.0</ele><time>2018-11-24T11:51:43.000Z</time></trkpt>
   <trkpt lat="19.035121" lon="-97.270983"><ele>5328.8</ele><time>2018-11-24T11:55:09.000Z</time></trkpt>
   <trkpt lat="19.034799" lon="-97.271050"><ele>5348.2</ele><time>2018-11-24T12:01:54.000Z</time></trkpt>
   <trkpt lat="19.034711" lon="-97.271154"><ele>5347.2</ele><time>2018-11-24T12:03:06.000Z</time></trkpt>
   <trkpt lat="19.034686" lon="-97.271022"><ele>5357.4</ele><time>2018-11-24T12:05:02.000Z</time></trkpt>
   <trkpt lat="19.034564" lon="-97.270995"><ele>5369.2</ele><time>2018-11-24T12:05:20.000Z</time></trkpt>
   <trkpt lat="19.034497" lon="-97.270762"><ele>5379.9</ele><time>2018-11-24T12:09:04.000Z</time></trkpt>
   <trkpt lat="19.034381" lon="-97.270802"><ele>5385.6</ele><time>2018-11-24T12:11:00.000Z</time></trkpt>
   <trkpt lat="19.034253" lon="-97.270723"><ele>5391.4</ele><time>2018-11-24T12:13:14.000Z</time></trkpt>
   <trkpt lat="19.034316" lon="-97.270674"><ele>5392.0</ele><time>2018-11-24T12:14:30.000Z</time></trkpt>
   <trkpt lat="19.034095" lon="-97.270673"><ele>5402.8</ele><time>2018-11-24T12:18:26.000Z</time></trkpt>
   <trkpt lat="19.033913" lon="-97.270224"><ele>5425.6</ele><time>2018-11-24T12:30:01.000Z</time></trkpt>
   <trkpt lat="19.033656" lon="-97.270235"><ele>5445.8</ele><time>2018-11-24T12:34:31.000Z</time></trkpt>
   <trkpt lat="19.033525" lon="-97.270334"><ele>5449.9</ele><time>2018-11-24T12:37:22.000Z</time></trkpt>
   <trkpt lat="19.033447" lon="-97.270304"><ele>5461.5</ele><time>2018-11-24T12:37:47.000Z</time></trkpt>
   <trkpt lat="19.033447" lon="-97.270376"><ele>5447.6</ele><time>2018-11-24T12:41:17.000Z</time></trkpt>
   <trkpt lat="19.033346" lon="-97.270246"><ele>5477.3</ele><time>2018-11-24T12:44:21.000Z</time></trkpt>
   <trkpt lat="19.033302" lon="-97.270341"><ele>5465.7</ele><time>2018-11-24T12:45:35.000Z</time></trkpt>
   <trkpt lat="19.033184" lon="-97.270265"><ele>5482.9</ele><time>2018-11-24T12:52:17.000Z</time></trkpt>
   <trkpt lat="19.033172" lon="-97.270090"><ele>5488.6</ele><time>2018-11-24T12:54:24.000Z</time></trkpt>
   <trkpt lat="19.032999" lon="-97.270179"><ele>5484.6</ele><time>2018-11-24T12:57:29.000Z</time></trkpt>
   <trkpt lat="19.032952" lon="-97.269985"><ele>5494.0</ele><time>2018-11-24T13:00:23.000Z</time></trkpt>
   <trkpt lat="19.032862" lon="-97.269927"><ele>5506.0</ele><time>2018-11-24T13:02:23.000Z</time></trkpt>
   <trkpt lat="19.032801" lon="-97.269997"><ele>5504.2</ele><time>2018-11-24T13:04:07.000Z</time></trkpt>
   <trkpt lat="19.032507" lon="-97.269975"><ele>5531.4</ele><time>2018-11-24T13:08:30.000Z</time></trkpt>
   <trkpt lat="19.032515" lon="-97.269883"><ele>5535.2</ele><time>2018-11-24T13:09:40.000Z</time></trkpt>
   <trkpt lat="19.032446" lon="-97.269929"><ele>5537.2</ele><time>2018-11-24T13:10:55.000Z</time></trkpt>
   <trkpt lat="19.032416" lon="-97.269825"><ele>5540.7</ele><time>2018-11-24T13:12:56.000Z</time></trkpt>
   <trkpt lat="19.032287" lon="-97.269870"><ele>5541.7</ele><time>2018-11-24T13:15:15.000Z</time></trkpt>
   <trkpt lat="19.032191" lon="-97.269608"><ele>5541.2</ele><time>2018-11-24T13:19:57.000Z</time></trkpt>
   <trkpt lat="19.032000" lon="-97.269412"><ele>5532.0</ele><time>2018-11-24T13:24:59.000Z</time></trkpt>
   <trkpt lat="19.031395" lon="-97.269769"><ele>5531.0</ele><time>2018-11-24T13:34:21.000Z</time></trkpt>
   <trkpt lat="19.031006" lon="-97.269705"><ele>5543.7</ele><time>2018-11-24T13:38:43.000Z</time></trkpt>
   <trkpt lat="19.030608" lon="-97.269939"><ele>5568.3</ele><time>2018-11-24T13:41:02.000Z</time></trkpt>
   <trkpt lat="19.030215" lon="-97.269835"><ele>5582.5</ele><time>2018-11-24T14:11:23.000Z</time></trkpt>
   <trkpt lat="19.030271" lon="-97.269907"><ele>5582.7</ele><time>2018-11-24T14:23:23.000Z</time></trkpt>
   <trkpt lat="19.030373" lon="-97.269886"><ele>5582.5</ele><time>2018-11-24T14:41:32.000Z</time></trkpt>
   <trkpt lat="19.030232" lon="-97.269992"><ele>5583.0</ele><time>2018-11-24T14:43:40.000Z</time></trkpt>
   <trkpt lat="19.030555" lon="-97.270270"><ele>5591.2</ele><time>2018-11-24T14:45:35.000Z</time></trkpt>
   <trkpt lat="19.031083" lon="-97.270329"><ele>5577.8</ele><time>2018-11-24T14:48:49.000Z</time></trkpt>
   <trkpt lat="19.031565" lon="-97.270239"><ele>5569.3</ele><time>2018-11-24T14:51:14.000Z</time></trkpt>
   <trkpt lat="19.032194" lon="-97.270444"><ele>5521.3</ele><time>2018-11-24T14:55:49.000Z</time></trkpt>
   <trkpt lat="19.033031" lon="-97.270533"><ele>5469.0</ele><time>2018-11-24T15:03:08.000Z</time></trkpt>
   <trkpt lat="19.032986" lon="-97.270568"><ele>5466.7</ele><time>2018-11-24T15:03:40.000Z</time></trkpt>
   <trkpt lat="19.033122" lon="-97.270606"><ele>5439.6</ele><time>2018-11-24T15:04:48.000Z</time></trkpt>
   <trkpt lat="19.033335" lon="-97.270579"><ele>5414.7</ele><time>2018-11-24T15:05:46.000Z</time></trkpt>
   <trkpt lat="19.033404" lon="-97.270599"><ele>5408.8</ele><time>2018-11-24T15:06:37.000Z</time></trkpt>
   <trkpt lat="19.033244" lon="-97.270658"><ele>5408.1</ele><time>2018-11-24T15:07:02.000Z</time></trkpt>
   <trkpt lat="19.034038" lon="-97.270642"><ele>5407.6</ele><time>2018-11-24T15:12:35.000Z</time></trkpt>
   <trkpt lat="19.034318" lon="-97.270556"><ele>5393.5</ele><time>2018-11-24T15:17:39.000Z</time></trkpt>
   <trkpt lat="19.034381" lon="-97.270614"><ele>5388.8</ele><time>2018-11-24T15:19:09.000Z</time></trkpt>
   <trkpt lat="19.034522" lon="-97.270534"><ele>5382.8</ele><time>2018-11-24T15:21:46.000Z</time></trkpt>
   <trkpt lat="19.034775" lon="-97.271132"><ele>5346.1</ele><time>2018-11-24T15:26:01.000Z</time></trkpt>
   <trkpt lat="19.035464" lon="-97.270797"><ele>5313.7</ele><time>2018-11-24T15:30:27.000Z</time></trkpt>
   <trkpt lat="19.035674" lon="-97.271033"><ele>5295.5</ele><time>2018-11-24T15:31:58.000Z</time></trkpt>
   <trkpt lat="19.035998" lon="-97.271141"><ele>5275.6</ele><time>2018-11-24T15:33:41.000Z</time></trkpt>
   <trkpt lat="19.037358" lon="-97.271170"><ele>5218.6</ele><time>2018-11-24T15:44:56.000Z</time></trkpt>
   <trkpt lat="19.037759" lon="-97.271094"><ele>5194.2</ele><time>2018-11-24T15:46:15.000Z</time></trkpt>
   <trkpt lat="19.038710" lon="-97.270616"><ele>5144.4</ele><time>2018-11-24T15:51:23.000Z</time></trkpt>
   <trkpt lat="19.039320" lon="-97.270236"><ele>5117.0</ele><time>2018-11-24T15:53:40.000Z</time></trkpt>
   <trkpt lat="19.039605" lon="-97.269867"><ele>5092.9</ele><time>2018-11-24T15:54:51.000Z</time></trkpt>
   <trkpt lat="19.040181" lon="-97.270037"><ele>5071.7</ele><time>2018-11-24T15:57:45.000Z</time></trkpt>
   <trkpt lat="19.040109" lon="-97.269960"><ele>5071.0</ele><time>2018-11-24T16:02:45.000Z</time></trkpt>
   <trkpt lat="19.040215" lon="-97.269952"><ele>5066.3</ele><time>2018-11-24T16:14:50.000Z</time></trkpt>
   <trkpt lat="19.040151" lon="-97.269988"><ele>5068.6</ele><time>2018-11-24T16:20:28.000Z</time></trkpt>
   <trkpt lat="19.040325" lon="-97.270084"><ele>5068.2</ele><time>2018-11-24T16:22:33.000Z</time></trkpt>
   <trkpt lat="19.040601" lon="-97.269985"><ele>5056.1</ele><time>2018-11-24T16:23:22.000Z</time></trkpt>
   <trkpt lat="19.040914" lon="-97.269743"><ele>5037.2</ele><time>2018-11-24T16:24:56.000Z</time></trkpt>
   <trkpt lat="19.040998" lon="-97.269773"><ele>5033.1</ele><time>2018-11-24T16:25:13.000Z</time></trkpt>
   <trkpt lat="19.041608" lon="-97.269553"><ele>5006.1</ele><time>2018-11-24T16:28:52.000Z</time></trkpt>
   <trkpt lat="19.041578" lon="-97.269490"><ele>5005.4</ele><time>2018-11-24T16:29:04.000Z</time></trkpt>
   <trkpt lat="19.041883" lon="-97.269283"><ele>4986.8</ele><time>2018-11-24T16:30:02.000Z</time></trkpt>
   <trkpt lat="19.041810" lon="-97.269275"><ele>4990.1</ele><time>2018-11-24T16:30:08.000Z</time></trkpt>
   <trkpt lat="19.041997" lon="-97.269108"><ele>4977.0</ele><time>2018-11-24T16:31:14.000Z</time></trkpt>
   <trkpt lat="19.041935" lon="-97.269093"><ele>4978.6</ele><time>2018-11-24T16:31:18.000Z</time></trkpt>
   <trkpt lat="19.041968" lon="-97.269028"><ele>4974.6</ele><time>2018-11-24T16:32:17.000Z</time></trkpt>
   <trkpt lat="19.042275" lon="-97.268971"><ele>4956.9</ele><time>2018-11-24T16:33:26.000Z</time></trkpt>
   <trkpt lat="19.042540" lon="-97.268728"><ele>4942.2</ele><time>2018-11-24T16:34:35.000Z</time></trkpt>
   <trkpt lat="19.042697" lon="-97.268706"><ele>4936.3</ele><time>2018-11-24T16:35:29.000Z</time></trkpt>
   <trkpt lat="19.043412" lon="-97.268749"><ele>4895.2</ele><time>2018-11-24T16:45:43.000Z</time></trkpt>
   <trkpt lat="19.043487" lon="-97.268785"><ele>4891.6</ele><time>2018-11-24T16:46:03.000Z</time></trkpt>
   <trkpt lat="19.043407" lon="-97.268888"><ele>4895.0</ele><time>2018-11-24T16:47:19.000Z</time></trkpt>
   <trkpt lat="19.043457" lon="-97.268819"><ele>4893.1</ele><time>2018-11-24T16:47:50.000Z</time></trkpt>
   <trkpt lat="19.043780" lon="-97.268788"><ele>4873.2</ele><time>2018-11-24T16:49:13.000Z</time></trkpt>
   <trkpt lat="19.043884" lon="-97.268846"><ele>4860.0</ele><time>2018-11-24T16:49:41.000Z</time></trkpt>
   <trkpt lat="19.043855" lon="-97.268895"><ele>4861.0</ele><time>2018-11-24T16:50:02.000Z</time></trkpt>
   <trkpt lat="19.044023" lon="-97.268879"><ele>4849.2</ele><time>2018-11-24T16:50:35.000Z</time></trkpt>
   <trkpt lat="19.043930" lon="-97.268930"><ele>4852.7</ele><time>2018-11-24T16:51:01.000Z</time></trkpt>
   <trkpt lat="19.044156" lon="-97.268748"><ele>4839.7</ele><time>2018-11-24T16:55:00.000Z</time></trkpt>
   <trkpt lat="19.044218" lon="-97.268852"><ele>4836.7</ele><time>2018-11-24T16:55:57.000Z</time></trkpt>
   <trkpt lat="19.044381" lon="-97.268803"><ele>4826.4</ele><time>2018-11-24T16:56:37.000Z</time></trkpt>
   <trkpt lat="19.044673" lon="-97.269178"><ele>4811.2</ele><time>2018-11-24T16:58:08.000Z</time></trkpt>
   <trkpt lat="19.045013" lon="-97.269291"><ele>4796.8</ele><time>2018-11-24T16:59:26.000Z</time></trkpt>
   <trkpt lat="19.045033" lon="-97.269415"><ele>4796.0</ele><time>2018-11-24T16:59:42.000Z</time></trkpt>
   <trkpt lat="19.045063" lon="-97.269359"><ele>4795.2</ele><time>2018-11-24T16:59:53.000Z</time></trkpt>
   <trkpt lat="19.045214" lon="-97.269515"><ele>4788.7</ele><time>2018-11-24T17:01:48.000Z</time></trkpt>
   <trkpt lat="19.045474" lon="-97.269602"><ele>4776.2</ele><time>2018-11-24T17:03:22.000Z</time></trkpt>
   <trkpt lat="19.045709" lon="-97.269602"><ele>4766.3</ele><time>2018-11-24T17:04:06.000Z</time></trkpt>
   <trkpt lat="19.045840" lon="-97.269847"><ele>4761.1</ele><time>2018-11-24T17:06:36.000Z</time></trkpt>
   <trkpt lat="19.045736" lon="-97.269815"><ele>4764.8</ele><time>2018-11-24T17:11:30.000Z</time></trkpt>
   <trkpt lat="19.045934" lon="-97.270020"><ele>4753.9</ele><time>2018-11-24T17:15:59.000Z</time></trkpt>
   <trkpt lat="19.046145" lon="-97.270000"><ele>4746.5</ele><time>2018-11-24T17:20:01.000Z</time></trkpt>
   <trkpt lat="19.046443" lon="-97.270152"><ele>4733.5</ele><time>2018-11-24T17:20:58.000Z</time></trkpt>
   <trkpt lat="19.046799" lon="-97.270109"><ele>4717.6</ele><time>2018-11-24T17:23:09.000Z</time></trkpt>
   <trkpt lat="19.046915" lon="-97.270019"><ele>4712.3</ele><time>2018-11-24T17:24:00.000Z</time></trkpt>
   <trkpt lat="19.047016" lon="-97.270147"><ele>4706.5</ele><time>2018-11-24T17:24:47.000Z</time></trkpt>
   <trkpt lat="19.046987" lon="-97.270028"><ele>4710.3</ele><time>2018-11-24T17:25:38.000Z</time></trkpt>
   <trkpt lat="19.047145" lon="-97.270074"><ele>4702.0</ele><time>2018-11-24T17:26:35.000Z</time></trkpt>
   <trkpt lat="19.047276" lon="-97.270023"><ele>4696.4</ele><time>2018-11-24T17:27:46.000Z</time></trkpt>
   <trkpt lat="19.047269" lon="-97.269961"><ele>4698.1</ele><time>2018-11-24T17:28:11.000Z</time></trkpt>
   <trkpt lat="19.047608" lon="-97.269996"><ele>4686.1</ele><time>2018-11-24T17:29:45.000Z</time></trkpt>
   <trkpt lat="19.048298" lon="-97.270322"><ele>4659.7</ele><time>2018-11-24T17:33:05.000Z</time></trkpt>
   <trkpt lat="19.048234" lon="-97.270320"><ele>4662.4</ele><time>2018-11-24T17:33:10.000Z</time></trkpt>
   <trkpt lat="19.048304" lon="-97.270355"><ele>4659.8</ele><time>2018-11-24T17:33:23.000Z</time></trkpt>
   <trkpt lat="19.048154" lon="-97.270611"><ele>4664.8</ele><time>2018-11-24T17:34:46.000Z</time></trkpt>
   <trkpt lat="19.048624" lon="-97.270869"><ele>4654.7</ele><time>2018-11-24T17:36:32.000Z</time></trkpt>
   <trkpt lat="19.048844" lon="-97.270836"><ele>4650.4</ele><time>2018-11-24T17:37:21.000Z</time></trkpt>
   <trkpt lat="19.048965" lon="-97.270929"><ele>4645.4</ele><time>2018-11-24T17:37:47.000Z</time></trkpt>
   <trkpt lat="19.049437" lon="-97.270810"><ele>4620.6</ele><time>2018-11-24T17:39:21.000Z</time></trkpt>
   <trkpt lat="19.049708" lon="-97.270920"><ele>4611.7</ele><time>2018-11-24T17:40:09.000Z</time></trkpt>
   <trkpt lat="19.050513" lon="-97.270869"><ele>4590.9</ele><time>2018-11-24T17:42:27.000Z</time></trkpt>
   <trkpt lat="19.050463" lon="-97.270938"><ele>4594.5</ele><time>2018-11-24T17:42:51.000Z</time></trkpt>
   <trkpt lat="19.050522" lon="-97.271078"><ele>4594.7</ele><time>2018-11-24T17:43:09.000Z</time></trkpt>
   <trkpt lat="19.050928" lon="-97.271086"><ele>4566.1</ele><time>2018-11-24T17:44:49.000Z</time></trkpt>
   <trkpt lat="19.051002" lon="-97.271003"><ele>4560.5</ele><time>2018-11-24T17:45:13.000Z</time></trkpt>
   <trkpt lat="19.051066" lon="-97.271053"><ele>4558.9</ele><time>2018-11-24T17:45:29.000Z</time></trkpt>
   <trkpt lat="19.051285" lon="-97.270976"><ele>4550.1</ele><time>2018-11-24T17:46:22.000Z</time></trkpt>
   <trkpt lat="19.051363" lon="-97.271136"><ele>4556.2</ele><time>2018-11-24T17:47:40.000Z</time></trkpt>
   <trkpt lat="19.051509" lon="-97.271205"><ele>4554.6</ele><time>2018-11-24T17:48:37.000Z</time></trkpt>
   <trkpt lat="19.051894" lon="-97.271065"><ele>4528.7</ele><time>2018-11-24T17:50:46.000Z</time></trkpt>
   <trkpt lat="19.052087" lon="-97.271112"><ele>4525.4</ele><time>2018-11-24T17:51:44.000Z</time></trkpt>
   <trkpt lat="19.052302" lon="-97.270962"><ele>4513.1</ele><time>2018-11-24T17:52:45.000Z</time></trkpt>
   <trkpt lat="19.052488" lon="-97.271196"><ele>4519.2</ele><time>2018-11-24T17:54:00.000Z</time></trkpt>
   <trkpt lat="19.052861" lon="-97.271014"><ele>4498.5</ele><time>2018-11-24T17:55:25.000Z</time></trkpt>
   <trkpt lat="19.052886" lon="-97.270786"><ele>4485.6</ele><time>2018-11-24T17:57:03.000Z</time></trkpt>
   <trkpt lat="19.053052" lon="-97.270588"><ele>4471.7</ele><time>2018-11-24T17:58:42.000Z</time></trkpt>
   <trkpt lat="19.053245" lon="-97.270529"><ele>4456.5</ele><time>2018-11-24T18:00:33.000Z</time></trkpt>
   <trkpt lat="19.053332" lon="-97.270361"><ele>4446.0</ele><time>2018-11-24T18:01:54.000Z</time></trkpt>
   <trkpt lat="19.053800" lon="-97.270228"><ele>4429.6</ele><time>2018-11-24T18:04:49.000Z</time></trkpt>
   <trkpt lat="19.053957" lon="-97.270030"><ele>4413.9</ele><time>2018-11-24T18:06:15.000Z</time></trkpt>
   <trkpt lat="19.054497" lon="-97.270114"><ele>4376.7</ele><time>2018-11-24T18:08:48.000Z</time></trkpt>
   <trkpt lat="19.054690" lon="-97.270043"><ele>4365.0</ele><time>2018-11-24T18:10:06.000Z</time></trkpt>
   <trkpt lat="19.054848" lon="-97.270133"><ele>4354.5</ele><time>2018-11-24T18:10:33.000Z</time></trkpt>
   <trkpt lat="19.055050" lon="-97.270081"><ele>4343.5</ele><time>2018-11-24T18:11:32.000Z</time></trkpt>
   <trkpt lat="19.055076" lon="-97.269958"><ele>4335.1</ele><time>2018-11-24T18:12:08.000Z</time></trkpt>
   <trkpt lat="19.055279" lon="-97.269856"><ele>4328.0</ele><time>2018-11-24T18:13:04.000Z</time></trkpt>
   <trkpt lat="19.055836" lon="-97.270078"><ele>4306.9</ele><time>2018-11-24T18:15:11.000Z</time></trkpt>
   <trkpt lat="19.056535" lon="-97.270087"><ele>4282.5</ele><time>2018-11-24T18:16:59.000Z</time></trkpt>
   <trkpt lat="19.057110" lon="-97.270028"><ele>4267.7</ele><time>2018-11-24T18:18:24.000Z</time></trkpt>
   <trkpt lat="19.057504" lon="-97.269853"><ele>4253.5</ele><time>2018-11-24T18:19:27.000Z</time></trkpt>
   <trkpt lat="19.057954" lon="-97.269865"><ele>4251.8</ele><time>2018-11-24T18:20:43.000Z</time></trkpt>
  </trkseg>
 </trk>
</gpx>
