<?xml version="1.0" encoding="UTF-8"?>
<gpx version="1.1" creator="Strava (via strava-mcp)" xmlns="http://www.topografix.com/GPX/1/1">
 <metadata><name>Tepozteco (Tepoztlán)</name><time>2023-03-20T17:32:59.000Z</time></metadata>
 <trk>
  <name>Tepozteco (Tepoztlán)</name>
  <type>Hike</type>
  <trkseg>
   <trkpt lat="19.004662" lon="-99.066057"><ele>2058.1</ele><time>2023-03-20T17:32:59.000Z</time></trkpt>
   <trkpt lat="19.005077" lon="-99.066417"><ele>2059.3</ele><time>2023-03-20T17:33:40.000Z</time></trkpt>
   <trkpt lat="19.005092" lon="-99.066364"><ele>2059.5</ele><time>2023-03-20T17:35:00.000Z</time></trkpt>
   <trkpt lat="19.004910" lon="-99.066880"><ele>2060.6</ele><time>2023-03-20T17:35:50.000Z</time></trkpt>
   <trkpt lat="19.005428" lon="-99.067103"><ele>2061.8</ele><time>2023-03-20T17:37:08.000Z</time></trkpt>
   <trkpt lat="19.005158" lon="-99.067725"><ele>2066.0</ele><time>2023-03-20T17:38:27.000Z</time></trkpt>
   <trkpt lat="19.005128" lon="-99.068103"><ele>2070.4</ele><time>2023-03-20T17:39:09.000Z</time></trkpt>
   <trkpt lat="19.005190" lon="-99.068282"><ele>2072.4</ele><time>2023-03-20T17:39:26.000Z</time></trkpt>
   <trkpt lat="19.005046" lon="-99.068429"><ele>2075.8</ele><time>2023-03-20T17:39:52.000Z</time></trkpt>
   <trkpt lat="19.005061" lon="-99.068618"><ele>2077.8</ele><time>2023-03-20T17:40:07.000Z</time></trkpt>
   <trkpt lat="19.004914" lon="-99.068898"><ele>2082.5</ele><time>2023-03-20T17:40:42.000Z</time></trkpt>
   <trkpt lat="19.004727" lon="-99.068981"><ele>2085.8</ele><time>2023-03-20T17:41:26.000Z</time></trkpt>
   <trkpt lat="19.004714" lon="-99.068785"><ele>2088.7</ele><time>2023-03-20T17:41:49.000Z</time></trkpt>
   <trkpt lat="19.004498" lon="-99.068616"><ele>2092.7</ele><time>2023-03-20T17:42:44.000Z</time></trkpt>
   <trkpt lat="19.004295" lon="-99.068645"><ele>2096.0</ele><time>2023-03-20T17:43:40.000Z</time></trkpt>
   <trkpt lat="19.004337" lon="-99.068781"><ele>2098.1</ele><time>2023-03-20T17:44:12.000Z</time></trkpt>
   <trkpt lat="19.004223" lon="-99.068782"><ele>2101.7</ele><time>2023-03-20T17:44:28.000Z</time></trkpt>
   <trkpt lat="19.004268" lon="-99.068859"><ele>2099.9</ele><time>2023-03-20T17:44:37.000Z</time></trkpt>
   <trkpt lat="19.004198" lon="-99.068915"><ele>2106.1</ele><time>2023-03-20T17:45:08.000Z</time></trkpt>
   <trkpt lat="19.004490" lon="-99.069655"><ele>2111.9</ele><time>2023-03-20T17:48:07.000Z</time></trkpt>
   <trkpt lat="19.004418" lon="-99.070066"><ele>2124.8</ele><time>2023-03-20T17:49:28.000Z</time></trkpt>
   <trkpt lat="19.004290" lon="-99.070062"><ele>2128.9</ele><time>2023-03-20T17:50:36.000Z</time></trkpt>
   <trkpt lat="19.004225" lon="-99.069901"><ele>2128.1</ele><time>2023-03-20T17:51:00.000Z</time></trkpt>
   <trkpt lat="19.004116" lon="-99.069901"><ele>2128.6</ele><time>2023-03-20T17:51:24.000Z</time></trkpt>
   <trkpt lat="19.004077" lon="-99.069986"><ele>2129.9</ele><time>2023-03-20T17:51:34.000Z</time></trkpt>
   <trkpt lat="19.004143" lon="-99.070681"><ele>2141.6</ele><time>2023-03-20T17:53:14.000Z</time></trkpt>
   <trkpt lat="19.003914" lon="-99.071220"><ele>2152.0</ele><time>2023-03-20T17:54:54.000Z</time></trkpt>
   <trkpt lat="19.004280" lon="-99.071784"><ele>2163.7</ele><time>2023-03-20T17:56:09.000Z</time></trkpt>
   <trkpt lat="19.004271" lon="-99.072073"><ele>2169.2</ele><time>2023-03-20T17:57:33.000Z</time></trkpt>
   <trkpt lat="19.004512" lon="-99.072421"><ele>2176.4</ele><time>2023-03-20T17:59:02.000Z</time></trkpt>
   <trkpt lat="19.004399" lon="-99.072741"><ele>2183.2</ele><time>2023-03-20T18:00:11.000Z</time></trkpt>
   <trkpt lat="19.004520" lon="-99.073168"><ele>2208.2</ele><time>2023-03-20T18:01:34.000Z</time></trkpt>
   <trkpt lat="19.004515" lon="-99.072850"><ele>2190.1</ele><time>2023-03-20T18:03:07.000Z</time></trkpt>
   <trkpt lat="19.004356" lon="-99.072488"><ele>2186.2</ele><time>2023-03-20T18:03:52.000Z</time></trkpt>
   <trkpt lat="19.004377" lon="-99.072975"><ele>2195.8</ele><time>2023-03-20T18:05:30.000Z</time></trkpt>
   <trkpt lat="19.004135" lon="-99.073394"><ele>2203.1</ele><time>2023-03-20T18:07:07.000Z</time></trkpt>
   <trkpt lat="19.004366" lon="-99.073624"><ele>2208.7</ele><time>2023-03-20T18:08:16.000Z</time></trkpt>
   <trkpt lat="19.004433" lon="-99.074201"><ele>2216.8</ele><time>2023-03-20T18:10:29.000Z</time></trkpt>
   <trkpt lat="19.004310" lon="-99.074466"><ele>2221.2</ele><time>2023-03-20T18:11:29.000Z</time></trkpt>
   <trkpt lat="19.004246" lon="-99.074314"><ele>2223.8</ele><time>2023-03-20T18:11:57.000Z</time></trkpt>
   <trkpt lat="19.004212" lon="-99.074451"><ele>2226.0</ele><time>2023-03-20T18:12:20.000Z</time></trkpt>
   <trkpt lat="19.004055" lon="-99.074235"><ele>2229.9</ele><time>2023-03-20T18:13:09.000Z</time></trkpt>
   <trkpt lat="19.003997" lon="-99.074319"><ele>2231.9</ele><time>2023-03-20T18:13:56.000Z</time></trkpt>
   <trkpt lat="19.003881" lon="-99.074147"><ele>2234.7</ele><time>2023-03-20T18:14:32.000Z</time></trkpt>
   <trkpt lat="19.003851" lon="-99.073950"><ele>2237.6</ele><time>2023-03-20T18:15:34.000Z</time></trkpt>
   <trkpt lat="19.004008" lon="-99.073964"><ele>2242.0</ele><time>2023-03-20T18:20:17.000Z</time></trkpt>
   <trkpt lat="19.003514" lon="-99.073862"><ele>2248.3</ele><time>2023-03-20T18:33:40.000Z</time></trkpt>
   <trkpt lat="19.003229" lon="-99.074511"><ele>2252.0</ele><time>2023-03-20T18:34:46.000Z</time></trkpt>
   <trkpt lat="19.002913" lon="-99.074853"><ele>2254.3</ele><time>2023-03-20T18:35:35.000Z</time></trkpt>
   <trkpt lat="19.003032" lon="-99.075436"><ele>2257.5</ele><time>2023-03-20T18:36:49.000Z</time></trkpt>
   <trkpt lat="19.002939" lon="-99.075731"><ele>2259.0</ele><time>2023-03-20T18:37:18.000Z</time></trkpt>
   <trkpt lat="19.003252" lon="-99.076160"><ele>2261.6</ele><time>2023-03-20T18:38:06.000Z</time></trkpt>
   <trkpt lat="19.003269" lon="-99.076394"><ele>2262.8</ele><time>2023-03-20T18:38:27.000Z</time></trkpt>
   <trkpt lat="19.003384" lon="-99.076525"><ele>2263.7</ele><time>2023-03-20T18:38:39.000Z</time></trkpt>
   <trkpt lat="19.003163" lon="-99.076995"><ele>2266.3</ele><time>2023-03-20T18:39:29.000Z</time></trkpt>
   <trkpt lat="19.003170" lon="-99.077375"><ele>2268.0</ele><time>2023-03-20T18:40:04.000Z</time></trkpt>
   <trkpt lat="19.003734" lon="-99.077507"><ele>2268.6</ele><time>2023-03-20T18:41:19.000Z</time></trkpt>
   <trkpt lat="19.003559" lon="-99.077634"><ele>2268.8</ele><time>2023-03-20T18:41:35.000Z</time></trkpt>
   <trkpt lat="19.003454" lon="-99.077916"><ele>2269.1</ele><time>2023-03-20T18:42:00.000Z</time></trkpt>
   <trkpt lat="19.003526" lon="-99.078052"><ele>2269.2</ele><time>2023-03-20T18:42:12.000Z</time></trkpt>
   <trkpt lat="19.003284" lon="-99.078356"><ele>2269.6</ele><time>2023-03-20T18:42:56.000Z</time></trkpt>
   <trkpt lat="19.003336" lon="-99.078622"><ele>2269.8</ele><time>2023-03-20T18:43:17.000Z</time></trkpt>
   <trkpt lat="19.003109" lon="-99.078825"><ele>2270.3</ele><time>2023-03-20T18:45:23.000Z</time></trkpt>
   <trkpt lat="19.003014" lon="-99.079206"><ele>2270.7</ele><time>2023-03-20T18:46:19.000Z</time></trkpt>
   <trkpt lat="19.003069" lon="-99.079484"><ele>2270.9</ele><time>2023-03-20T18:46:53.000Z</time></trkpt>
   <trkpt lat="19.002984" lon="-99.079709"><ele>2268.3</ele><time>2023-03-20T18:47:51.000Z</time></trkpt>
   <trkpt lat="19.002648" lon="-99.079891"><ele>2266.8</ele><time>2023-03-20T18:48:44.000Z</time></trkpt>
   <trkpt lat="19.002642" lon="-99.079961"><ele>2266.5</ele><time>2023-03-20T18:48:53.000Z</time></trkpt>
   <trkpt lat="19.002465" lon="-99.079967"><ele>2265.7</ele><time>2023-03-20T18:49:25.000Z</time></trkpt>
   <trkpt lat="19.002662" lon="-99.079930"><ele>2265.5</ele><time>2023-03-20T18:52:15.000Z</time></trkpt>
   <trkpt lat="19.002923" lon="-99.079683"><ele>2265.0</ele><time>2023-03-20T18:54:02.000Z</time></trkpt>
   <trkpt lat="19.002818" lon="-99.079852"><ele>2264.1</ele><time>2023-03-20T18:54:27.000Z</time></trkpt>
   <trkpt lat="19.002554" lon="-99.079881"><ele>2259.3</ele><time>2023-03-20T19:17:37.000Z</time></trkpt>
   <trkpt lat="19.002559" lon="-99.079942"><ele>2260.1</ele><time>2023-03-20T19:25:54.000Z</time></trkpt>
   <trkpt lat="19.002520" lon="-99.079868"><ele>2260.9</ele><time>2023-03-20T19:25:59.000Z</time></trkpt>
   <trkpt lat="19.002591" lon="-99.079925"><ele>2265.6</ele><time>2023-03-20T19:32:04.000Z</time></trkpt>
   <trkpt lat="19.002855" lon="-99.079823"><ele>2266.3</ele><time>2023-03-20T19:33:44.000Z</time></trkpt>
   <trkpt lat="19.003317" lon="-99.079402"><ele>2272.0</ele><time>2023-03-20T19:34:58.000Z</time></trkpt>
   <trkpt lat="19.003626" lon="-99.079475"><ele>2273.3</ele><time>2023-03-20T19:35:35.000Z</time></trkpt>
   <trkpt lat="19.004248" lon="-99.079316"><ele>2275.9</ele><time>2023-03-20T19:36:37.000Z</time></trkpt>
   <trkpt lat="19.004406" lon="-99.079407"><ele>2276.6</ele><time>2023-03-20T19:36:51.000Z</time></trkpt>
   <trkpt lat="19.004759" lon="-99.079207"><ele>2278.2</ele><time>2023-03-20T19:37:25.000Z</time></trkpt>
   <trkpt lat="19.005272" lon="-99.079351"><ele>2280.7</ele><time>2023-03-20T19:38:40.000Z</time></trkpt>
   <trkpt lat="19.005553" lon="-99.079266"><ele>2281.9</ele><time>2023-03-20T19:39:14.000Z</time></trkpt>
   <trkpt lat="19.005624" lon="-99.079013"><ele>2282.9</ele><time>2023-03-20T19:39:42.000Z</time></trkpt>
   <trkpt lat="19.005430" lon="-99.078640"><ele>2284.6</ele><time>2023-03-20T19:40:30.000Z</time></trkpt>
   <trkpt lat="19.005492" lon="-99.078362"><ele>2285.7</ele><time>2023-03-20T19:40:56.000Z</time></trkpt>
   <trkpt lat="19.005362" lon="-99.078099"><ele>2286.8</ele><time>2023-03-20T19:41:24.000Z</time></trkpt>
   <trkpt lat="19.005697" lon="-99.077692"><ele>2289.0</ele><time>2023-03-20T19:42:14.000Z</time></trkpt>
   <trkpt lat="19.005871" lon="-99.077314"><ele>2287.9</ele><time>2023-03-20T19:42:45.000Z</time></trkpt>
   <trkpt lat="19.005914" lon="-99.077136"><ele>2286.0</ele><time>2023-03-20T19:43:04.000Z</time></trkpt>
   <trkpt lat="19.005813" lon="-99.077098"><ele>2284.1</ele><time>2023-03-20T19:43:32.000Z</time></trkpt>
   <trkpt lat="19.005846" lon="-99.077158"><ele>2283.4</ele><time>2023-03-20T19:43:53.000Z</time></trkpt>
   <trkpt lat="19.005967" lon="-99.077028"><ele>2281.2</ele><time>2023-03-20T19:44:36.000Z</time></trkpt>
   <trkpt lat="19.006297" lon="-99.076919"><ele>2277.4</ele><time>2023-03-20T19:45:04.000Z</time></trkpt>
   <trkpt lat="19.006469" lon="-99.076263"><ele>2270.4</ele><time>2023-03-20T19:45:59.000Z</time></trkpt>
   <trkpt lat="19.006847" lon="-99.076010"><ele>2265.5</ele><time>2023-03-20T19:46:40.000Z</time></trkpt>
   <trkpt lat="19.006757" lon="-99.075240"><ele>2257.6</ele><time>2023-03-20T19:47:38.000Z</time></trkpt>
   <trkpt lat="19.007064" lon="-99.074984"><ele>2256.2</ele><time>2023-03-20T19:48:15.000Z</time></trkpt>
   <trkpt lat="19.007200" lon="-99.074751"><ele>2255.7</ele><time>2023-03-20T19:48:37.000Z</time></trkpt>
   <trkpt lat="19.007416" lon="-99.074643"><ele>2257.0</ele><time>2023-03-20T19:48:55.000Z</time></trkpt>
   <trkpt lat="19.007379" lon="-99.074595"><ele>2259.8</ele><time>2023-03-20T19:49:10.000Z</time></trkpt>
   <trkpt lat="19.007614" lon="-99.074645"><ele>2260.9</ele><time>2023-03-20T19:50:00.000Z</time></trkpt>
   <trkpt lat="19.007715" lon="-99.074501"><ele>2258.7</ele><time>2023-03-20T19:50:20.000Z</time></trkpt>
   <trkpt lat="19.007760" lon="-99.074641"><ele>2254.7</ele><time>2023-03-20T19:51:13.000Z</time></trkpt>
   <trkpt lat="19.008058" lon="-99.074821"><ele>2238.5</ele><time>2023-03-20T19:51:55.000Z</time></trkpt>
   <trkpt lat="19.008118" lon="-99.074453"><ele>2241.1</ele><time>2023-03-20T19:52:34.000Z</time></trkpt>
   <trkpt lat="19.008379" lon="-99.074008"><ele>2236.9</ele><time>2023-03-20T19:53:30.000Z</time></trkpt>
   <trkpt lat="19.008864" lon="-99.073698"><ele>2219.7</ele><time>2023-03-20T19:54:28.000Z</time></trkpt>
   <trkpt lat="19.008939" lon="-99.073509"><ele>2217.7</ele><time>2023-03-20T19:54:48.000Z</time></trkpt>
   <trkpt lat="19.009492" lon="-99.073454"><ele>2211.9</ele><time>2023-03-20T19:55:41.000Z</time></trkpt>
   <trkpt lat="19.010404" lon="-99.073534"><ele>2202.4</ele><time>2023-03-20T19:57:00.000Z</time></trkpt>
   <trkpt lat="19.010547" lon="-99.073200"><ele>2199.0</ele><time>2023-03-20T19:57:34.000Z</time></trkpt>
   <trkpt lat="19.010773" lon="-99.072941"><ele>2195.6</ele><time>2023-03-20T19:58:02.000Z</time></trkpt>
   <trkpt lat="19.010775" lon="-99.072353"><ele>2190.0</ele><time>2023-03-20T19:58:50.000Z</time></trkpt>
   <trkpt lat="19.010904" lon="-99.072219"><ele>2188.1</ele><time>2023-03-20T19:59:06.000Z</time></trkpt>
   <trkpt lat="19.011198" lon="-99.071510"><ele>2180.6</ele><time>2023-03-20T20:00:03.000Z</time></trkpt>
   <trkpt lat="19.011286" lon="-99.071384"><ele>2179.1</ele><time>2023-03-20T20:00:15.000Z</time></trkpt>
   <trkpt lat="19.011638" lon="-99.071277"><ele>2175.2</ele><time>2023-03-20T20:00:55.000Z</time></trkpt>
   <trkpt lat="19.011865" lon="-99.070477"><ele>2166.7</ele><time>2023-03-20T20:02:18.000Z</time></trkpt>
   <trkpt lat="19.011836" lon="-99.069765"><ele>2159.5</ele><time>2023-03-20T20:03:34.000Z</time></trkpt>
   <trkpt lat="19.012133" lon="-99.068925"><ele>2150.4</ele><time>2023-03-20T20:05:08.000Z</time></trkpt>
   <trkpt lat="19.012377" lon="-99.068577"><ele>2146.2</ele><time>2023-03-20T20:05:41.000Z</time></trkpt>
   <trkpt lat="19.012439" lon="-99.068319"><ele>2143.7</ele><time>2023-03-20T20:06:01.000Z</time></trkpt>
   <trkpt lat="19.012520" lon="-99.068153"><ele>2141.9</ele><time>2023-03-20T20:06:16.000Z</time></trkpt>
   <trkpt lat="19.012589" lon="-99.068151"><ele>2141.2</ele><time>2023-03-20T20:06:22.000Z</time></trkpt>
   <trkpt lat="19.012600" lon="-99.067983"><ele>2139.1</ele><time>2023-03-20T20:07:12.000Z</time></trkpt>
   <trkpt lat="19.012831" lon="-99.067605"><ele>2134.9</ele><time>2023-03-20T20:07:46.000Z</time></trkpt>
   <trkpt lat="19.013456" lon="-99.066903"><ele>2127.0</ele><time>2023-03-20T20:09:23.000Z</time></trkpt>
   <trkpt lat="19.013589" lon="-99.066647"><ele>2124.4</ele><time>2023-03-20T20:09:55.000Z</time></trkpt>
   <trkpt lat="19.012823" lon="-99.066651"><ele>2111.4</ele><time>2023-03-20T20:11:11.000Z</time></trkpt>
   <trkpt lat="19.012897" lon="-99.066184"><ele>2104.2</ele><time>2023-03-20T20:12:05.000Z</time></trkpt>
   <trkpt lat="19.012861" lon="-99.065748"><ele>2097.2</ele><time>2023-03-20T20:12:44.000Z</time></trkpt>
   <trkpt lat="19.012621" lon="-99.065340"><ele>2090.6</ele><time>2023-03-20T20:13:39.000Z</time></trkpt>
   <trkpt lat="19.012475" lon="-99.064886"><ele>2087.9</ele><time>2023-03-20T20:14:14.000Z</time></trkpt>
   <trkpt lat="19.011903" lon="-99.065196"><ele>2084.3</ele><time>2023-03-20T20:15:07.000Z</time></trkpt>
   <trkpt lat="19.011545" lon="-99.065572"><ele>2081.6</ele><time>2023-03-20T20:15:49.000Z</time></trkpt>
   <trkpt lat="19.011448" lon="-99.065603"><ele>2081.0</ele><time>2023-03-20T20:15:57.000Z</time></trkpt>
   <trkpt lat="19.011215" lon="-99.065493"><ele>2079.6</ele><time>2023-03-20T20:16:18.000Z</time></trkpt>
   <trkpt lat="19.010975" lon="-99.065828"><ele>2077.4</ele><time>2023-03-20T20:16:47.000Z</time></trkpt>
   <trkpt lat="19.010509" lon="-99.066000"><ele>2074.9</ele><time>2023-03-20T20:17:23.000Z</time></trkpt>
   <trkpt lat="19.010080" lon="-99.066405"><ele>2073.7</ele><time>2023-03-20T20:18:20.000Z</time></trkpt>
   <trkpt lat="19.009842" lon="-99.066936"><ele>2072.4</ele><time>2023-03-20T20:19:40.000Z</time></trkpt>
   <trkpt lat="19.009576" lon="-99.066990"><ele>2071.8</ele><time>2023-03-20T20:20:16.000Z</time></trkpt>
   <trkpt lat="19.009576" lon="-99.067133"><ele>2071.5</ele><time>2023-03-20T20:20:40.000Z</time></trkpt>
   <trkpt lat="19.009575" lon="-99.067024"><ele>2071.2</ele><time>2023-03-20T20:21:06.000Z</time></trkpt>
   <trkpt lat="19.009123" lon="-99.067207"><ele>2070.5</ele><time>2023-03-20T20:21:59.000Z</time></trkpt>
   <trkpt lat="19.008403" lon="-99.067071"><ele>2069.5</ele><time>2023-03-20T20:23:08.000Z</time></trkpt>
   <trkpt lat="19.007716" lon="-99.067280"><ele>2068.6</ele><time>2023-03-20T20:24:12.000Z</time></trkpt>
   <trkpt lat="19.007484" lon="-99.067595"><ele>2068.1</ele><time>2023-03-20T20:24:54.000Z</time></trkpt>
   <trkpt lat="19.007426" lon="-99.067812"><ele>2067.9</ele><time>2023-03-20T20:25:12.000Z</time></trkpt>
   <trkpt lat="19.006945" lon="-99.068094"><ele>2069.7</ele><time>2023-03-20T20:25:58.000Z</time></trkpt>
   <trkpt lat="19.006792" lon="-99.068395"><ele>2071.2</ele><time>2023-03-20T20:26:25.000Z</time></trkpt>
   <trkpt lat="19.006682" lon="-99.068343"><ele>2071.3</ele><time>2023-03-20T20:26:37.000Z</time></trkpt>
   <trkpt lat="19.006453" lon="-99.068549"><ele>2071.8</ele><time>2023-03-20T20:26:58.000Z</time></trkpt>
   <trkpt lat="19.006202" lon="-99.068467"><ele>2072.4</ele><time>2023-03-20T20:27:20.000Z</time></trkpt>
   <trkpt lat="19.005974" lon="-99.068614"><ele>2073.9</ele><time>2023-03-20T20:27:56.000Z</time></trkpt>
   <trkpt lat="19.005708" lon="-99.068562"><ele>2075.2</ele><time>2023-03-20T20:28:19.000Z</time></trkpt>
   <trkpt lat="19.005467" lon="-99.068783"><ele>2076.8</ele><time>2023-03-20T20:28:42.000Z</time></trkpt>
   <trkpt lat="19.005167" lon="-99.068752"><ele>2078.3</ele><time>2023-03-20T20:29:05.000Z</time></trkpt>
   <trkpt lat="19.005045" lon="-99.068616"><ele>2077.8</ele><time>2023-03-20T20:29:25.000Z</time></trkpt>
   <trkpt lat="19.005115" lon="-99.068343"><ele>2074.3</ele><time>2023-03-20T20:29:47.000Z</time></trkpt>
   <trkpt lat="19.005225" lon="-99.068270"><ele>2072.1</ele><time>2023-03-20T20:29:58.000Z</time></trkpt>
   <trkpt lat="19.005191" lon="-99.067784"><ele>2067.0</ele><time>2023-03-20T20:30:38.000Z</time></trkpt>
   <trkpt lat="19.005424" lon="-99.067004"><ele>2061.9</ele><time>2023-03-20T20:31:56.000Z</time></trkpt>
   <trkpt lat="19.005196" lon="-99.066976"><ele>2061.2</ele><time>2023-03-20T20:32:30.000Z</time></trkpt>
   <trkpt lat="19.004971" lon="-99.066825"><ele>2060.5</ele><time>2023-03-20T20:32:52.000Z</time></trkpt>
   <trkpt lat="19.005057" lon="-99.066316"><ele>2059.3</ele><time>2023-03-20T20:33:33.000Z</time></trkpt>
   <trkpt lat="19.004778" lon="-99.065958"><ele>2058.2</ele><time>2023-03-20T20:34:12.000Z</time></trkpt>
  </trkseg>
 </trk>
</gpx>
