<?xml version="1.0" encoding="UTF-8"?>
<gpx version="1.1" creator="Strava (via strava-mcp)" xmlns="http://www.topografix.com/GPX/1/1">
 <metadata><name>Mount Tláloc</name><time>2021-01-24T15:04:04.000Z</time></metadata>
 <trk>
  <name>Mount Tláloc</name>
  <type>Hike</type>
  <trkseg>
   <trkpt lat="19.361501" lon="-98.677068"><ele>3019.9</ele><time>2021-01-24T15:04:04.000Z</time></trkpt>
   <trkpt lat="19.361603" lon="-98.677502"><ele>3023.1</ele><time>2021-01-24T15:04:37.000Z</time></trkpt>
   <trkpt lat="19.361925" lon="-98.678053"><ele>3027.5</ele><time>2021-01-24T15:05:33.000Z</time></trkpt>
   <trkpt lat="19.362086" lon="-98.678195"><ele>3029.0</ele><time>2021-01-24T15:05:51.000Z</time></trkpt>
   <trkpt lat="19.362170" lon="-98.678543"><ele>3031.4</ele><time>2021-01-24T15:06:17.000Z</time></trkpt>
   <trkpt lat="19.362590" lon="-98.678870"><ele>3035.2</ele><time>2021-01-24T15:06:56.000Z</time></trkpt>
   <trkpt lat="19.362494" lon="-98.679598"><ele>3040.1</ele><time>2021-01-24T15:08:00.000Z</time></trkpt>
   <trkpt lat="19.362723" lon="-98.680096"><ele>3044.0</ele><time>2021-01-24T15:08:53.000Z</time></trkpt>
   <trkpt lat="19.362696" lon="-98.680242"><ele>3045.0</ele><time>2021-01-24T15:09:02.000Z</time></trkpt>
   <trkpt lat="19.362981" lon="-98.680523"><ele>3047.7</ele><time>2021-01-24T15:09:25.000Z</time></trkpt>
   <trkpt lat="19.363012" lon="-98.680708"><ele>3049.0</ele><time>2021-01-24T15:09:43.000Z</time></trkpt>
   <trkpt lat="19.363370" lon="-98.680897"><ele>3052.4</ele><time>2021-01-24T15:11:20.000Z</time></trkpt>
   <trkpt lat="19.363622" lon="-98.681276"><ele>3055.5</ele><time>2021-01-24T15:11:52.000Z</time></trkpt>
   <trkpt lat="19.363897" lon="-98.681346"><ele>3057.5</ele><time>2021-01-24T15:12:10.000Z</time></trkpt>
   <trkpt lat="19.364476" lon="-98.681820"><ele>3063.3</ele><time>2021-01-24T15:13:34.000Z</time></trkpt>
   <trkpt lat="19.364747" lon="-98.681910"><ele>3065.3</ele><time>2021-01-24T15:13:57.000Z</time></trkpt>
   <trkpt lat="19.364924" lon="-98.682152"><ele>3067.4</ele><time>2021-01-24T15:14:19.000Z</time></trkpt>
   <trkpt lat="19.365338" lon="-98.682189"><ele>3070.7</ele><time>2021-01-24T15:14:51.000Z</time></trkpt>
   <trkpt lat="19.365340" lon="-98.682347"><ele>3072.7</ele><time>2021-01-24T15:15:44.000Z</time></trkpt>
   <trkpt lat="19.365564" lon="-98.682547"><ele>3074.8</ele><time>2021-01-24T15:16:05.000Z</time></trkpt>
   <trkpt lat="19.365694" lon="-98.682865"><ele>3075.9</ele><time>2021-01-24T15:16:27.000Z</time></trkpt>
   <trkpt lat="19.365668" lon="-98.683116"><ele>3077.0</ele><time>2021-01-24T15:16:42.000Z</time></trkpt>
   <trkpt lat="19.365768" lon="-98.683424"><ele>3079.4</ele><time>2021-01-24T15:17:12.000Z</time></trkpt>
   <trkpt lat="19.366210" lon="-98.683544"><ele>3083.7</ele><time>2021-01-24T15:18:41.000Z</time></trkpt>
   <trkpt lat="19.366339" lon="-98.683830"><ele>3087.5</ele><time>2021-01-24T15:19:41.000Z</time></trkpt>
   <trkpt lat="19.366686" lon="-98.684137"><ele>3092.6</ele><time>2021-01-24T15:20:20.000Z</time></trkpt>
   <trkpt lat="19.366766" lon="-98.684579"><ele>3096.4</ele><time>2021-01-24T15:21:25.000Z</time></trkpt>
   <trkpt lat="19.366829" lon="-98.684579"><ele>3096.9</ele><time>2021-01-24T15:21:34.000Z</time></trkpt>
   <trkpt lat="19.366901" lon="-98.684814"><ele>3099.6</ele><time>2021-01-24T15:25:17.000Z</time></trkpt>
   <trkpt lat="19.367728" lon="-98.685794"><ele>3110.7</ele><time>2021-01-24T15:26:22.000Z</time></trkpt>
   <trkpt lat="19.367605" lon="-98.685976"><ele>3112.4</ele><time>2021-01-24T15:26:45.000Z</time></trkpt>
   <trkpt lat="19.367744" lon="-98.686255"><ele>3113.4</ele><time>2021-01-24T15:27:37.000Z</time></trkpt>
   <trkpt lat="19.367597" lon="-98.685891"><ele>3116.5</ele><time>2021-01-24T15:27:54.000Z</time></trkpt>
   <trkpt lat="19.367645" lon="-98.686463"><ele>3101.2</ele><time>2021-01-24T15:30:39.000Z</time></trkpt>
   <trkpt lat="19.368006" lon="-98.686525"><ele>3113.1</ele><time>2021-01-24T15:31:52.000Z</time></trkpt>
   <trkpt lat="19.367857" lon="-98.686956"><ele>3121.6</ele><time>2021-01-24T15:32:01.000Z</time></trkpt>
   <trkpt lat="19.367983" lon="-98.687664"><ele>3127.6</ele><time>2021-01-24T15:32:12.000Z</time></trkpt>
   <trkpt lat="19.368106" lon="-98.687896"><ele>3129.3</ele><time>2021-01-24T15:32:20.000Z</time></trkpt>
   <trkpt lat="19.368394" lon="-98.688166"><ele>3134.2</ele><time>2021-01-24T15:32:37.000Z</time></trkpt>
   <trkpt lat="19.368676" lon="-98.688821"><ele>3146.4</ele><time>2021-01-24T15:33:18.000Z</time></trkpt>
   <trkpt lat="19.368661" lon="-98.689345"><ele>3154.6</ele><time>2021-01-24T15:34:50.000Z</time></trkpt>
   <trkpt lat="19.368460" lon="-98.689807"><ele>3161.0</ele><time>2021-01-24T15:35:37.000Z</time></trkpt>
   <trkpt lat="19.368555" lon="-98.689998"><ele>3156.7</ele><time>2021-01-24T15:36:23.000Z</time></trkpt>
   <trkpt lat="19.368435" lon="-98.689881"><ele>3157.1</ele><time>2021-01-24T15:37:25.000Z</time></trkpt>
   <trkpt lat="19.368507" lon="-98.690313"><ele>3164.1</ele><time>2021-01-24T15:37:43.000Z</time></trkpt>
   <trkpt lat="19.369011" lon="-98.690927"><ele>3174.4</ele><time>2021-01-24T15:42:18.000Z</time></trkpt>
   <trkpt lat="19.369066" lon="-98.691126"><ele>3180.5</ele><time>2021-01-24T15:42:31.000Z</time></trkpt>
   <trkpt lat="19.369134" lon="-98.691050"><ele>3179.8</ele><time>2021-01-24T15:45:39.000Z</time></trkpt>
   <trkpt lat="19.369243" lon="-98.691166"><ele>3186.5</ele><time>2021-01-24T15:45:56.000Z</time></trkpt>
   <trkpt lat="19.369673" lon="-98.691096"><ele>3200.3</ele><time>2021-01-24T15:46:27.000Z</time></trkpt>
   <trkpt lat="19.369924" lon="-98.690825"><ele>3196.1</ele><time>2021-01-24T15:47:09.000Z</time></trkpt>
   <trkpt lat="19.369953" lon="-98.690898"><ele>3203.1</ele><time>2021-01-24T15:47:22.000Z</time></trkpt>
   <trkpt lat="19.369644" lon="-98.691586"><ele>3211.6</ele><time>2021-01-24T15:49:29.000Z</time></trkpt>
   <trkpt lat="19.369698" lon="-98.691586"><ele>3217.3</ele><time>2021-01-24T15:49:50.000Z</time></trkpt>
   <trkpt lat="19.369624" lon="-98.691677"><ele>3215.8</ele><time>2021-01-24T15:49:59.000Z</time></trkpt>
   <trkpt lat="19.369705" lon="-98.691663"><ele>3221.9</ele><time>2021-01-24T15:50:13.000Z</time></trkpt>
   <trkpt lat="19.370284" lon="-98.691193"><ele>3232.7</ele><time>2021-01-24T15:52:11.000Z</time></trkpt>
   <trkpt lat="19.370787" lon="-98.691009"><ele>3249.3</ele><time>2021-01-24T15:52:59.000Z</time></trkpt>
   <trkpt lat="19.371058" lon="-98.690461"><ele>3244.9</ele><time>2021-01-24T15:53:54.000Z</time></trkpt>
   <trkpt lat="19.371366" lon="-98.690513"><ele>3260.3</ele><time>2021-01-24T15:58:20.000Z</time></trkpt>
   <trkpt lat="19.371314" lon="-98.690665"><ele>3262.1</ele><time>2021-01-24T15:58:39.000Z</time></trkpt>
   <trkpt lat="19.371520" lon="-98.690870"><ele>3282.5</ele><time>2021-01-24T15:59:32.000Z</time></trkpt>
   <trkpt lat="19.371560" lon="-98.691298"><ele>3295.9</ele><time>2021-01-24T16:00:43.000Z</time></trkpt>
   <trkpt lat="19.371648" lon="-98.691434"><ele>3307.5</ele><time>2021-01-24T16:00:58.000Z</time></trkpt>
   <trkpt lat="19.371965" lon="-98.691481"><ele>3319.6</ele><time>2021-01-24T16:01:34.000Z</time></trkpt>
   <trkpt lat="19.371917" lon="-98.691673"><ele>3321.1</ele><time>2021-01-24T16:02:41.000Z</time></trkpt>
   <trkpt lat="19.372066" lon="-98.692098"><ele>3341.1</ele><time>2021-01-24T16:04:11.000Z</time></trkpt>
   <trkpt lat="19.372188" lon="-98.692219"><ele>3353.3</ele><time>2021-01-24T16:04:33.000Z</time></trkpt>
   <trkpt lat="19.372227" lon="-98.692411"><ele>3359.6</ele><time>2021-01-24T16:04:44.000Z</time></trkpt>
   <trkpt lat="19.372338" lon="-98.692418"><ele>3360.2</ele><time>2021-01-24T16:04:58.000Z</time></trkpt>
   <trkpt lat="19.372585" lon="-98.692769"><ele>3366.5</ele><time>2021-01-24T16:06:19.000Z</time></trkpt>
   <trkpt lat="19.372653" lon="-98.693100"><ele>3372.7</ele><time>2021-01-24T16:07:01.000Z</time></trkpt>
   <trkpt lat="19.372791" lon="-98.693252"><ele>3378.9</ele><time>2021-01-24T16:08:10.000Z</time></trkpt>
   <trkpt lat="19.372869" lon="-98.693770"><ele>3385.0</ele><time>2021-01-24T16:29:28.000Z</time></trkpt>
   <trkpt lat="19.373275" lon="-98.694057"><ele>3395.7</ele><time>2021-01-24T16:30:34.000Z</time></trkpt>
   <trkpt lat="19.373569" lon="-98.694420"><ele>3414.4</ele><time>2021-01-24T16:32:13.000Z</time></trkpt>
   <trkpt lat="19.374061" lon="-98.694629"><ele>3416.9</ele><time>2021-01-24T16:33:26.000Z</time></trkpt>
   <trkpt lat="19.374441" lon="-98.695234"><ele>3435.6</ele><time>2021-01-24T16:36:21.000Z</time></trkpt>
   <trkpt lat="19.374830" lon="-98.695500"><ele>3439.1</ele><time>2021-01-24T16:37:23.000Z</time></trkpt>
   <trkpt lat="19.375074" lon="-98.695800"><ele>3430.2</ele><time>2021-01-24T16:38:41.000Z</time></trkpt>
   <trkpt lat="19.375428" lon="-98.696010"><ele>3435.9</ele><time>2021-01-24T16:39:11.000Z</time></trkpt>
   <trkpt lat="19.375902" lon="-98.696588"><ele>3466.1</ele><time>2021-01-24T16:40:31.000Z</time></trkpt>
   <trkpt lat="19.376390" lon="-98.696693"><ele>3468.7</ele><time>2021-01-24T16:42:53.000Z</time></trkpt>
   <trkpt lat="19.376794" lon="-98.696358"><ele>3463.4</ele><time>2021-01-24T16:43:48.000Z</time></trkpt>
   <trkpt lat="19.376893" lon="-98.696855"><ele>3474.1</ele><time>2021-01-24T16:45:26.000Z</time></trkpt>
   <trkpt lat="19.377063" lon="-98.696924"><ele>3475.0</ele><time>2021-01-24T16:45:52.000Z</time></trkpt>
   <trkpt lat="19.377333" lon="-98.697376"><ele>3479.8</ele><time>2021-01-24T16:47:04.000Z</time></trkpt>
   <trkpt lat="19.377445" lon="-98.697412"><ele>3480.2</ele><time>2021-01-24T16:47:19.000Z</time></trkpt>
   <trkpt lat="19.377685" lon="-98.698519"><ele>3497.8</ele><time>2021-01-24T16:49:18.000Z</time></trkpt>
   <trkpt lat="19.378066" lon="-98.698948"><ele>3505.0</ele><time>2021-01-24T16:50:05.000Z</time></trkpt>
   <trkpt lat="19.378436" lon="-98.699152"><ele>3504.2</ele><time>2021-01-24T16:50:55.000Z</time></trkpt>
   <trkpt lat="19.378781" lon="-98.699643"><ele>3509.7</ele><time>2021-01-24T16:52:00.000Z</time></trkpt>
   <trkpt lat="19.379055" lon="-98.699647"><ele>3511.2</ele><time>2021-01-24T16:52:37.000Z</time></trkpt>
   <trkpt lat="19.379232" lon="-98.699946"><ele>3519.9</ele><time>2021-01-24T16:53:12.000Z</time></trkpt>
   <trkpt lat="19.379490" lon="-98.699866"><ele>3521.9</ele><time>2021-01-24T16:53:47.000Z</time></trkpt>
   <trkpt lat="19.379736" lon="-98.699675"><ele>3522.5</ele><time>2021-01-24T16:54:15.000Z</time></trkpt>
   <trkpt lat="19.379989" lon="-98.699719"><ele>3532.0</ele><time>2021-01-24T16:55:25.000Z</time></trkpt>
   <trkpt lat="19.380157" lon="-98.699563"><ele>3534.4</ele><time>2021-01-24T16:56:29.000Z</time></trkpt>
   <trkpt lat="19.381172" lon="-98.699630"><ele>3533.4</ele><time>2021-01-24T16:58:19.000Z</time></trkpt>
   <trkpt lat="19.381482" lon="-98.699801"><ele>3531.7</ele><time>2021-01-24T16:59:04.000Z</time></trkpt>
   <trkpt lat="19.382018" lon="-98.700314"><ele>3538.6</ele><time>2021-01-24T17:00:22.000Z</time></trkpt>
   <trkpt lat="19.382137" lon="-98.700646"><ele>3544.8</ele><time>2021-01-24T17:00:50.000Z</time></trkpt>
   <trkpt lat="19.382281" lon="-98.700726"><ele>3542.6</ele><time>2021-01-24T17:01:07.000Z</time></trkpt>
   <trkpt lat="19.382601" lon="-98.701181"><ele>3545.7</ele><time>2021-01-24T17:02:04.000Z</time></trkpt>
   <trkpt lat="19.383021" lon="-98.701526"><ele>3544.2</ele><time>2021-01-24T17:03:00.000Z</time></trkpt>
   <trkpt lat="19.383332" lon="-98.701583"><ele>3542.2</ele><time>2021-01-24T17:03:29.000Z</time></trkpt>
   <trkpt lat="19.383578" lon="-98.701858"><ele>3542.6</ele><time>2021-01-24T17:04:10.000Z</time></trkpt>
   <trkpt lat="19.383972" lon="-98.701563"><ele>3552.2</ele><time>2021-01-24T17:05:44.000Z</time></trkpt>
   <trkpt lat="19.384112" lon="-98.700860"><ele>3561.1</ele><time>2021-01-24T17:07:34.000Z</time></trkpt>
   <trkpt lat="19.384349" lon="-98.701491"><ele>3567.0</ele><time>2021-01-24T17:09:07.000Z</time></trkpt>
   <trkpt lat="19.384787" lon="-98.702147"><ele>3572.7</ele><time>2021-01-24T17:10:33.000Z</time></trkpt>
   <trkpt lat="19.384912" lon="-98.702660"><ele>3576.5</ele><time>2021-01-24T17:11:36.000Z</time></trkpt>
   <trkpt lat="19.384653" lon="-98.703713"><ele>3584.7</ele><time>2021-01-24T17:14:25.000Z</time></trkpt>
   <trkpt lat="19.384325" lon="-98.703913"><ele>3587.8</ele><time>2021-01-24T17:15:29.000Z</time></trkpt>
   <trkpt lat="19.384966" lon="-98.705175"><ele>3598.5</ele><time>2021-01-24T17:17:40.000Z</time></trkpt>
   <trkpt lat="19.385217" lon="-98.705307"><ele>3600.7</ele><time>2021-01-24T17:18:03.000Z</time></trkpt>
   <trkpt lat="19.385524" lon="-98.705721"><ele>3604.5</ele><time>2021-01-24T17:19:06.000Z</time></trkpt>
   <trkpt lat="19.385950" lon="-98.705834"><ele>3607.8</ele><time>2021-01-24T17:19:50.000Z</time></trkpt>
   <trkpt lat="19.386104" lon="-98.705994"><ele>3609.4</ele><time>2021-01-24T17:20:16.000Z</time></trkpt>
   <trkpt lat="19.386020" lon="-98.706011"><ele>3610.6</ele><time>2021-01-24T17:21:50.000Z</time></trkpt>
   <trkpt lat="19.386111" lon="-98.706004"><ele>3612.0</ele><time>2021-01-24T17:22:56.000Z</time></trkpt>
   <trkpt lat="19.385991" lon="-98.706038"><ele>3613.3</ele><time>2021-01-24T17:23:28.000Z</time></trkpt>
   <trkpt lat="19.386141" lon="-98.706006"><ele>3614.6</ele><time>2021-01-24T17:25:55.000Z</time></trkpt>
   <trkpt lat="19.385992" lon="-98.705986"><ele>3616.9</ele><time>2021-01-24T17:28:43.000Z</time></trkpt>
   <trkpt lat="19.386080" lon="-98.706282"><ele>3620.1</ele><time>2021-01-24T17:30:12.000Z</time></trkpt>
   <trkpt lat="19.386280" lon="-98.706527"><ele>3622.4</ele><time>2021-01-24T17:31:04.000Z</time></trkpt>
   <trkpt lat="19.386290" lon="-98.706934"><ele>3625.4</ele><time>2021-01-24T17:32:06.000Z</time></trkpt>
   <trkpt lat="19.386403" lon="-98.707093"><ele>3626.8</ele><time>2021-01-24T17:32:26.000Z</time></trkpt>
   <trkpt lat="19.387083" lon="-98.707124"><ele>3632.0</ele><time>2021-01-24T17:33:52.000Z</time></trkpt>
   <trkpt lat="19.387571" lon="-98.707040"><ele>3635.8</ele><time>2021-01-24T17:34:42.000Z</time></trkpt>
   <trkpt lat="19.387767" lon="-98.707198"><ele>3637.5</ele><time>2021-01-24T17:35:09.000Z</time></trkpt>
   <trkpt lat="19.387998" lon="-98.707566"><ele>3640.5</ele><time>2021-01-24T17:35:51.000Z</time></trkpt>
   <trkpt lat="19.388535" lon="-98.707814"><ele>3644.7</ele><time>2021-01-24T17:36:51.000Z</time></trkpt>
   <trkpt lat="19.389277" lon="-98.708560"><ele>3652.1</ele><time>2021-01-24T17:38:32.000Z</time></trkpt>
   <trkpt lat="19.389925" lon="-98.708882"><ele>3657.3</ele><time>2021-01-24T17:39:59.000Z</time></trkpt>
   <trkpt lat="19.390531" lon="-98.710233"><ele>3667.6</ele><time>2021-01-24T17:42:42.000Z</time></trkpt>
   <trkpt lat="19.390923" lon="-98.710443"><ele>3670.8</ele><time>2021-01-24T17:43:39.000Z</time></trkpt>
   <trkpt lat="19.391327" lon="-98.711200"><ele>3677.0</ele><time>2021-01-24T17:45:36.000Z</time></trkpt>
   <trkpt lat="19.392300" lon="-98.712327"><ele>3687.6</ele><time>2021-01-24T17:48:43.000Z</time></trkpt>
   <trkpt lat="19.392390" lon="-98.712590"><ele>3689.5</ele><time>2021-01-24T17:49:07.000Z</time></trkpt>
   <trkpt lat="19.392931" lon="-98.713248"><ele>3695.5</ele><time>2021-01-24T17:50:50.000Z</time></trkpt>
   <trkpt lat="19.393075" lon="-98.713740"><ele>3698.9</ele><time>2021-01-24T17:51:53.000Z</time></trkpt>
   <trkpt lat="19.393300" lon="-98.714155"><ele>3702.2</ele><time>2021-01-24T17:52:54.000Z</time></trkpt>
   <trkpt lat="19.393601" lon="-98.714471"><ele>3706.4</ele><time>2021-01-24T17:55:15.000Z</time></trkpt>
   <trkpt lat="19.393762" lon="-98.714477"><ele>3708.0</ele><time>2021-01-24T17:55:35.000Z</time></trkpt>
   <trkpt lat="19.393898" lon="-98.714368"><ele>3709.7</ele><time>2021-01-24T17:55:58.000Z</time></trkpt>
   <trkpt lat="19.394178" lon="-98.714328"><ele>3712.5</ele><time>2021-01-24T17:56:30.000Z</time></trkpt>
   <trkpt lat="19.394934" lon="-98.714014"><ele>3721.4</ele><time>2021-01-24T17:59:27.000Z</time></trkpt>
   <trkpt lat="19.395298" lon="-98.713960"><ele>3725.1</ele><time>2021-01-24T18:00:12.000Z</time></trkpt>
   <trkpt lat="19.396407" lon="-98.713239"><ele>3738.0</ele><time>2021-01-24T18:02:50.000Z</time></trkpt>
   <trkpt lat="19.396915" lon="-98.712648"><ele>3745.5</ele><time>2021-01-24T18:04:02.000Z</time></trkpt>
   <trkpt lat="19.397295" lon="-98.712434"><ele>3749.8</ele><time>2021-01-24T18:04:40.000Z</time></trkpt>
   <trkpt lat="19.397675" lon="-98.712073"><ele>3754.9</ele><time>2021-01-24T18:05:36.000Z</time></trkpt>
   <trkpt lat="19.398141" lon="-98.711884"><ele>3759.9</ele><time>2021-01-24T18:06:43.000Z</time></trkpt>
   <trkpt lat="19.398440" lon="-98.712037"><ele>3763.2</ele><time>2021-01-24T18:07:21.000Z</time></trkpt>
   <trkpt lat="19.398680" lon="-98.712366"><ele>3767.1</ele><time>2021-01-24T18:07:49.000Z</time></trkpt>
   <trkpt lat="19.398844" lon="-98.712383"><ele>3768.8</ele><time>2021-01-24T18:08:18.000Z</time></trkpt>
   <trkpt lat="19.399265" lon="-98.712680"><ele>3773.7</ele><time>2021-01-24T18:09:17.000Z</time></trkpt>
   <trkpt lat="19.399763" lon="-98.713473"><ele>3782.8</ele><time>2021-01-24T18:11:00.000Z</time></trkpt>
   <trkpt lat="19.400968" lon="-98.714439"><ele>3795.7</ele><time>2021-01-24T18:13:44.000Z</time></trkpt>
   <trkpt lat="19.401229" lon="-98.714521"><ele>3795.6</ele><time>2021-01-24T18:14:04.000Z</time></trkpt>
   <trkpt lat="19.401709" lon="-98.714330"><ele>3800.4</ele><time>2021-01-24T18:18:02.000Z</time></trkpt>
   <trkpt lat="19.402034" lon="-98.714621"><ele>3806.3</ele><time>2021-01-24T18:18:56.000Z</time></trkpt>
   <trkpt lat="19.402437" lon="-98.714471"><ele>3813.0</ele><time>2021-01-24T18:19:58.000Z</time></trkpt>
   <trkpt lat="19.402710" lon="-98.714639"><ele>3817.6</ele><time>2021-01-24T18:20:30.000Z</time></trkpt>
   <trkpt lat="19.403198" lon="-98.714602"><ele>3825.1</ele><time>2021-01-24T18:21:42.000Z</time></trkpt>
   <trkpt lat="19.403415" lon="-98.714753"><ele>3828.9</ele><time>2021-01-24T18:22:16.000Z</time></trkpt>
   <trkpt lat="19.403707" lon="-98.714601"><ele>3834.4</ele><time>2021-01-24T18:23:20.000Z</time></trkpt>
   <trkpt lat="19.403534" lon="-98.715171"><ele>3843.3</ele><time>2021-01-24T18:33:41.000Z</time></trkpt>
   <trkpt lat="19.403825" lon="-98.715484"><ele>3849.3</ele><time>2021-01-24T18:34:24.000Z</time></trkpt>
   <trkpt lat="19.404164" lon="-98.716064"><ele>3858.8</ele><time>2021-01-24T18:35:32.000Z</time></trkpt>
   <trkpt lat="19.404638" lon="-98.716289"><ele>3866.5</ele><time>2021-01-24T18:36:43.000Z</time></trkpt>
   <trkpt lat="19.404864" lon="-98.716594"><ele>3871.9</ele><time>2021-01-24T18:37:33.000Z</time></trkpt>
   <trkpt lat="19.404818" lon="-98.716733"><ele>3873.9</ele><time>2021-01-24T18:37:53.000Z</time></trkpt>
   <trkpt lat="19.405352" lon="-98.717176"><ele>3883.1</ele><time>2021-01-24T18:39:25.000Z</time></trkpt>
   <trkpt lat="19.405633" lon="-98.717939"><ele>3890.4</ele><time>2021-01-24T18:41:21.000Z</time></trkpt>
   <trkpt lat="19.405714" lon="-98.718435"><ele>3896.1</ele><time>2021-01-24T18:42:13.000Z</time></trkpt>
   <trkpt lat="19.405909" lon="-98.718720"><ele>3901.3</ele><time>2021-01-24T18:43:25.000Z</time></trkpt>
   <trkpt lat="19.406049" lon="-98.718766"><ele>3903.5</ele><time>2021-01-24T18:43:56.000Z</time></trkpt>
   <trkpt lat="19.406077" lon="-98.719016"><ele>3908.8</ele><time>2021-01-24T18:48:18.000Z</time></trkpt>
   <trkpt lat="19.406141" lon="-98.718943"><ele>3911.4</ele><time>2021-01-24T18:58:41.000Z</time></trkpt>
   <trkpt lat="19.406197" lon="-98.719045"><ele>3913.2</ele><time>2021-01-24T18:59:11.000Z</time></trkpt>
   <trkpt lat="19.406114" lon="-98.718920"><ele>3915.5</ele><time>2021-01-24T18:59:47.000Z</time></trkpt>
   <trkpt lat="19.406286" lon="-98.718534"><ele>3921.3</ele><time>2021-01-24T19:01:02.000Z</time></trkpt>
   <trkpt lat="19.406703" lon="-98.718242"><ele>3928.2</ele><time>2021-01-24T19:02:16.000Z</time></trkpt>
   <trkpt lat="19.406910" lon="-98.718245"><ele>3931.0</ele><time>2021-01-24T19:02:47.000Z</time></trkpt>
   <trkpt lat="19.407595" lon="-98.717397"><ele>3946.5</ele><time>2021-01-24T19:05:09.000Z</time></trkpt>
   <trkpt lat="19.407989" lon="-98.717291"><ele>3954.8</ele><time>2021-01-24T19:06:11.000Z</time></trkpt>
   <trkpt lat="19.408442" lon="-98.717013"><ele>3965.8</ele><time>2021-01-24T19:07:58.000Z</time></trkpt>
   <trkpt lat="19.408630" lon="-98.717021"><ele>3969.6</ele><time>2021-01-24T19:08:29.000Z</time></trkpt>
   <trkpt lat="19.408649" lon="-98.716937"><ele>3971.9</ele><time>2021-01-24T19:09:20.000Z</time></trkpt>
   <trkpt lat="19.408541" lon="-98.716880"><ele>3974.3</ele><time>2021-01-24T19:09:49.000Z</time></trkpt>
   <trkpt lat="19.408708" lon="-98.716549"><ele>3982.9</ele><time>2021-01-24T19:11:24.000Z</time></trkpt>
   <trkpt lat="19.409319" lon="-98.716390"><ele>3997.7</ele><time>2021-01-24T19:14:12.000Z</time></trkpt>
   <trkpt lat="19.409465" lon="-98.716423"><ele>4001.3</ele><time>2021-01-24T19:14:48.000Z</time></trkpt>
   <trkpt lat="19.409494" lon="-98.716514"><ele>4004.1</ele><time>2021-01-24T19:19:32.000Z</time></trkpt>
   <trkpt lat="19.409634" lon="-98.716473"><ele>4006.9</ele><time>2021-01-24T19:19:56.000Z</time></trkpt>
   <trkpt lat="19.409974" lon="-98.716290"><ele>4014.6</ele><time>2021-01-24T19:20:48.000Z</time></trkpt>
   <trkpt lat="19.410049" lon="-98.715713"><ele>4022.5</ele><time>2021-01-24T19:22:35.000Z</time></trkpt>
   <trkpt lat="19.410158" lon="-98.715679"><ele>4026.4</ele><time>2021-01-24T19:23:04.000Z</time></trkpt>
   <trkpt lat="19.410239" lon="-98.715500"><ele>4029.4</ele><time>2021-01-24T19:23:34.000Z</time></trkpt>
   <trkpt lat="19.410500" lon="-98.715490"><ele>4034.5</ele><time>2021-01-24T19:24:35.000Z</time></trkpt>
   <trkpt lat="19.410539" lon="-98.715427"><ele>4036.3</ele><time>2021-01-24T19:24:46.000Z</time></trkpt>
   <trkpt lat="19.410613" lon="-98.715489"><ele>4038.4</ele><time>2021-01-24T19:25:17.000Z</time></trkpt>
   <trkpt lat="19.410926" lon="-98.715375"><ele>4048.4</ele><time>2021-01-24T19:26:37.000Z</time></trkpt>
   <trkpt lat="19.411044" lon="-98.715431"><ele>4050.4</ele><time>2021-01-24T19:27:13.000Z</time></trkpt>
   <trkpt lat="19.411653" lon="-98.715179"><ele>4067.5</ele><time>2021-01-24T19:30:25.000Z</time></trkpt>
   <trkpt lat="19.411687" lon="-98.715086"><ele>4069.8</ele><time>2021-01-24T19:30:55.000Z</time></trkpt>
   <trkpt lat="19.411508" lon="-98.714821"><ele>4072.0</ele><time>2021-01-24T19:31:42.000Z</time></trkpt>
   <trkpt lat="19.411601" lon="-98.714744"><ele>4079.4</ele><time>2021-01-24T19:32:24.000Z</time></trkpt>
   <trkpt lat="19.411586" lon="-98.714570"><ele>4085.4</ele><time>2021-01-24T19:33:27.000Z</time></trkpt>
   <trkpt lat="19.411679" lon="-98.714403"><ele>4100.1</ele><time>2021-01-24T19:35:07.000Z</time></trkpt>
   <trkpt lat="19.411615" lon="-98.714310"><ele>4100.7</ele><time>2021-01-24T19:35:19.000Z</time></trkpt>
   <trkpt lat="19.411536" lon="-98.714331"><ele>4098.3</ele><time>2021-01-24T19:37:23.000Z</time></trkpt>
   <trkpt lat="19.411610" lon="-98.714310"><ele>4100.7</ele><time>2021-01-24T19:40:06.000Z</time></trkpt>
   <trkpt lat="19.411569" lon="-98.714233"><ele>4102.9</ele><time>2021-01-24T19:40:19.000Z</time></trkpt>
   <trkpt lat="19.411685" lon="-98.713848"><ele>4107.7</ele><time>2021-01-24T19:42:46.000Z</time></trkpt>
   <trkpt lat="19.411771" lon="-98.713813"><ele>4109.2</ele><time>2021-01-24T19:42:59.000Z</time></trkpt>
   <trkpt lat="19.411907" lon="-98.713517"><ele>4116.7</ele><time>2021-01-24T19:44:11.000Z</time></trkpt>
   <trkpt lat="19.411883" lon="-98.713073"><ele>4123.5</ele><time>2021-01-24T19:45:37.000Z</time></trkpt>
   <trkpt lat="19.412077" lon="-98.712937"><ele>4128.2</ele><time>2021-01-24T19:46:20.000Z</time></trkpt>
   <trkpt lat="19.412140" lon="-98.712669"><ele>4134.5</ele><time>2021-01-24T19:47:36.000Z</time></trkpt>
   <trkpt lat="19.412099" lon="-98.712416"><ele>4134.2</ele><time>2021-01-24T19:48:08.000Z</time></trkpt>
   <trkpt lat="19.411953" lon="-98.712353"><ele>4130.6</ele><time>2021-01-24T19:48:39.000Z</time></trkpt>
   <trkpt lat="19.412262" lon="-98.712509"><ele>4133.8</ele><time>2021-01-24T20:29:37.000Z</time></trkpt>
   <trkpt lat="19.412612" lon="-98.712500"><ele>4134.4</ele><time>2021-01-24T20:30:22.000Z</time></trkpt>
   <trkpt lat="19.412611" lon="-98.712759"><ele>4132.1</ele><time>2021-01-24T20:31:06.000Z</time></trkpt>
   <trkpt lat="19.412390" lon="-98.712813"><ele>4132.8</ele><time>2021-01-24T20:33:51.000Z</time></trkpt>
   <trkpt lat="19.412145" lon="-98.712713"><ele>4134.3</ele><time>2021-01-24T20:34:50.000Z</time></trkpt>
   <trkpt lat="19.411954" lon="-98.712866"><ele>4124.2</ele><time>2021-01-24T20:37:17.000Z</time></trkpt>
   <trkpt lat="19.411537" lon="-98.712888"><ele>4111.5</ele><time>2021-01-24T20:38:34.000Z</time></trkpt>
   <trkpt lat="19.411428" lon="-98.712764"><ele>4107.4</ele><time>2021-01-24T20:38:54.000Z</time></trkpt>
   <trkpt lat="19.411106" lon="-98.712815"><ele>4101.5</ele><time>2021-01-24T20:39:30.000Z</time></trkpt>
   <trkpt lat="19.410723" lon="-98.713005"><ele>4089.5</ele><time>2021-01-24T20:40:46.000Z</time></trkpt>
   <trkpt lat="19.410557" lon="-98.713006"><ele>4085.1</ele><time>2021-01-24T20:41:13.000Z</time></trkpt>
   <trkpt lat="19.410573" lon="-98.713075"><ele>4081.9</ele><time>2021-01-24T20:41:30.000Z</time></trkpt>
   <trkpt lat="19.410128" lon="-98.713145"><ele>4063.5</ele><time>2021-01-24T20:43:08.000Z</time></trkpt>
   <trkpt lat="19.409266" lon="-98.713600"><ele>4031.8</ele><time>2021-01-24T20:47:06.000Z</time></trkpt>
   <trkpt lat="19.408939" lon="-98.713678"><ele>4026.8</ele><time>2021-01-24T20:48:08.000Z</time></trkpt>
   <trkpt lat="19.408817" lon="-98.713621"><ele>4022.5</ele><time>2021-01-24T20:50:15.000Z</time></trkpt>
   <trkpt lat="19.408620" lon="-98.713772"><ele>4008.1</ele><time>2021-01-24T20:52:37.000Z</time></trkpt>
   <trkpt lat="19.408570" lon="-98.713707"><ele>4005.3</ele><time>2021-01-24T20:53:02.000Z</time></trkpt>
   <trkpt lat="19.408502" lon="-98.713800"><ele>3999.6</ele><time>2021-01-24T20:54:22.000Z</time></trkpt>
   <trkpt lat="19.408390" lon="-98.713771"><ele>3993.9</ele><time>2021-01-24T20:55:17.000Z</time></trkpt>
   <trkpt lat="19.407925" lon="-98.713968"><ele>3982.3</ele><time>2021-01-24T20:57:39.000Z</time></trkpt>
   <trkpt lat="19.407876" lon="-98.713909"><ele>3980.0</ele><time>2021-01-24T20:58:38.000Z</time></trkpt>
   <trkpt lat="19.407999" lon="-98.713763"><ele>3983.3</ele><time>2021-01-24T20:59:00.000Z</time></trkpt>
   <trkpt lat="19.407777" lon="-98.713522"><ele>3976.9</ele><time>2021-01-24T21:00:48.000Z</time></trkpt>
   <trkpt lat="19.407708" lon="-98.713631"><ele>3967.2</ele><time>2021-01-24T21:01:54.000Z</time></trkpt>
   <trkpt lat="19.407497" lon="-98.713709"><ele>3948.8</ele><time>2021-01-24T21:02:35.000Z</time></trkpt>
   <trkpt lat="19.407532" lon="-98.713929"><ele>3945.9</ele><time>2021-01-24T21:03:59.000Z</time></trkpt>
   <trkpt lat="19.407618" lon="-98.713975"><ele>3949.1</ele><time>2021-01-24T21:04:38.000Z</time></trkpt>
   <trkpt lat="19.407556" lon="-98.714123"><ele>3944.6</ele><time>2021-01-24T21:05:57.000Z</time></trkpt>
   <trkpt lat="19.407441" lon="-98.714073"><ele>3938.2</ele><time>2021-01-24T21:06:59.000Z</time></trkpt>
   <trkpt lat="19.407468" lon="-98.714150"><ele>3938.9</ele><time>2021-01-24T21:07:47.000Z</time></trkpt>
   <trkpt lat="19.407346" lon="-98.714107"><ele>3932.9</ele><time>2021-01-24T21:08:13.000Z</time></trkpt>
   <trkpt lat="19.406783" lon="-98.714438"><ele>3912.3</ele><time>2021-01-24T21:10:11.000Z</time></trkpt>
   <trkpt lat="19.406506" lon="-98.714458"><ele>3911.2</ele><time>2021-01-24T21:10:44.000Z</time></trkpt>
   <trkpt lat="19.405852" lon="-98.714687"><ele>3910.8</ele><time>2021-01-24T21:12:58.000Z</time></trkpt>
   <trkpt lat="19.405823" lon="-98.714771"><ele>3912.6</ele><time>2021-01-24T21:13:37.000Z</time></trkpt>
   <trkpt lat="19.405081" lon="-98.714937"><ele>3892.0</ele><time>2021-01-24T21:15:47.000Z</time></trkpt>
   <trkpt lat="19.404926" lon="-98.715129"><ele>3885.2</ele><time>2021-01-24T21:16:33.000Z</time></trkpt>
   <trkpt lat="19.404771" lon="-98.715192"><ele>3885.3</ele><time>2021-01-24T21:17:19.000Z</time></trkpt>
   <trkpt lat="19.404662" lon="-98.715143"><ele>3884.9</ele><time>2021-01-24T21:18:13.000Z</time></trkpt>
   <trkpt lat="19.404104" lon="-98.715582"><ele>3854.1</ele><time>2021-01-24T21:23:24.000Z</time></trkpt>
   <trkpt lat="19.404033" lon="-98.715534"><ele>3853.0</ele><time>2021-01-24T21:23:53.000Z</time></trkpt>
   <trkpt lat="19.403937" lon="-98.715620"><ele>3850.3</ele><time>2021-01-24T21:24:40.000Z</time></trkpt>
   <trkpt lat="19.403598" lon="-98.715225"><ele>3842.0</ele><time>2021-01-24T21:25:48.000Z</time></trkpt>
   <trkpt lat="19.403694" lon="-98.714713"><ele>3834.8</ele><time>2021-01-24T21:26:45.000Z</time></trkpt>
   <trkpt lat="19.403624" lon="-98.714557"><ele>3832.3</ele><time>2021-01-24T21:26:56.000Z</time></trkpt>
   <trkpt lat="19.403333" lon="-98.714740"><ele>3827.3</ele><time>2021-01-24T21:27:25.000Z</time></trkpt>
   <trkpt lat="19.403100" lon="-98.714602"><ele>3823.4</ele><time>2021-01-24T21:27:57.000Z</time></trkpt>
   <trkpt lat="19.402785" lon="-98.714649"><ele>3818.7</ele><time>2021-01-24T21:28:32.000Z</time></trkpt>
   <trkpt lat="19.402387" lon="-98.714478"><ele>3812.6</ele><time>2021-01-24T21:29:15.000Z</time></trkpt>
   <trkpt lat="19.402027" lon="-98.714613"><ele>3806.5</ele><time>2021-01-24T21:30:13.000Z</time></trkpt>
   <trkpt lat="19.401675" lon="-98.714279"><ele>3798.4</ele><time>2021-01-24T21:31:45.000Z</time></trkpt>
   <trkpt lat="19.401357" lon="-98.714370"><ele>3795.3</ele><time>2021-01-24T21:32:45.000Z</time></trkpt>
   <trkpt lat="19.401399" lon="-98.714407"><ele>3795.2</ele><time>2021-01-24T21:32:58.000Z</time></trkpt>
   <trkpt lat="19.401204" lon="-98.714504"><ele>3795.6</ele><time>2021-01-24T21:33:34.000Z</time></trkpt>
   <trkpt lat="19.400826" lon="-98.714424"><ele>3795.4</ele><time>2021-01-24T21:34:03.000Z</time></trkpt>
   <trkpt lat="19.400540" lon="-98.714006"><ele>3792.1</ele><time>2021-01-24T21:34:50.000Z</time></trkpt>
   <trkpt lat="19.400388" lon="-98.713997"><ele>3790.5</ele><time>2021-01-24T21:35:05.000Z</time></trkpt>
   <trkpt lat="19.400209" lon="-98.713777"><ele>3787.9</ele><time>2021-01-24T21:35:35.000Z</time></trkpt>
   <trkpt lat="19.399941" lon="-98.713707"><ele>3785.1</ele><time>2021-01-24T21:36:03.000Z</time></trkpt>
   <trkpt lat="19.399891" lon="-98.713498"><ele>3783.1</ele><time>2021-01-24T21:36:18.000Z</time></trkpt>
   <trkpt lat="19.399318" lon="-98.712665"><ele>3773.5</ele><time>2021-01-24T21:37:47.000Z</time></trkpt>
   <trkpt lat="19.398666" lon="-98.712269"><ele>3765.9</ele><time>2021-01-24T21:39:02.000Z</time></trkpt>
   <trkpt lat="19.398212" lon="-98.711794"><ele>3759.8</ele><time>2021-01-24T21:40:08.000Z</time></trkpt>
   <trkpt lat="19.398052" lon="-98.711818"><ele>3758.4</ele><time>2021-01-24T21:40:25.000Z</time></trkpt>
   <trkpt lat="19.397389" lon="-98.712206"><ele>3751.5</ele><time>2021-01-24T21:41:32.000Z</time></trkpt>
   <trkpt lat="19.396340" lon="-98.713219"><ele>3738.1</ele><time>2021-01-24T21:43:35.000Z</time></trkpt>
   <trkpt lat="19.395310" lon="-98.713883"><ele>3726.5</ele><time>2021-01-24T21:45:29.000Z</time></trkpt>
   <trkpt lat="19.394811" lon="-98.713948"><ele>3721.6</ele><time>2021-01-24T21:46:20.000Z</time></trkpt>
   <trkpt lat="19.394184" lon="-98.714272"><ele>3714.5</ele><time>2021-01-24T21:47:42.000Z</time></trkpt>
   <trkpt lat="19.393532" lon="-98.714476"><ele>3707.8</ele><time>2021-01-24T21:48:59.000Z</time></trkpt>
   <trkpt lat="19.393218" lon="-98.714037"><ele>3701.5</ele><time>2021-01-24T21:51:56.000Z</time></trkpt>
   <trkpt lat="19.392898" lon="-98.713273"><ele>3696.1</ele><time>2021-01-24T21:53:23.000Z</time></trkpt>
   <trkpt lat="19.391774" lon="-98.711639"><ele>3683.0</ele><time>2021-01-24T21:56:30.000Z</time></trkpt>
   <trkpt lat="19.391382" lon="-98.711325"><ele>3679.6</ele><time>2021-01-24T21:57:13.000Z</time></trkpt>
   <trkpt lat="19.391130" lon="-98.711286"><ele>3677.9</ele><time>2021-01-24T21:57:38.000Z</time></trkpt>
   <trkpt lat="19.390845" lon="-98.711403"><ele>3675.8</ele><time>2021-01-24T21:58:08.000Z</time></trkpt>
   <trkpt lat="19.390781" lon="-98.711044"><ele>3673.4</ele><time>2021-01-24T21:58:41.000Z</time></trkpt>
   <trkpt lat="19.390389" lon="-98.710873"><ele>3670.4</ele><time>2021-01-24T21:59:15.000Z</time></trkpt>
   <trkpt lat="19.390127" lon="-98.710518"><ele>3667.5</ele><time>2021-01-24T21:59:54.000Z</time></trkpt>
   <trkpt lat="19.389994" lon="-98.709246"><ele>3659.2</ele><time>2021-01-24T22:01:43.000Z</time></trkpt>
   <trkpt lat="19.389872" lon="-98.708960"><ele>3657.1</ele><time>2021-01-24T22:02:10.000Z</time></trkpt>
   <trkpt lat="19.389647" lon="-98.708941"><ele>3655.5</ele><time>2021-01-24T22:02:27.000Z</time></trkpt>
   <trkpt lat="19.389287" lon="-98.708753"><ele>3652.8</ele><time>2021-01-24T22:03:09.000Z</time></trkpt>
   <trkpt lat="19.388870" lon="-98.708101"><ele>3647.7</ele><time>2021-01-24T22:04:20.000Z</time></trkpt>
   <trkpt lat="19.388616" lon="-98.707957"><ele>3645.7</ele><time>2021-01-24T22:04:44.000Z</time></trkpt>
   <trkpt lat="19.388376" lon="-98.707653"><ele>3643.2</ele><time>2021-01-24T22:05:15.000Z</time></trkpt>
   <trkpt lat="19.388084" lon="-98.707600"><ele>3641.1</ele><time>2021-01-24T22:05:41.000Z</time></trkpt>
   <trkpt lat="19.387832" lon="-98.707442"><ele>3639.1</ele><time>2021-01-24T22:06:05.000Z</time></trkpt>
   <trkpt lat="19.387744" lon="-98.707182"><ele>3637.3</ele><time>2021-01-24T22:06:28.000Z</time></trkpt>
   <trkpt lat="19.387589" lon="-98.707016"><ele>3635.8</ele><time>2021-01-24T22:06:45.000Z</time></trkpt>
   <trkpt lat="19.387298" lon="-98.707020"><ele>3633.6</ele><time>2021-01-24T22:07:10.000Z</time></trkpt>
   <trkpt lat="19.387053" lon="-98.707119"><ele>3631.4</ele><time>2021-01-24T22:07:39.000Z</time></trkpt>
   <trkpt lat="19.386827" lon="-98.707077"><ele>3629.4</ele><time>2021-01-24T22:08:02.000Z</time></trkpt>
   <trkpt lat="19.386801" lon="-98.706998"><ele>3628.3</ele><time>2021-01-24T22:08:47.000Z</time></trkpt>
   <trkpt lat="19.386809" lon="-98.707121"><ele>3627.2</ele><time>2021-01-24T22:09:23.000Z</time></trkpt>
   <trkpt lat="19.386307" lon="-98.707007"><ele>3622.0</ele><time>2021-01-24T22:11:36.000Z</time></trkpt>
   <trkpt lat="19.386247" lon="-98.706826"><ele>3620.5</ele><time>2021-01-24T22:11:56.000Z</time></trkpt>
   <trkpt lat="19.386276" lon="-98.706686"><ele>3619.4</ele><time>2021-01-24T22:12:15.000Z</time></trkpt>
   <trkpt lat="19.386361" lon="-98.706766"><ele>3618.5</ele><time>2021-01-24T22:12:24.000Z</time></trkpt>
   <trkpt lat="19.386358" lon="-98.706585"><ele>3617.1</ele><time>2021-01-24T22:12:47.000Z</time></trkpt>
   <trkpt lat="19.386281" lon="-98.706459"><ele>3615.9</ele><time>2021-01-24T22:13:04.000Z</time></trkpt>
   <trkpt lat="19.386037" lon="-98.706355"><ele>3613.7</ele><time>2021-01-24T22:13:42.000Z</time></trkpt>
   <trkpt lat="19.386068" lon="-98.705994"><ele>3611.0</ele><time>2021-01-24T22:14:26.000Z</time></trkpt>
   <trkpt lat="19.385735" lon="-98.705732"><ele>3607.6</ele><time>2021-01-24T22:15:16.000Z</time></trkpt>
   <trkpt lat="19.385280" lon="-98.705565"><ele>3603.7</ele><time>2021-01-24T22:16:08.000Z</time></trkpt>
   <trkpt lat="19.385174" lon="-98.705462"><ele>3602.6</ele><time>2021-01-24T22:16:27.000Z</time></trkpt>
   <trkpt lat="19.385149" lon="-98.705289"><ele>3601.3</ele><time>2021-01-24T22:16:43.000Z</time></trkpt>
   <trkpt lat="19.384926" lon="-98.705149"><ele>3599.2</ele><time>2021-01-24T22:17:03.000Z</time></trkpt>
   <trkpt lat="19.384794" lon="-98.704691"><ele>3595.7</ele><time>2021-01-24T22:17:44.000Z</time></trkpt>
   <trkpt lat="19.384401" lon="-98.703929"><ele>3589.2</ele><time>2021-01-24T22:18:59.000Z</time></trkpt>
   <trkpt lat="19.384430" lon="-98.703781"><ele>3588.1</ele><time>2021-01-24T22:19:17.000Z</time></trkpt>
   <trkpt lat="19.384671" lon="-98.703705"><ele>3585.5</ele><time>2021-01-24T22:20:29.000Z</time></trkpt>
   <trkpt lat="19.384560" lon="-98.703536"><ele>3583.1</ele><time>2021-01-24T22:22:49.000Z</time></trkpt>
   <trkpt lat="19.384521" lon="-98.703064"><ele>3579.1</ele><time>2021-01-24T22:23:57.000Z</time></trkpt>
   <trkpt lat="19.384395" lon="-98.702744"><ele>3576.5</ele><time>2021-01-24T22:24:29.000Z</time></trkpt>
   <trkpt lat="19.384493" lon="-98.702191"><ele>3572.1</ele><time>2021-01-24T22:25:17.000Z</time></trkpt>
   <trkpt lat="19.384331" lon="-98.702006"><ele>3570.2</ele><time>2021-01-24T22:25:40.000Z</time></trkpt>
   <trkpt lat="19.384292" lon="-98.701746"><ele>3569.6</ele><time>2021-01-24T22:26:01.000Z</time></trkpt>
   <trkpt lat="19.384076" lon="-98.701839"><ele>3563.9</ele><time>2021-01-24T22:26:45.000Z</time></trkpt>
   <trkpt lat="19.383680" lon="-98.701819"><ele>3555.0</ele><time>2021-01-24T22:27:33.000Z</time></trkpt>
   <trkpt lat="19.383585" lon="-98.701740"><ele>3552.4</ele><time>2021-01-24T22:27:44.000Z</time></trkpt>
   <trkpt lat="19.383473" lon="-98.701770"><ele>3553.4</ele><time>2021-01-24T22:27:59.000Z</time></trkpt>
   <trkpt lat="19.383324" lon="-98.701582"><ele>3552.8</ele><time>2021-01-24T22:28:34.000Z</time></trkpt>
   <trkpt lat="19.383086" lon="-98.701564"><ele>3555.1</ele><time>2021-01-24T22:28:50.000Z</time></trkpt>
   <trkpt lat="19.382768" lon="-98.701022"><ele>3545.8</ele><time>2021-01-24T22:29:47.000Z</time></trkpt>
   <trkpt lat="19.382552" lon="-98.700883"><ele>3547.8</ele><time>2021-01-24T22:30:13.000Z</time></trkpt>
   <trkpt lat="19.382354" lon="-98.700412"><ele>3541.1</ele><time>2021-01-24T22:31:03.000Z</time></trkpt>
   <trkpt lat="19.381999" lon="-98.700210"><ele>3547.0</ele><time>2021-01-24T22:31:43.000Z</time></trkpt>
   <trkpt lat="19.381760" lon="-98.699890"><ele>3539.5</ele><time>2021-01-24T22:32:20.000Z</time></trkpt>
   <trkpt lat="19.381731" lon="-98.699733"><ele>3532.5</ele><time>2021-01-24T22:32:38.000Z</time></trkpt>
   <trkpt lat="19.381574" lon="-98.699657"><ele>3533.8</ele><time>2021-01-24T22:33:12.000Z</time></trkpt>
   <trkpt lat="19.381397" lon="-98.699691"><ele>3540.0</ele><time>2021-01-24T22:33:37.000Z</time></trkpt>
   <trkpt lat="19.381091" lon="-98.699547"><ele>3540.5</ele><time>2021-01-24T22:34:04.000Z</time></trkpt>
   <trkpt lat="19.380287" lon="-98.699504"><ele>3537.0</ele><time>2021-01-24T22:35:16.000Z</time></trkpt>
   <trkpt lat="19.379781" lon="-98.699653"><ele>3526.3</ele><time>2021-01-24T22:36:45.000Z</time></trkpt>
   <trkpt lat="19.379595" lon="-98.699805"><ele>3524.8</ele><time>2021-01-24T22:37:24.000Z</time></trkpt>
   <trkpt lat="19.379195" lon="-98.699828"><ele>3518.2</ele><time>2021-01-24T22:37:57.000Z</time></trkpt>
   <trkpt lat="19.379164" lon="-98.699626"><ele>3513.2</ele><time>2021-01-24T22:38:57.000Z</time></trkpt>
   <trkpt lat="19.378677" lon="-98.699503"><ele>3510.2</ele><time>2021-01-24T22:39:33.000Z</time></trkpt>
   <trkpt lat="19.378613" lon="-98.699208"><ele>3507.1</ele><time>2021-01-24T22:40:12.000Z</time></trkpt>
   <trkpt lat="19.378312" lon="-98.699019"><ele>3502.6</ele><time>2021-01-24T22:40:42.000Z</time></trkpt>
   <trkpt lat="19.377660" lon="-98.698390"><ele>3495.2</ele><time>2021-01-24T22:42:04.000Z</time></trkpt>
   <trkpt lat="19.377696" lon="-98.698059"><ele>3489.7</ele><time>2021-01-24T22:42:34.000Z</time></trkpt>
   <trkpt lat="19.377556" lon="-98.697841"><ele>3486.7</ele><time>2021-01-24T22:43:08.000Z</time></trkpt>
   <trkpt lat="19.377536" lon="-98.697382"><ele>3481.5</ele><time>2021-01-24T22:43:46.000Z</time></trkpt>
   <trkpt lat="19.377231" lon="-98.697171"><ele>3479.4</ele><time>2021-01-24T22:44:16.000Z</time></trkpt>
   <trkpt lat="19.377158" lon="-98.696974"><ele>3477.3</ele><time>2021-01-24T22:44:36.000Z</time></trkpt>
   <trkpt lat="19.376930" lon="-98.696789"><ele>3474.9</ele><time>2021-01-24T22:45:05.000Z</time></trkpt>
   <trkpt lat="19.376916" lon="-98.696467"><ele>3467.1</ele><time>2021-01-24T22:45:42.000Z</time></trkpt>
   <trkpt lat="19.376758" lon="-98.696349"><ele>3464.5</ele><time>2021-01-24T22:46:07.000Z</time></trkpt>
   <trkpt lat="19.376534" lon="-98.696390"><ele>3461.1</ele><time>2021-01-24T22:46:27.000Z</time></trkpt>
   <trkpt lat="19.376325" lon="-98.696612"><ele>3467.5</ele><time>2021-01-24T22:47:17.000Z</time></trkpt>
   <trkpt lat="19.376012" lon="-98.696639"><ele>3469.3</ele><time>2021-01-24T22:47:46.000Z</time></trkpt>
   <trkpt lat="19.375701" lon="-98.696322"><ele>3457.2</ele><time>2021-01-24T22:48:25.000Z</time></trkpt>
   <trkpt lat="19.375677" lon="-98.696151"><ele>3449.4</ele><time>2021-01-24T22:48:40.000Z</time></trkpt>
   <trkpt lat="19.375492" lon="-98.696065"><ele>3442.7</ele><time>2021-01-24T22:48:58.000Z</time></trkpt>
   <trkpt lat="19.375486" lon="-98.695941"><ele>3435.0</ele><time>2021-01-24T22:49:10.000Z</time></trkpt>
   <trkpt lat="19.375288" lon="-98.695863"><ele>3428.4</ele><time>2021-01-24T22:49:31.000Z</time></trkpt>
   <trkpt lat="19.375251" lon="-98.695675"><ele>3426.0</ele><time>2021-01-24T22:49:46.000Z</time></trkpt>
   <trkpt lat="19.374971" lon="-98.695551"><ele>3438.9</ele><time>2021-01-24T22:50:18.000Z</time></trkpt>
   <trkpt lat="19.374654" lon="-98.695521"><ele>3445.6</ele><time>2021-01-24T22:50:52.000Z</time></trkpt>
   <trkpt lat="19.374729" lon="-98.695354"><ele>3434.6</ele><time>2021-01-24T22:51:15.000Z</time></trkpt>
   <trkpt lat="19.374687" lon="-98.695252"><ele>3431.6</ele><time>2021-01-24T22:51:36.000Z</time></trkpt>
   <trkpt lat="19.374727" lon="-98.695315"><ele>3432.5</ele><time>2021-01-24T22:51:46.000Z</time></trkpt>
   <trkpt lat="19.374754" lon="-98.695265"><ele>3430.2</ele><time>2021-01-24T22:51:57.000Z</time></trkpt>
   <trkpt lat="19.374580" lon="-98.694985"><ele>3426.7</ele><time>2021-01-24T22:52:24.000Z</time></trkpt>
   <trkpt lat="19.374471" lon="-98.694918"><ele>3425.5</ele><time>2021-01-24T22:52:35.000Z</time></trkpt>
   <trkpt lat="19.374236" lon="-98.694980"><ele>3428.5</ele><time>2021-01-24T22:52:56.000Z</time></trkpt>
   <trkpt lat="19.374139" lon="-98.694624"><ele>3417.5</ele><time>2021-01-24T22:54:00.000Z</time></trkpt>
   <trkpt lat="19.373984" lon="-98.694647"><ele>3416.7</ele><time>2021-01-24T22:54:25.000Z</time></trkpt>
   <trkpt lat="19.373806" lon="-98.694441"><ele>3412.8</ele><time>2021-01-24T22:54:53.000Z</time></trkpt>
   <trkpt lat="19.373436" lon="-98.694265"><ele>3407.2</ele><time>2021-01-24T22:55:42.000Z</time></trkpt>
   <trkpt lat="19.373282" lon="-98.694094"><ele>3397.7</ele><time>2021-01-24T22:56:04.000Z</time></trkpt>
   <trkpt lat="19.373144" lon="-98.693912"><ele>3386.4</ele><time>2021-01-24T22:56:39.000Z</time></trkpt>
   <trkpt lat="19.373123" lon="-98.693553"><ele>3379.9</ele><time>2021-01-24T22:57:58.000Z</time></trkpt>
   <trkpt lat="19.372829" lon="-98.693373"><ele>3380.4</ele><time>2021-01-24T22:58:26.000Z</time></trkpt>
   <trkpt lat="19.372750" lon="-98.693216"><ele>3377.3</ele><time>2021-01-24T22:58:54.000Z</time></trkpt>
   <trkpt lat="19.372802" lon="-98.693247"><ele>3378.9</ele><time>2021-01-24T22:59:05.000Z</time></trkpt>
   <trkpt lat="19.372815" lon="-98.693034"><ele>3374.9</ele><time>2021-01-24T22:59:25.000Z</time></trkpt>
   <trkpt lat="19.372266" lon="-98.692276"><ele>3356.3</ele><time>2021-01-24T23:01:40.000Z</time></trkpt>
   <trkpt lat="19.372219" lon="-98.692168"><ele>3351.1</ele><time>2021-01-24T23:02:06.000Z</time></trkpt>
   <trkpt lat="19.372263" lon="-98.692218"><ele>3354.0</ele><time>2021-01-24T23:02:14.000Z</time></trkpt>
   <trkpt lat="19.372301" lon="-98.692059"><ele>3342.9</ele><time>2021-01-24T23:02:45.000Z</time></trkpt>
   <trkpt lat="19.372144" lon="-98.692002"><ele>3337.5</ele><time>2021-01-24T23:03:03.000Z</time></trkpt>
   <trkpt lat="19.372058" lon="-98.691758"><ele>3325.8</ele><time>2021-01-24T23:03:37.000Z</time></trkpt>
   <trkpt lat="19.372161" lon="-98.691413"><ele>3322.2</ele><time>2021-01-24T23:04:00.000Z</time></trkpt>
   <trkpt lat="19.372034" lon="-98.691342"><ele>3313.0</ele><time>2021-01-24T23:04:09.000Z</time></trkpt>
   <trkpt lat="19.371747" lon="-98.691445"><ele>3310.6</ele><time>2021-01-24T23:04:42.000Z</time></trkpt>
   <trkpt lat="19.371756" lon="-98.691180"><ele>3301.1</ele><time>2021-01-24T23:05:26.000Z</time></trkpt>
   <trkpt lat="19.371757" lon="-98.691281"><ele>3302.4</ele><time>2021-01-24T23:05:33.000Z</time></trkpt>
   <trkpt lat="19.371594" lon="-98.691006"><ele>3290.8</ele><time>2021-01-24T23:05:56.000Z</time></trkpt>
   <trkpt lat="19.371549" lon="-98.690711"><ele>3274.9</ele><time>2021-01-24T23:06:37.000Z</time></trkpt>
   <trkpt lat="19.371306" lon="-98.690609"><ele>3259.9</ele><time>2021-01-24T23:07:10.000Z</time></trkpt>
   <trkpt lat="19.371244" lon="-98.690405"><ele>3253.0</ele><time>2021-01-24T23:07:43.000Z</time></trkpt>
   <trkpt lat="19.370980" lon="-98.690410"><ele>3241.0</ele><time>2021-01-24T23:08:15.000Z</time></trkpt>
   <trkpt lat="19.370929" lon="-98.690506"><ele>3238.1</ele><time>2021-01-24T23:08:25.000Z</time></trkpt>
   <trkpt lat="19.370986" lon="-98.690846"><ele>3250.1</ele><time>2021-01-24T23:09:18.000Z</time></trkpt>
   <trkpt lat="19.370730" lon="-98.690690"><ele>3225.4</ele><time>2021-01-24T23:09:40.000Z</time></trkpt>
   <trkpt lat="19.370516" lon="-98.691187"><ele>3245.6</ele><time>2021-01-24T23:10:15.000Z</time></trkpt>
   <trkpt lat="19.370272" lon="-98.691117"><ele>3230.7</ele><time>2021-01-24T23:10:36.000Z</time></trkpt>
   <trkpt lat="19.369999" lon="-98.691190"><ele>3220.7</ele><time>2021-01-24T23:11:00.000Z</time></trkpt>
   <trkpt lat="19.369766" lon="-98.691353"><ele>3215.1</ele><time>2021-01-24T23:11:26.000Z</time></trkpt>
   <trkpt lat="19.369717" lon="-98.691481"><ele>3216.0</ele><time>2021-01-24T23:11:40.000Z</time></trkpt>
   <trkpt lat="19.369490" lon="-98.691500"><ele>3203.3</ele><time>2021-01-24T23:11:59.000Z</time></trkpt>
   <trkpt lat="19.369351" lon="-98.691630"><ele>3203.4</ele><time>2021-01-24T23:12:17.000Z</time></trkpt>
   <trkpt lat="19.369576" lon="-98.691426"><ele>3205.4</ele><time>2021-01-24T23:12:43.000Z</time></trkpt>
   <trkpt lat="19.369576" lon="-98.691212"><ele>3199.7</ele><time>2021-01-24T23:13:02.000Z</time></trkpt>
   <trkpt lat="19.369895" lon="-98.690585"><ele>3186.8</ele><time>2021-01-24T23:14:13.000Z</time></trkpt>
   <trkpt lat="19.369780" lon="-98.690664"><ele>3185.1</ele><time>2021-01-24T23:14:30.000Z</time></trkpt>
   <trkpt lat="19.369566" lon="-98.690649"><ele>3175.4</ele><time>2021-01-24T23:14:52.000Z</time></trkpt>
   <trkpt lat="19.369548" lon="-98.690752"><ele>3178.6</ele><time>2021-01-24T23:15:02.000Z</time></trkpt>
   <trkpt lat="19.369390" lon="-98.690763"><ele>3173.4</ele><time>2021-01-24T23:15:19.000Z</time></trkpt>
   <trkpt lat="19.369091" lon="-98.691050"><ele>3178.7</ele><time>2021-01-24T23:15:57.000Z</time></trkpt>
   <trkpt lat="19.369000" lon="-98.690717"><ele>3167.8</ele><time>2021-01-24T23:16:56.000Z</time></trkpt>
   <trkpt lat="19.368888" lon="-98.690778"><ele>3170.9</ele><time>2021-01-24T23:17:07.000Z</time></trkpt>
   <trkpt lat="19.368767" lon="-98.690680"><ele>3173.1</ele><time>2021-01-24T23:17:22.000Z</time></trkpt>
   <trkpt lat="19.368603" lon="-98.690677"><ele>3176.6</ele><time>2021-01-24T23:17:34.000Z</time></trkpt>
   <trkpt lat="19.368726" lon="-98.690536"><ele>3169.5</ele><time>2021-01-24T23:18:07.000Z</time></trkpt>
   <trkpt lat="19.368664" lon="-98.690333"><ele>3162.7</ele><time>2021-01-24T23:18:45.000Z</time></trkpt>
   <trkpt lat="19.368639" lon="-98.690378"><ele>3165.6</ele><time>2021-01-24T23:18:59.000Z</time></trkpt>
   <trkpt lat="19.368472" lon="-98.690255"><ele>3162.9</ele><time>2021-01-24T23:19:32.000Z</time></trkpt>
   <trkpt lat="19.368498" lon="-98.689936"><ele>3154.5</ele><time>2021-01-24T23:19:52.000Z</time></trkpt>
   <trkpt lat="19.368412" lon="-98.689715"><ele>3156.5</ele><time>2021-01-24T23:20:07.000Z</time></trkpt>
   <trkpt lat="19.368326" lon="-98.689684"><ele>3158.3</ele><time>2021-01-24T23:20:24.000Z</time></trkpt>
   <trkpt lat="19.368459" lon="-98.689701"><ele>3155.4</ele><time>2021-01-24T23:20:44.000Z</time></trkpt>
   <trkpt lat="19.368690" lon="-98.689425"><ele>3147.3</ele><time>2021-01-24T23:21:22.000Z</time></trkpt>
   <trkpt lat="19.368854" lon="-98.689360"><ele>3144.1</ele><time>2021-01-24T23:21:38.000Z</time></trkpt>
   <trkpt lat="19.368877" lon="-98.689050"><ele>3140.3</ele><time>2021-01-24T23:22:00.000Z</time></trkpt>
   <trkpt lat="19.368682" lon="-98.688627"><ele>3135.3</ele><time>2021-01-24T23:22:42.000Z</time></trkpt>
   <trkpt lat="19.368614" lon="-98.688176"><ele>3127.7</ele><time>2021-01-24T23:23:17.000Z</time></trkpt>
   <trkpt lat="19.368505" lon="-98.688072"><ele>3126.2</ele><time>2021-01-24T23:23:29.000Z</time></trkpt>
   <trkpt lat="19.368418" lon="-98.688105"><ele>3126.5</ele><time>2021-01-24T23:23:50.000Z</time></trkpt>
   <trkpt lat="19.368460" lon="-98.688028"><ele>3125.1</ele><time>2021-01-24T23:24:21.000Z</time></trkpt>
   <trkpt lat="19.368454" lon="-98.688165"><ele>3127.3</ele><time>2021-01-24T23:24:28.000Z</time></trkpt>
   <trkpt lat="19.368290" lon="-98.687751"><ele>3119.9</ele><time>2021-01-24T23:29:34.000Z</time></trkpt>
   <trkpt lat="19.368088" lon="-98.687570"><ele>3117.5</ele><time>2021-01-24T23:29:59.000Z</time></trkpt>
   <trkpt lat="19.368091" lon="-98.687404"><ele>3116.5</ele><time>2021-01-24T23:30:15.000Z</time></trkpt>
   <trkpt lat="19.368290" lon="-98.687225"><ele>3116.1</ele><time>2021-01-24T23:30:35.000Z</time></trkpt>
   <trkpt lat="19.368134" lon="-98.687159"><ele>3115.6</ele><time>2021-01-24T23:30:50.000Z</time></trkpt>
   <trkpt lat="19.368129" lon="-98.686759"><ele>3114.1</ele><time>2021-01-24T23:31:35.000Z</time></trkpt>
   <trkpt lat="19.367937" lon="-98.686469"><ele>3113.3</ele><time>2021-01-24T23:32:05.000Z</time></trkpt>
   <trkpt lat="19.368089" lon="-98.686423"><ele>3113.7</ele><time>2021-01-24T23:32:13.000Z</time></trkpt>
   <trkpt lat="19.367972" lon="-98.686451"><ele>3113.9</ele><time>2021-01-24T23:32:27.000Z</time></trkpt>
   <trkpt lat="19.367752" lon="-98.686172"><ele>3113.5</ele><time>2021-01-24T23:33:10.000Z</time></trkpt>
   <trkpt lat="19.367755" lon="-98.685879"><ele>3113.4</ele><time>2021-01-24T23:33:39.000Z</time></trkpt>
   <trkpt lat="19.367639" lon="-98.686041"><ele>3113.1</ele><time>2021-01-24T23:33:48.000Z</time></trkpt>
   <trkpt lat="19.367526" lon="-98.685786"><ele>3111.9</ele><time>2021-01-24T23:34:15.000Z</time></trkpt>
   <trkpt lat="19.367312" lon="-98.685631"><ele>3109.7</ele><time>2021-01-24T23:34:42.000Z</time></trkpt>
   <trkpt lat="19.367224" lon="-98.685455"><ele>3108.2</ele><time>2021-01-24T23:35:03.000Z</time></trkpt>
   <trkpt lat="19.367188" lon="-98.685359"><ele>3107.5</ele><time>2021-01-24T23:35:16.000Z</time></trkpt>
   <trkpt lat="19.367234" lon="-98.685440"><ele>3107.0</ele><time>2021-01-24T23:35:22.000Z</time></trkpt>
   <trkpt lat="19.367319" lon="-98.685108"><ele>3104.3</ele><time>2021-01-24T23:35:47.000Z</time></trkpt>
   <trkpt lat="19.367075" lon="-98.684729"><ele>3100.6</ele><time>2021-01-24T23:36:13.000Z</time></trkpt>
   <trkpt lat="19.367094" lon="-98.684641"><ele>3099.6</ele><time>2021-01-24T23:36:26.000Z</time></trkpt>
   <trkpt lat="19.367170" lon="-98.684651"><ele>3098.8</ele><time>2021-01-24T23:36:37.000Z</time></trkpt>
   <trkpt lat="19.367032" lon="-98.684727"><ele>3097.2</ele><time>2021-01-24T23:36:43.000Z</time></trkpt>
   <trkpt lat="19.367118" lon="-98.684656"><ele>3096.2</ele><time>2021-01-24T23:36:59.000Z</time></trkpt>
   <trkpt lat="19.367047" lon="-98.684618"><ele>3095.7</ele><time>2021-01-24T23:37:06.000Z</time></trkpt>
   <trkpt lat="19.367041" lon="-98.684331"><ele>3094.1</ele><time>2021-01-24T23:37:24.000Z</time></trkpt>
   <trkpt lat="19.366870" lon="-98.684142"><ele>3092.3</ele><time>2021-01-24T23:37:40.000Z</time></trkpt>
   <trkpt lat="19.366925" lon="-98.683959"><ele>3090.1</ele><time>2021-01-24T23:38:14.000Z</time></trkpt>
   <trkpt lat="19.366687" lon="-98.683931"><ele>3086.8</ele><time>2021-01-24T23:39:06.000Z</time></trkpt>
   <trkpt lat="19.366775" lon="-98.683906"><ele>3085.9</ele><time>2021-01-24T23:39:25.000Z</time></trkpt>
   <trkpt lat="19.366610" lon="-98.683826"><ele>3084.1</ele><time>2021-01-24T23:39:45.000Z</time></trkpt>
   <trkpt lat="19.366481" lon="-98.683429"><ele>3080.7</ele><time>2021-01-24T23:40:19.000Z</time></trkpt>
   <trkpt lat="19.366286" lon="-98.683363"><ele>3079.0</ele><time>2021-01-24T23:40:35.000Z</time></trkpt>
   <trkpt lat="19.366247" lon="-98.683173"><ele>3077.6</ele><time>2021-01-24T23:41:05.000Z</time></trkpt>
   <trkpt lat="19.366036" lon="-98.682881"><ele>3076.0</ele><time>2021-01-24T23:41:28.000Z</time></trkpt>
   <trkpt lat="19.365417" lon="-98.682266"><ele>3071.6</ele><time>2021-01-24T23:42:44.000Z</time></trkpt>
   <trkpt lat="19.365148" lon="-98.682117"><ele>3068.8</ele><time>2021-01-24T23:43:10.000Z</time></trkpt>
   <trkpt lat="19.365019" lon="-98.682166"><ele>3067.7</ele><time>2021-01-24T23:43:31.000Z</time></trkpt>
   <trkpt lat="19.364810" lon="-98.682093"><ele>3066.1</ele><time>2021-01-24T23:43:50.000Z</time></trkpt>
   <trkpt lat="19.364404" lon="-98.681857"><ele>3062.9</ele><time>2021-01-24T23:44:26.000Z</time></trkpt>
   <trkpt lat="19.364057" lon="-98.681474"><ele>3059.3</ele><time>2021-01-24T23:45:09.000Z</time></trkpt>
   <trkpt lat="19.363985" lon="-98.681147"><ele>3057.0</ele><time>2021-01-24T23:45:38.000Z</time></trkpt>
   <trkpt lat="19.363530" lon="-98.680908"><ele>3053.4</ele><time>2021-01-24T23:46:22.000Z</time></trkpt>
   <trkpt lat="19.363138" lon="-98.680521"><ele>3049.6</ele><time>2021-01-24T23:47:12.000Z</time></trkpt>
   <trkpt lat="19.362786" lon="-98.679718"><ele>3043.3</ele><time>2021-01-24T23:48:26.000Z</time></trkpt>
   <trkpt lat="19.362702" lon="-98.679779"><ele>3042.4</ele><time>2021-01-24T23:48:37.000Z</time></trkpt>
   <trkpt lat="19.362615" lon="-98.679709"><ele>3041.6</ele><time>2021-01-24T23:48:47.000Z</time></trkpt>
   <trkpt lat="19.362588" lon="-98.679443"><ele>3039.8</ele><time>2021-01-24T23:49:00.000Z</time></trkpt>
   <trkpt lat="19.362701" lon="-98.679152"><ele>3037.7</ele><time>2021-01-24T23:49:21.000Z</time></trkpt>
   <trkpt lat="19.362575" lon="-98.678667"><ele>3034.2</ele><time>2021-01-24T23:49:59.000Z</time></trkpt>
   <trkpt lat="19.362276" lon="-98.678488"><ele>3031.4</ele><time>2021-01-24T23:50:47.000Z</time></trkpt>
   <trkpt lat="19.362235" lon="-98.678295"><ele>3030.0</ele><time>2021-01-24T23:51:03.000Z</time></trkpt>
   <trkpt lat="19.361974" lon="-98.678073"><ele>3027.6</ele><time>2021-01-24T23:51:37.000Z</time></trkpt>
   <trkpt lat="19.361610" lon="-98.677548"><ele>3023.2</ele><time>2021-01-24T23:52:20.000Z</time></trkpt>
   <trkpt lat="19.361362" lon="-98.676924"><ele>3018.7</ele><time>2021-01-24T23:53:14.000Z</time></trkpt>
   <trkpt lat="19.361158" lon="-98.676724"><ele>3016.7</ele><time>2021-01-24T23:53:43.000Z</time></trkpt>
  </trkseg>
 </trk>
</gpx>
