<?xml version="1.0" encoding="UTF-8"?>
<gpx version="1.1" creator="Strava (via strava-mcp)" xmlns="http://www.topografix.com/GPX/1/1">
 <metadata><name>La Volta</name><time>2020-02-09T13:04:04.000Z</time></metadata>
 <trk>
  <name>La Volta</name>
  <type>Ride</type>
  <trkseg>
   <trkpt lat="19.279559" lon="-99.387244"><ele>3147.9</ele><time>2020-02-09T13:04:04.000Z</time></trkpt>
   <trkpt lat="19.279381" lon="-99.387074"><ele>3147.2</ele><time>2020-02-09T13:15:40.000Z</time></trkpt>
   <trkpt lat="19.278938" lon="-99.386884"><ele>3145.6</ele><time>2020-02-09T13:16:44.000Z</time></trkpt>
   <trkpt lat="19.278820" lon="-99.386707"><ele>3144.1</ele><time>2020-02-09T13:17:12.000Z</time></trkpt>
   <trkpt lat="19.279092" lon="-99.385947"><ele>3136.3</ele><time>2020-02-09T13:17:35.000Z</time></trkpt>
   <trkpt lat="19.279727" lon="-99.385333"><ele>3126.3</ele><time>2020-02-09T13:17:55.000Z</time></trkpt>
   <trkpt lat="19.280405" lon="-99.385001"><ele>3116.3</ele><time>2020-02-09T13:18:15.000Z</time></trkpt>
   <trkpt lat="19.281049" lon="-99.384508"><ele>3107.4</ele><time>2020-02-09T13:18:31.000Z</time></trkpt>
   <trkpt lat="19.281639" lon="-99.384176"><ele>3100.4</ele><time>2020-02-09T13:18:44.000Z</time></trkpt>
   <trkpt lat="19.282167" lon="-99.383334"><ele>3090.3</ele><time>2020-02-09T13:19:03.000Z</time></trkpt>
   <trkpt lat="19.282239" lon="-99.382856"><ele>3088.4</ele><time>2020-02-09T13:19:12.000Z</time></trkpt>
   <trkpt lat="19.282157" lon="-99.382556"><ele>3087.3</ele><time>2020-02-09T13:19:17.000Z</time></trkpt>
   <trkpt lat="19.281921" lon="-99.382308"><ele>3086.1</ele><time>2020-02-09T13:19:24.000Z</time></trkpt>
   <trkpt lat="19.280895" lon="-99.381573"><ele>3081.4</ele><time>2020-02-09T13:19:48.000Z</time></trkpt>
   <trkpt lat="19.279871" lon="-99.381395"><ele>3079.7</ele><time>2020-02-09T13:20:07.000Z</time></trkpt>
   <trkpt lat="19.279560" lon="-99.381264"><ele>3081.3</ele><time>2020-02-09T13:20:20.000Z</time></trkpt>
   <trkpt lat="19.277705" lon="-99.380235"><ele>3093.8</ele><time>2020-02-09T13:21:41.000Z</time></trkpt>
   <trkpt lat="19.277377" lon="-99.379965"><ele>3095.9</ele><time>2020-02-09T13:21:46.000Z</time></trkpt>
   <trkpt lat="19.277029" lon="-99.379844"><ele>3097.5</ele><time>2020-02-09T13:22:00.000Z</time></trkpt>
   <trkpt lat="19.275823" lon="-99.379139"><ele>3105.5</ele><time>2020-02-09T13:22:35.000Z</time></trkpt>
   <trkpt lat="19.275511" lon="-99.378746"><ele>3109.4</ele><time>2020-02-09T13:22:50.000Z</time></trkpt>
   <trkpt lat="19.274978" lon="-99.377562"><ele>3118.2</ele><time>2020-02-09T13:23:53.000Z</time></trkpt>
   <trkpt lat="19.274464" lon="-99.377046"><ele>3122.1</ele><time>2020-02-09T13:24:20.000Z</time></trkpt>
   <trkpt lat="19.274071" lon="-99.376795"><ele>3123.7</ele><time>2020-02-09T13:24:40.000Z</time></trkpt>
   <trkpt lat="19.273791" lon="-99.376344"><ele>3126.5</ele><time>2020-02-09T13:24:50.000Z</time></trkpt>
   <trkpt lat="19.273643" lon="-99.376255"><ele>3127.5</ele><time>2020-02-09T13:25:00.000Z</time></trkpt>
   <trkpt lat="19.273286" lon="-99.376210"><ele>3128.8</ele><time>2020-02-09T13:25:13.000Z</time></trkpt>
   <trkpt lat="19.272605" lon="-99.375930"><ele>3129.7</ele><time>2020-02-09T13:25:22.000Z</time></trkpt>
   <trkpt lat="19.272233" lon="-99.375895"><ele>3130.2</ele><time>2020-02-09T13:25:31.000Z</time></trkpt>
   <trkpt lat="19.265696" lon="-99.376550"><ele>3139.0</ele><time>2020-02-09T13:27:36.000Z</time></trkpt>
   <trkpt lat="19.264689" lon="-99.376552"><ele>3144.2</ele><time>2020-02-09T13:28:03.000Z</time></trkpt>
   <trkpt lat="19.264249" lon="-99.376288"><ele>3146.1</ele><time>2020-02-09T13:28:18.000Z</time></trkpt>
   <trkpt lat="19.264021" lon="-99.375978"><ele>3146.8</ele><time>2020-02-09T13:28:25.000Z</time></trkpt>
   <trkpt lat="19.262846" lon="-99.372126"><ele>3140.1</ele><time>2020-02-09T13:29:33.000Z</time></trkpt>
   <trkpt lat="19.262487" lon="-99.371736"><ele>3138.7</ele><time>2020-02-09T13:29:41.000Z</time></trkpt>
   <trkpt lat="19.261878" lon="-99.371569"><ele>3137.5</ele><time>2020-02-09T13:29:49.000Z</time></trkpt>
   <trkpt lat="19.261286" lon="-99.371780"><ele>3133.8</ele><time>2020-02-09T13:29:57.000Z</time></trkpt>
   <trkpt lat="19.261006" lon="-99.372016"><ele>3133.1</ele><time>2020-02-09T13:30:01.000Z</time></trkpt>
   <trkpt lat="19.260886" lon="-99.372233"><ele>3131.2</ele><time>2020-02-09T13:30:04.000Z</time></trkpt>
   <trkpt lat="19.260854" lon="-99.372395"><ele>3130.5</ele><time>2020-02-09T13:30:06.000Z</time></trkpt>
   <trkpt lat="19.261033" lon="-99.373323"><ele>3125.0</ele><time>2020-02-09T13:30:16.000Z</time></trkpt>
   <trkpt lat="19.260955" lon="-99.375109"><ele>3118.4</ele><time>2020-02-09T13:30:35.000Z</time></trkpt>
   <trkpt lat="19.260858" lon="-99.375567"><ele>3115.7</ele><time>2020-02-09T13:30:39.000Z</time></trkpt>
   <trkpt lat="19.260592" lon="-99.376034"><ele>3113.9</ele><time>2020-02-09T13:30:44.000Z</time></trkpt>
   <trkpt lat="19.259278" lon="-99.377267"><ele>3105.4</ele><time>2020-02-09T13:31:03.000Z</time></trkpt>
   <trkpt lat="19.258498" lon="-99.378283"><ele>3099.8</ele><time>2020-02-09T13:31:15.000Z</time></trkpt>
   <trkpt lat="19.257958" lon="-99.378468"><ele>3095.0</ele><time>2020-02-09T13:31:21.000Z</time></trkpt>
   <trkpt lat="19.256921" lon="-99.378384"><ele>3090.3</ele><time>2020-02-09T13:31:32.000Z</time></trkpt>
   <trkpt lat="19.253705" lon="-99.377810"><ele>3085.1</ele><time>2020-02-09T13:32:09.000Z</time></trkpt>
   <trkpt lat="19.253113" lon="-99.377509"><ele>3084.7</ele><time>2020-02-09T13:32:17.000Z</time></trkpt>
   <trkpt lat="19.252591" lon="-99.376890"><ele>3082.1</ele><time>2020-02-09T13:32:27.000Z</time></trkpt>
   <trkpt lat="19.250884" lon="-99.373064"><ele>3069.6</ele><time>2020-02-09T13:33:14.000Z</time></trkpt>
   <trkpt lat="19.250260" lon="-99.372539"><ele>3064.7</ele><time>2020-02-09T13:33:22.000Z</time></trkpt>
   <trkpt lat="19.249596" lon="-99.372307"><ele>3062.1</ele><time>2020-02-09T13:33:29.000Z</time></trkpt>
   <trkpt lat="19.248452" lon="-99.372273"><ele>3055.9</ele><time>2020-02-09T13:33:41.000Z</time></trkpt>
   <trkpt lat="19.247502" lon="-99.372106"><ele>3051.0</ele><time>2020-02-09T13:33:51.000Z</time></trkpt>
   <trkpt lat="19.244959" lon="-99.371161"><ele>3035.2</ele><time>2020-02-09T13:34:20.000Z</time></trkpt>
   <trkpt lat="19.244500" lon="-99.371196"><ele>3032.8</ele><time>2020-02-09T13:34:25.000Z</time></trkpt>
   <trkpt lat="19.244096" lon="-99.371436"><ele>3029.0</ele><time>2020-02-09T13:34:30.000Z</time></trkpt>
   <trkpt lat="19.243679" lon="-99.371847"><ele>3026.4</ele><time>2020-02-09T13:34:35.000Z</time></trkpt>
   <trkpt lat="19.243846" lon="-99.373637"><ele>3018.2</ele><time>2020-02-09T13:34:53.000Z</time></trkpt>
   <trkpt lat="19.243677" lon="-99.374394"><ele>3013.3</ele><time>2020-02-09T13:35:00.000Z</time></trkpt>
   <trkpt lat="19.243197" lon="-99.374859"><ele>3010.6</ele><time>2020-02-09T13:35:07.000Z</time></trkpt>
   <trkpt lat="19.241584" lon="-99.375449"><ele>3003.1</ele><time>2020-02-09T13:35:25.000Z</time></trkpt>
   <trkpt lat="19.241106" lon="-99.375698"><ele>2999.8</ele><time>2020-02-09T13:35:31.000Z</time></trkpt>
   <trkpt lat="19.240843" lon="-99.375970"><ele>2997.3</ele><time>2020-02-09T13:35:35.000Z</time></trkpt>
   <trkpt lat="19.240593" lon="-99.376440"><ele>2993.9</ele><time>2020-02-09T13:35:41.000Z</time></trkpt>
   <trkpt lat="19.240521" lon="-99.376873"><ele>2991.5</ele><time>2020-02-09T13:35:46.000Z</time></trkpt>
   <trkpt lat="19.240543" lon="-99.377586"><ele>2988.1</ele><time>2020-02-09T13:35:55.000Z</time></trkpt>
   <trkpt lat="19.240782" lon="-99.378905"><ele>2979.8</ele><time>2020-02-09T13:36:10.000Z</time></trkpt>
   <trkpt lat="19.241001" lon="-99.381138"><ele>2966.2</ele><time>2020-02-09T13:36:38.000Z</time></trkpt>
   <trkpt lat="19.240963" lon="-99.381948"><ele>2964.0</ele><time>2020-02-09T13:36:46.000Z</time></trkpt>
   <trkpt lat="19.240674" lon="-99.383089"><ele>2959.4</ele><time>2020-02-09T13:36:56.000Z</time></trkpt>
   <trkpt lat="19.240322" lon="-99.383692"><ele>2956.4</ele><time>2020-02-09T13:37:02.000Z</time></trkpt>
   <trkpt lat="19.239723" lon="-99.384351"><ele>2953.4</ele><time>2020-02-09T13:37:11.000Z</time></trkpt>
   <trkpt lat="19.238577" lon="-99.385220"><ele>2944.2</ele><time>2020-02-09T13:37:24.000Z</time></trkpt>
   <trkpt lat="19.237821" lon="-99.385952"><ele>2938.6</ele><time>2020-02-09T13:37:35.000Z</time></trkpt>
   <trkpt lat="19.237517" lon="-99.386610"><ele>2937.8</ele><time>2020-02-09T13:37:43.000Z</time></trkpt>
   <trkpt lat="19.237581" lon="-99.386908"><ele>2937.4</ele><time>2020-02-09T13:37:47.000Z</time></trkpt>
   <trkpt lat="19.237425" lon="-99.387930"><ele>2935.3</ele><time>2020-02-09T13:37:58.000Z</time></trkpt>
   <trkpt lat="19.237096" lon="-99.388960"><ele>2933.2</ele><time>2020-02-09T13:38:09.000Z</time></trkpt>
   <trkpt lat="19.236771" lon="-99.389349"><ele>2933.0</ele><time>2020-02-09T13:38:15.000Z</time></trkpt>
   <trkpt lat="19.235673" lon="-99.390194"><ele>2931.4</ele><time>2020-02-09T13:38:30.000Z</time></trkpt>
   <trkpt lat="19.235207" lon="-99.390756"><ele>2929.4</ele><time>2020-02-09T13:38:38.000Z</time></trkpt>
   <trkpt lat="19.234135" lon="-99.394306"><ele>2926.1</ele><time>2020-02-09T13:39:19.000Z</time></trkpt>
   <trkpt lat="19.229372" lon="-99.413681"><ele>2843.3</ele><time>2020-02-09T13:42:21.000Z</time></trkpt>
   <trkpt lat="19.229070" lon="-99.414691"><ele>2837.2</ele><time>2020-02-09T13:42:30.000Z</time></trkpt>
   <trkpt lat="19.228752" lon="-99.415179"><ele>2834.2</ele><time>2020-02-09T13:42:35.000Z</time></trkpt>
   <trkpt lat="19.228242" lon="-99.415667"><ele>2830.3</ele><time>2020-02-09T13:42:41.000Z</time></trkpt>
   <trkpt lat="19.227725" lon="-99.415914"><ele>2826.8</ele><time>2020-02-09T13:42:46.000Z</time></trkpt>
   <trkpt lat="19.227042" lon="-99.416022"><ele>2822.5</ele><time>2020-02-09T13:42:52.000Z</time></trkpt>
   <trkpt lat="19.226254" lon="-99.415912"><ele>2818.4</ele><time>2020-02-09T13:42:59.000Z</time></trkpt>
   <trkpt lat="19.225636" lon="-99.415584"><ele>2815.0</ele><time>2020-02-09T13:43:05.000Z</time></trkpt>
   <trkpt lat="19.225006" lon="-99.414983"><ele>2810.0</ele><time>2020-02-09T13:43:12.000Z</time></trkpt>
   <trkpt lat="19.222824" lon="-99.413213"><ele>2794.7</ele><time>2020-02-09T13:43:36.000Z</time></trkpt>
   <trkpt lat="19.222378" lon="-99.413034"><ele>2792.2</ele><time>2020-02-09T13:43:40.000Z</time></trkpt>
   <trkpt lat="19.222023" lon="-99.412985"><ele>2790.7</ele><time>2020-02-09T13:43:43.000Z</time></trkpt>
   <trkpt lat="19.221201" lon="-99.413124"><ele>2786.7</ele><time>2020-02-09T13:43:50.000Z</time></trkpt>
   <trkpt lat="19.220719" lon="-99.413386"><ele>2784.3</ele><time>2020-02-09T13:43:55.000Z</time></trkpt>
   <trkpt lat="19.220349" lon="-99.413732"><ele>2782.4</ele><time>2020-02-09T13:44:00.000Z</time></trkpt>
   <trkpt lat="19.214827" lon="-99.420947"><ele>2753.1</ele><time>2020-02-09T13:45:59.000Z</time></trkpt>
   <trkpt lat="19.211534" lon="-99.424694"><ele>2731.8</ele><time>2020-02-09T13:47:00.000Z</time></trkpt>
   <trkpt lat="19.210821" lon="-99.425326"><ele>2726.5</ele><time>2020-02-09T13:47:11.000Z</time></trkpt>
   <trkpt lat="19.210083" lon="-99.425564"><ele>2722.3</ele><time>2020-02-09T13:47:21.000Z</time></trkpt>
   <trkpt lat="19.207408" lon="-99.425552"><ele>2709.0</ele><time>2020-02-09T13:47:57.000Z</time></trkpt>
   <trkpt lat="19.206359" lon="-99.425758"><ele>2703.6</ele><time>2020-02-09T13:48:09.000Z</time></trkpt>
   <trkpt lat="19.191674" lon="-99.429734"><ele>2738.3</ele><time>2020-02-09T13:53:10.000Z</time></trkpt>
   <trkpt lat="19.190895" lon="-99.430026"><ele>2739.4</ele><time>2020-02-09T13:53:24.000Z</time></trkpt>
   <trkpt lat="19.190210" lon="-99.430507"><ele>2739.2</ele><time>2020-02-09T13:53:37.000Z</time></trkpt>
   <trkpt lat="19.164787" lon="-99.460031"><ele>2654.9</ele><time>2020-02-09T14:02:28.000Z</time></trkpt>
   <trkpt lat="19.156914" lon="-99.472920"><ele>2630.2</ele><time>2020-02-09T14:06:19.000Z</time></trkpt>
   <trkpt lat="19.155824" lon="-99.474485"><ele>2633.8</ele><time>2020-02-09T14:06:52.000Z</time></trkpt>
   <trkpt lat="19.155179" lon="-99.475163"><ele>2632.2</ele><time>2020-02-09T14:07:08.000Z</time></trkpt>
   <trkpt lat="19.150943" lon="-99.479052"><ele>2609.1</ele><time>2020-02-09T14:08:20.000Z</time></trkpt>
   <trkpt lat="19.135074" lon="-99.493412"><ele>2586.4</ele><time>2020-02-09T14:14:06.000Z</time></trkpt>
   <trkpt lat="19.133769" lon="-99.494762"><ele>2588.5</ele><time>2020-02-09T14:14:40.000Z</time></trkpt>
   <trkpt lat="19.131171" lon="-99.498997"><ele>2592.1</ele><time>2020-02-09T14:16:02.000Z</time></trkpt>
   <trkpt lat="19.130077" lon="-99.501688"><ele>2601.0</ele><time>2020-02-09T14:16:56.000Z</time></trkpt>
   <trkpt lat="19.129745" lon="-99.503377"><ele>2594.2</ele><time>2020-02-09T14:17:24.000Z</time></trkpt>
   <trkpt lat="19.129474" lon="-99.504232"><ele>2590.7</ele><time>2020-02-09T14:17:36.000Z</time></trkpt>
   <trkpt lat="19.127466" lon="-99.508355"><ele>2592.5</ele><time>2020-02-09T14:18:52.000Z</time></trkpt>
   <trkpt lat="19.123644" lon="-99.513532"><ele>2588.0</ele><time>2020-02-09T14:20:46.000Z</time></trkpt>
   <trkpt lat="19.123502" lon="-99.513952"><ele>2589.2</ele><time>2020-02-09T14:20:55.000Z</time></trkpt>
   <trkpt lat="19.123223" lon="-99.516739"><ele>2589.7</ele><time>2020-02-09T14:21:42.000Z</time></trkpt>
   <trkpt lat="19.122972" lon="-99.517227"><ele>2591.2</ele><time>2020-02-09T14:21:51.000Z</time></trkpt>
   <trkpt lat="19.122744" lon="-99.517464"><ele>2591.5</ele><time>2020-02-09T14:21:57.000Z</time></trkpt>
   <trkpt lat="19.122328" lon="-99.517707"><ele>2592.3</ele><time>2020-02-09T14:22:06.000Z</time></trkpt>
   <trkpt lat="19.117587" lon="-99.519352"><ele>2583.8</ele><time>2020-02-09T14:23:24.000Z</time></trkpt>
   <trkpt lat="19.115720" lon="-99.520247"><ele>2577.4</ele><time>2020-02-09T14:23:52.000Z</time></trkpt>
   <trkpt lat="19.115627" lon="-99.520353"><ele>2577.6</ele><time>2020-02-09T14:23:55.000Z</time></trkpt>
   <trkpt lat="19.115955" lon="-99.526917"><ele>2577.7</ele><time>2020-02-09T14:25:39.000Z</time></trkpt>
   <trkpt lat="19.115985" lon="-99.527799"><ele>2578.0</ele><time>2020-02-09T14:25:52.000Z</time></trkpt>
   <trkpt lat="19.115900" lon="-99.528125"><ele>2578.1</ele><time>2020-02-09T14:25:57.000Z</time></trkpt>
   <trkpt lat="19.115596" lon="-99.528253"><ele>2578.2</ele><time>2020-02-09T14:26:02.000Z</time></trkpt>
   <trkpt lat="19.113720" lon="-99.528302"><ele>2577.2</ele><time>2020-02-09T14:26:31.000Z</time></trkpt>
   <trkpt lat="19.113322" lon="-99.528287"><ele>2576.8</ele><time>2020-02-09T14:26:40.000Z</time></trkpt>
   <trkpt lat="19.113319" lon="-99.528142"><ele>2576.6</ele><time>2020-02-09T14:26:54.000Z</time></trkpt>
   <trkpt lat="19.113308" lon="-99.528266"><ele>2576.2</ele><time>2020-02-09T14:27:49.000Z</time></trkpt>
   <trkpt lat="19.112920" lon="-99.528498"><ele>2576.7</ele><time>2020-02-09T14:27:59.000Z</time></trkpt>
   <trkpt lat="19.112670" lon="-99.530035"><ele>2578.0</ele><time>2020-02-09T14:28:26.000Z</time></trkpt>
   <trkpt lat="19.112450" lon="-99.530270"><ele>2578.0</ele><time>2020-02-09T14:28:34.000Z</time></trkpt>
   <trkpt lat="19.109727" lon="-99.530513"><ele>2576.6</ele><time>2020-02-09T14:32:43.000Z</time></trkpt>
   <trkpt lat="19.109221" lon="-99.530618"><ele>2576.1</ele><time>2020-02-09T14:32:51.000Z</time></trkpt>
   <trkpt lat="19.108406" lon="-99.531044"><ele>2576.1</ele><time>2020-02-09T14:33:08.000Z</time></trkpt>
   <trkpt lat="19.106904" lon="-99.532143"><ele>2580.7</ele><time>2020-02-09T14:33:47.000Z</time></trkpt>
   <trkpt lat="19.106215" lon="-99.532557"><ele>2584.5</ele><time>2020-02-09T14:34:03.000Z</time></trkpt>
   <trkpt lat="19.105348" lon="-99.532891"><ele>2588.4</ele><time>2020-02-09T14:34:21.000Z</time></trkpt>
   <trkpt lat="19.103495" lon="-99.533353"><ele>2600.5</ele><time>2020-02-09T14:35:04.000Z</time></trkpt>
   <trkpt lat="19.102948" lon="-99.533637"><ele>2605.0</ele><time>2020-02-09T14:35:21.000Z</time></trkpt>
   <trkpt lat="19.101359" lon="-99.535201"><ele>2619.8</ele><time>2020-02-09T14:36:23.000Z</time></trkpt>
   <trkpt lat="19.099469" lon="-99.537307"><ele>2636.3</ele><time>2020-02-09T14:37:43.000Z</time></trkpt>
   <trkpt lat="19.098864" lon="-99.538482"><ele>2645.0</ele><time>2020-02-09T14:38:19.000Z</time></trkpt>
   <trkpt lat="19.097833" lon="-99.541581"><ele>2670.2</ele><time>2020-02-09T14:40:07.000Z</time></trkpt>
   <trkpt lat="19.097633" lon="-99.541818"><ele>2671.1</ele><time>2020-02-09T14:40:15.000Z</time></trkpt>
   <trkpt lat="19.097103" lon="-99.542188"><ele>2673.1</ele><time>2020-02-09T14:40:29.000Z</time></trkpt>
   <trkpt lat="19.096860" lon="-99.542200"><ele>2674.0</ele><time>2020-02-09T14:40:34.000Z</time></trkpt>
   <trkpt lat="19.096733" lon="-99.542108"><ele>2674.7</ele><time>2020-02-09T14:40:37.000Z</time></trkpt>
   <trkpt lat="19.096429" lon="-99.541641"><ele>2677.2</ele><time>2020-02-09T14:40:48.000Z</time></trkpt>
   <trkpt lat="19.096474" lon="-99.541527"><ele>2678.0</ele><time>2020-02-09T14:40:57.000Z</time></trkpt>
   <trkpt lat="19.096135" lon="-99.541391"><ele>2680.1</ele><time>2020-02-09T14:41:12.000Z</time></trkpt>
   <trkpt lat="19.095655" lon="-99.540724"><ele>2685.3</ele><time>2020-02-09T14:41:36.000Z</time></trkpt>
   <trkpt lat="19.095102" lon="-99.540411"><ele>2689.0</ele><time>2020-02-09T14:41:43.000Z</time></trkpt>
   <trkpt lat="19.094798" lon="-99.540140"><ele>2691.0</ele><time>2020-02-09T14:41:50.000Z</time></trkpt>
   <trkpt lat="19.094343" lon="-99.539024"><ele>2697.3</ele><time>2020-02-09T14:42:19.000Z</time></trkpt>
   <trkpt lat="19.093710" lon="-99.538354"><ele>2703.0</ele><time>2020-02-09T14:42:38.000Z</time></trkpt>
   <trkpt lat="19.093157" lon="-99.537987"><ele>2706.3</ele><time>2020-02-09T14:42:57.000Z</time></trkpt>
   <trkpt lat="19.089831" lon="-99.536395"><ele>2724.8</ele><time>2020-02-09T14:44:25.000Z</time></trkpt>
   <trkpt lat="19.089329" lon="-99.536235"><ele>2727.8</ele><time>2020-02-09T14:44:39.000Z</time></trkpt>
   <trkpt lat="19.088549" lon="-99.536232"><ele>2732.5</ele><time>2020-02-09T14:44:59.000Z</time></trkpt>
   <trkpt lat="19.088345" lon="-99.536097"><ele>2733.9</ele><time>2020-02-09T14:45:06.000Z</time></trkpt>
   <trkpt lat="19.088257" lon="-99.535941"><ele>2734.9</ele><time>2020-02-09T14:45:12.000Z</time></trkpt>
   <trkpt lat="19.088234" lon="-99.535615"><ele>2737.3</ele><time>2020-02-09T14:45:33.000Z</time></trkpt>
   <trkpt lat="19.088477" lon="-99.534783"><ele>2741.7</ele><time>2020-02-09T14:45:46.000Z</time></trkpt>
   <trkpt lat="19.087938" lon="-99.532894"><ele>2750.2</ele><time>2020-02-09T14:46:25.000Z</time></trkpt>
   <trkpt lat="19.087310" lon="-99.532114"><ele>2757.2</ele><time>2020-02-09T14:46:46.000Z</time></trkpt>
   <trkpt lat="19.086959" lon="-99.531845"><ele>2760.4</ele><time>2020-02-09T14:46:59.000Z</time></trkpt>
   <trkpt lat="19.086394" lon="-99.531657"><ele>2764.7</ele><time>2020-02-09T14:47:16.000Z</time></trkpt>
   <trkpt lat="19.083444" lon="-99.531504"><ele>2783.3</ele><time>2020-02-09T14:48:51.000Z</time></trkpt>
   <trkpt lat="19.081865" lon="-99.531708"><ele>2789.1</ele><time>2020-02-09T14:49:24.000Z</time></trkpt>
   <trkpt lat="19.080053" lon="-99.531804"><ele>2796.9</ele><time>2020-02-09T14:50:04.000Z</time></trkpt>
   <trkpt lat="19.079546" lon="-99.531920"><ele>2797.1</ele><time>2020-02-09T14:50:15.000Z</time></trkpt>
   <trkpt lat="19.079078" lon="-99.532130"><ele>2795.9</ele><time>2020-02-09T14:50:25.000Z</time></trkpt>
   <trkpt lat="19.076893" lon="-99.533640"><ele>2783.9</ele><time>2020-02-09T14:50:55.000Z</time></trkpt>
   <trkpt lat="19.076249" lon="-99.533900"><ele>2780.1</ele><time>2020-02-09T14:51:01.000Z</time></trkpt>
   <trkpt lat="19.075501" lon="-99.533946"><ele>2776.9</ele><time>2020-02-09T14:51:07.000Z</time></trkpt>
   <trkpt lat="19.073004" lon="-99.533703"><ele>2769.5</ele><time>2020-02-09T14:51:28.000Z</time></trkpt>
   <trkpt lat="19.071868" lon="-99.533416"><ele>2767.8</ele><time>2020-02-09T14:51:41.000Z</time></trkpt>
   <trkpt lat="19.070811" lon="-99.533610"><ele>2762.8</ele><time>2020-02-09T14:51:52.000Z</time></trkpt>
   <trkpt lat="19.069005" lon="-99.534095"><ele>2757.7</ele><time>2020-02-09T14:52:09.000Z</time></trkpt>
   <trkpt lat="19.067600" lon="-99.534865"><ele>2755.3</ele><time>2020-02-09T14:52:26.000Z</time></trkpt>
   <trkpt lat="19.066458" lon="-99.535073"><ele>2748.8</ele><time>2020-02-09T14:52:38.000Z</time></trkpt>
   <trkpt lat="19.065761" lon="-99.534933"><ele>2742.8</ele><time>2020-02-09T14:52:44.000Z</time></trkpt>
   <trkpt lat="19.064389" lon="-99.534935"><ele>2738.8</ele><time>2020-02-09T14:52:54.000Z</time></trkpt>
   <trkpt lat="19.064136" lon="-99.534988"><ele>2738.7</ele><time>2020-02-09T14:52:56.000Z</time></trkpt>
   <trkpt lat="19.063547" lon="-99.535296"><ele>2736.8</ele><time>2020-02-09T14:53:02.000Z</time></trkpt>
   <trkpt lat="19.062985" lon="-99.535184"><ele>2735.1</ele><time>2020-02-09T14:53:08.000Z</time></trkpt>
   <trkpt lat="19.062648" lon="-99.534985"><ele>2733.5</ele><time>2020-02-09T14:53:12.000Z</time></trkpt>
   <trkpt lat="19.062273" lon="-99.534568"><ele>2730.5</ele><time>2020-02-09T14:53:17.000Z</time></trkpt>
   <trkpt lat="19.062030" lon="-99.534031"><ele>2727.2</ele><time>2020-02-09T14:53:22.000Z</time></trkpt>
   <trkpt lat="19.061300" lon="-99.533510"><ele>2722.1</ele><time>2020-02-09T14:53:30.000Z</time></trkpt>
   <trkpt lat="19.060376" lon="-99.533117"><ele>2715.9</ele><time>2020-02-09T14:53:39.000Z</time></trkpt>
   <trkpt lat="19.058959" lon="-99.532881"><ele>2705.1</ele><time>2020-02-09T14:53:52.000Z</time></trkpt>
   <trkpt lat="19.058786" lon="-99.533085"><ele>2702.6</ele><time>2020-02-09T14:53:55.000Z</time></trkpt>
   <trkpt lat="19.058846" lon="-99.533285"><ele>2701.0</ele><time>2020-02-09T14:53:57.000Z</time></trkpt>
   <trkpt lat="19.059579" lon="-99.534096"><ele>2692.7</ele><time>2020-02-09T14:54:07.000Z</time></trkpt>
   <trkpt lat="19.060206" lon="-99.534614"><ele>2686.8</ele><time>2020-02-09T14:54:14.000Z</time></trkpt>
   <trkpt lat="19.060239" lon="-99.534902"><ele>2684.4</ele><time>2020-02-09T14:54:17.000Z</time></trkpt>
   <trkpt lat="19.060032" lon="-99.535075"><ele>2682.1</ele><time>2020-02-09T14:54:20.000Z</time></trkpt>
   <trkpt lat="19.058563" lon="-99.534779"><ele>2670.3</ele><time>2020-02-09T14:54:33.000Z</time></trkpt>
   <trkpt lat="19.057770" lon="-99.534413"><ele>2662.6</ele><time>2020-02-09T14:54:41.000Z</time></trkpt>
   <trkpt lat="19.057042" lon="-99.533922"><ele>2654.1</ele><time>2020-02-09T14:54:49.000Z</time></trkpt>
   <trkpt lat="19.056024" lon="-99.533659"><ele>2642.7</ele><time>2020-02-09T14:54:59.000Z</time></trkpt>
   <trkpt lat="19.054879" lon="-99.533636"><ele>2632.1</ele><time>2020-02-09T14:55:24.000Z</time></trkpt>
   <trkpt lat="19.054822" lon="-99.533863"><ele>2631.6</ele><time>2020-02-09T14:55:46.000Z</time></trkpt>
   <trkpt lat="19.054772" lon="-99.533842"><ele>2631.5</ele><time>2020-02-09T14:56:02.000Z</time></trkpt>
   <trkpt lat="19.054858" lon="-99.534088"><ele>2631.0</ele><time>2020-02-09T14:56:39.000Z</time></trkpt>
   <trkpt lat="19.054984" lon="-99.534129"><ele>2630.8</ele><time>2020-02-09T14:56:51.000Z</time></trkpt>
   <trkpt lat="19.054922" lon="-99.534004"><ele>2630.6</ele><time>2020-02-09T14:58:10.000Z</time></trkpt>
   <trkpt lat="19.054973" lon="-99.533887"><ele>2630.5</ele><time>2020-02-09T15:00:20.000Z</time></trkpt>
   <trkpt lat="19.055017" lon="-99.533928"><ele>2630.5</ele><time>2020-02-09T15:02:45.000Z</time></trkpt>
   <trkpt lat="19.054762" lon="-99.533876"><ele>2630.7</ele><time>2020-02-09T15:05:36.000Z</time></trkpt>
   <trkpt lat="19.054841" lon="-99.533879"><ele>2631.0</ele><time>2020-02-09T15:07:26.000Z</time></trkpt>
   <trkpt lat="19.054861" lon="-99.534039"><ele>2631.3</ele><time>2020-02-09T15:07:55.000Z</time></trkpt>
   <trkpt lat="19.054995" lon="-99.534148"><ele>2631.8</ele><time>2020-02-09T15:08:16.000Z</time></trkpt>
   <trkpt lat="19.054888" lon="-99.533910"><ele>2631.0</ele><time>2020-02-09T15:09:25.000Z</time></trkpt>
   <trkpt lat="19.054718" lon="-99.533880"><ele>2630.5</ele><time>2020-02-09T15:11:50.000Z</time></trkpt>
   <trkpt lat="19.054780" lon="-99.533879"><ele>2630.6</ele><time>2020-02-09T15:13:24.000Z</time></trkpt>
   <trkpt lat="19.054848" lon="-99.533684"><ele>2631.9</ele><time>2020-02-09T15:14:52.000Z</time></trkpt>
   <trkpt lat="19.054799" lon="-99.533623"><ele>2632.1</ele><time>2020-02-09T15:15:22.000Z</time></trkpt>
   <trkpt lat="19.054213" lon="-99.533663"><ele>2631.5</ele><time>2020-02-09T15:17:38.000Z</time></trkpt>
   <trkpt lat="19.053104" lon="-99.533541"><ele>2629.1</ele><time>2020-02-09T15:19:03.000Z</time></trkpt>
   <trkpt lat="19.052573" lon="-99.533383"><ele>2630.9</ele><time>2020-02-09T15:19:19.000Z</time></trkpt>
   <trkpt lat="19.050520" lon="-99.533269"><ele>2632.8</ele><time>2020-02-09T15:20:08.000Z</time></trkpt>
   <trkpt lat="19.050626" lon="-99.530647"><ele>2630.5</ele><time>2020-02-09T15:21:03.000Z</time></trkpt>
   <trkpt lat="19.050567" lon="-99.530326"><ele>2630.2</ele><time>2020-02-09T15:21:09.000Z</time></trkpt>
   <trkpt lat="19.050442" lon="-99.530195"><ele>2630.0</ele><time>2020-02-09T15:21:12.000Z</time></trkpt>
   <trkpt lat="19.050122" lon="-99.530085"><ele>2629.2</ele><time>2020-02-09T15:21:18.000Z</time></trkpt>
   <trkpt lat="19.049110" lon="-99.530054"><ele>2629.9</ele><time>2020-02-09T15:21:36.000Z</time></trkpt>
   <trkpt lat="19.046302" lon="-99.529756"><ele>2624.6</ele><time>2020-02-09T15:22:25.000Z</time></trkpt>
   <trkpt lat="19.043651" lon="-99.529063"><ele>2630.9</ele><time>2020-02-09T15:23:22.000Z</time></trkpt>
   <trkpt lat="19.043106" lon="-99.528732"><ele>2633.7</ele><time>2020-02-09T15:23:38.000Z</time></trkpt>
   <trkpt lat="19.042525" lon="-99.527920"><ele>2635.5</ele><time>2020-02-09T15:24:13.000Z</time></trkpt>
   <trkpt lat="19.041728" lon="-99.527053"><ele>2637.1</ele><time>2020-02-09T15:24:50.000Z</time></trkpt>
   <trkpt lat="19.040237" lon="-99.524468"><ele>2641.5</ele><time>2020-02-09T15:25:58.000Z</time></trkpt>
   <trkpt lat="19.039778" lon="-99.523091"><ele>2640.0</ele><time>2020-02-09T15:26:24.000Z</time></trkpt>
   <trkpt lat="19.038231" lon="-99.519101"><ele>2635.4</ele><time>2020-02-09T15:27:24.000Z</time></trkpt>
   <trkpt lat="19.037872" lon="-99.517471"><ele>2632.7</ele><time>2020-02-09T15:27:42.000Z</time></trkpt>
   <trkpt lat="19.036744" lon="-99.510008"><ele>2618.1</ele><time>2020-02-09T15:28:54.000Z</time></trkpt>
   <trkpt lat="19.036677" lon="-99.506290"><ele>2608.8</ele><time>2020-02-09T15:29:25.000Z</time></trkpt>
   <trkpt lat="19.036400" lon="-99.504006"><ele>2603.2</ele><time>2020-02-09T15:29:44.000Z</time></trkpt>
   <trkpt lat="19.036130" lon="-99.502701"><ele>2595.6</ele><time>2020-02-09T15:29:55.000Z</time></trkpt>
   <trkpt lat="19.036251" lon="-99.498335"><ele>2594.5</ele><time>2020-02-09T15:30:30.000Z</time></trkpt>
   <trkpt lat="19.035889" lon="-99.495886"><ele>2593.7</ele><time>2020-02-09T15:30:52.000Z</time></trkpt>
   <trkpt lat="19.035814" lon="-99.494762"><ele>2594.2</ele><time>2020-02-09T15:31:04.000Z</time></trkpt>
   <trkpt lat="19.035980" lon="-99.492912"><ele>2593.1</ele><time>2020-02-09T15:31:22.000Z</time></trkpt>
   <trkpt lat="19.036719" lon="-99.489802"><ele>2598.3</ele><time>2020-02-09T15:31:57.000Z</time></trkpt>
   <trkpt lat="19.038456" lon="-99.484373"><ele>2611.5</ele><time>2020-02-09T15:33:17.000Z</time></trkpt>
   <trkpt lat="19.038059" lon="-99.479431"><ele>2636.1</ele><time>2020-02-09T15:35:02.000Z</time></trkpt>
   <trkpt lat="19.037821" lon="-99.479049"><ele>2638.5</ele><time>2020-02-09T15:35:11.000Z</time></trkpt>
   <trkpt lat="19.036944" lon="-99.478352"><ele>2643.1</ele><time>2020-02-09T15:35:36.000Z</time></trkpt>
   <trkpt lat="19.036351" lon="-99.478119"><ele>2645.8</ele><time>2020-02-09T15:35:51.000Z</time></trkpt>
   <trkpt lat="19.034434" lon="-99.477616"><ele>2644.2</ele><time>2020-02-09T15:36:24.000Z</time></trkpt>
   <trkpt lat="19.034043" lon="-99.477369"><ele>2641.8</ele><time>2020-02-09T15:36:29.000Z</time></trkpt>
   <trkpt lat="19.033896" lon="-99.477084"><ele>2640.7</ele><time>2020-02-09T15:36:32.000Z</time></trkpt>
   <trkpt lat="19.033572" lon="-99.475882"><ele>2637.5</ele><time>2020-02-09T15:36:42.000Z</time></trkpt>
   <trkpt lat="19.033323" lon="-99.475594"><ele>2637.1</ele><time>2020-02-09T15:36:45.000Z</time></trkpt>
   <trkpt lat="19.032255" lon="-99.474997"><ele>2634.2</ele><time>2020-02-09T15:36:56.000Z</time></trkpt>
   <trkpt lat="19.031196" lon="-99.473697"><ele>2628.3</ele><time>2020-02-09T15:37:10.000Z</time></trkpt>
   <trkpt lat="19.028568" lon="-99.470065"><ele>2613.7</ele><time>2020-02-09T15:37:45.000Z</time></trkpt>
   <trkpt lat="19.027233" lon="-99.467526"><ele>2601.2</ele><time>2020-02-09T15:38:08.000Z</time></trkpt>
   <trkpt lat="19.027025" lon="-99.467193"><ele>2598.5</ele><time>2020-02-09T15:38:11.000Z</time></trkpt>
   <trkpt lat="19.026735" lon="-99.466934"><ele>2596.2</ele><time>2020-02-09T15:38:14.000Z</time></trkpt>
   <trkpt lat="19.025439" lon="-99.466436"><ele>2585.0</ele><time>2020-02-09T15:38:25.000Z</time></trkpt>
   <trkpt lat="19.022867" lon="-99.466011"><ele>2567.8</ele><time>2020-02-09T15:38:45.000Z</time></trkpt>
   <trkpt lat="19.017329" lon="-99.467285"><ele>2538.6</ele><time>2020-02-09T15:39:35.000Z</time></trkpt>
   <trkpt lat="19.017009" lon="-99.467412"><ele>2535.4</ele><time>2020-02-09T15:39:38.000Z</time></trkpt>
   <trkpt lat="19.016864" lon="-99.467605"><ele>2535.0</ele><time>2020-02-09T15:39:40.000Z</time></trkpt>
   <trkpt lat="19.016839" lon="-99.467859"><ele>2535.2</ele><time>2020-02-09T15:39:42.000Z</time></trkpt>
   <trkpt lat="19.017057" lon="-99.469281"><ele>2536.4</ele><time>2020-02-09T15:39:55.000Z</time></trkpt>
   <trkpt lat="19.016439" lon="-99.474827"><ele>2515.8</ele><time>2020-02-09T15:40:43.000Z</time></trkpt>
   <trkpt lat="19.016527" lon="-99.475255"><ele>2513.1</ele><time>2020-02-09T15:40:47.000Z</time></trkpt>
   <trkpt lat="19.016860" lon="-99.475602"><ele>2509.7</ele><time>2020-02-09T15:40:51.000Z</time></trkpt>
   <trkpt lat="19.018393" lon="-99.476277"><ele>2500.0</ele><time>2020-02-09T15:41:04.000Z</time></trkpt>
   <trkpt lat="19.020801" lon="-99.477082"><ele>2486.7</ele><time>2020-02-09T15:41:23.000Z</time></trkpt>
   <trkpt lat="19.021486" lon="-99.477387"><ele>2484.3</ele><time>2020-02-09T15:41:29.000Z</time></trkpt>
   <trkpt lat="19.022157" lon="-99.478092"><ele>2479.7</ele><time>2020-02-09T15:41:37.000Z</time></trkpt>
   <trkpt lat="19.022513" lon="-99.478595"><ele>2477.1</ele><time>2020-02-09T15:41:42.000Z</time></trkpt>
   <trkpt lat="19.022643" lon="-99.478914"><ele>2475.9</ele><time>2020-02-09T15:41:45.000Z</time></trkpt>
   <trkpt lat="19.022702" lon="-99.479389"><ele>2471.8</ele><time>2020-02-09T15:41:50.000Z</time></trkpt>
   <trkpt lat="19.022651" lon="-99.479891"><ele>2472.5</ele><time>2020-02-09T15:41:55.000Z</time></trkpt>
   <trkpt lat="19.022282" lon="-99.481052"><ele>2467.1</ele><time>2020-02-09T15:42:06.000Z</time></trkpt>
   <trkpt lat="19.021953" lon="-99.481408"><ele>2463.2</ele><time>2020-02-09T15:42:10.000Z</time></trkpt>
   <trkpt lat="19.021326" lon="-99.481698"><ele>2456.3</ele><time>2020-02-09T15:42:15.000Z</time></trkpt>
   <trkpt lat="19.021008" lon="-99.481970"><ele>2451.8</ele><time>2020-02-09T15:42:18.000Z</time></trkpt>
   <trkpt lat="19.020313" lon="-99.483321"><ele>2435.4</ele><time>2020-02-09T15:42:28.000Z</time></trkpt>
   <trkpt lat="19.020150" lon="-99.483931"><ele>2429.8</ele><time>2020-02-09T15:42:32.000Z</time></trkpt>
   <trkpt lat="19.020212" lon="-99.484589"><ele>2425.6</ele><time>2020-02-09T15:42:36.000Z</time></trkpt>
   <trkpt lat="19.020107" lon="-99.484998"><ele>2422.6</ele><time>2020-02-09T15:42:39.000Z</time></trkpt>
   <trkpt lat="19.018463" lon="-99.485865"><ele>2410.4</ele><time>2020-02-09T15:42:52.000Z</time></trkpt>
   <trkpt lat="19.018197" lon="-99.485860"><ele>2409.3</ele><time>2020-02-09T15:42:54.000Z</time></trkpt>
   <trkpt lat="19.017960" lon="-99.485721"><ele>2408.2</ele><time>2020-02-09T15:42:56.000Z</time></trkpt>
   <trkpt lat="19.016656" lon="-99.484418"><ele>2400.1</ele><time>2020-02-09T15:43:10.000Z</time></trkpt>
   <trkpt lat="19.016111" lon="-99.483793"><ele>2395.9</ele><time>2020-02-09T15:43:16.000Z</time></trkpt>
   <trkpt lat="19.014944" lon="-99.482133"><ele>2372.7</ele><time>2020-02-09T15:43:30.000Z</time></trkpt>
   <trkpt lat="19.014725" lon="-99.481514"><ele>2366.6</ele><time>2020-02-09T15:43:35.000Z</time></trkpt>
   <trkpt lat="19.014792" lon="-99.479610"><ele>2352.4</ele><time>2020-02-09T15:43:47.000Z</time></trkpt>
   <trkpt lat="19.013790" lon="-99.478259"><ele>2338.6</ele><time>2020-02-09T15:43:58.000Z</time></trkpt>
   <trkpt lat="19.010539" lon="-99.476940"><ele>2305.3</ele><time>2020-02-09T15:44:20.000Z</time></trkpt>
   <trkpt lat="19.008164" lon="-99.476252"><ele>2284.4</ele><time>2020-02-09T15:44:35.000Z</time></trkpt>
   <trkpt lat="19.007132" lon="-99.475780"><ele>2276.4</ele><time>2020-02-09T15:44:42.000Z</time></trkpt>
   <trkpt lat="19.005232" lon="-99.475481"><ele>2260.3</ele><time>2020-02-09T15:44:54.000Z</time></trkpt>
   <trkpt lat="19.004545" lon="-99.475179"><ele>2253.9</ele><time>2020-02-09T15:45:00.000Z</time></trkpt>
   <trkpt lat="19.004266" lon="-99.475165"><ele>2251.5</ele><time>2020-02-09T15:45:02.000Z</time></trkpt>
   <trkpt lat="19.003608" lon="-99.475521"><ele>2243.2</ele><time>2020-02-09T15:45:07.000Z</time></trkpt>
   <trkpt lat="19.002135" lon="-99.475871"><ele>2229.4</ele><time>2020-02-09T15:45:17.000Z</time></trkpt>
   <trkpt lat="19.001584" lon="-99.475712"><ele>2222.9</ele><time>2020-02-09T15:45:21.000Z</time></trkpt>
   <trkpt lat="19.000856" lon="-99.475207"><ele>2215.5</ele><time>2020-02-09T15:45:27.000Z</time></trkpt>
   <trkpt lat="18.999834" lon="-99.474832"><ele>2201.0</ele><time>2020-02-09T15:45:34.000Z</time></trkpt>
   <trkpt lat="18.999151" lon="-99.474799"><ele>2191.8</ele><time>2020-02-09T15:45:39.000Z</time></trkpt>
   <trkpt lat="18.997622" lon="-99.475211"><ele>2169.7</ele><time>2020-02-09T15:45:49.000Z</time></trkpt>
   <trkpt lat="18.996017" lon="-99.476152"><ele>2149.8</ele><time>2020-02-09T15:46:00.000Z</time></trkpt>
   <trkpt lat="18.986177" lon="-99.480654"><ele>2071.2</ele><time>2020-02-09T15:47:12.000Z</time></trkpt>
   <trkpt lat="18.984524" lon="-99.481614"><ele>2064.5</ele><time>2020-02-09T15:47:31.000Z</time></trkpt>
   <trkpt lat="18.984515" lon="-99.481800"><ele>2063.7</ele><time>2020-02-09T15:47:34.000Z</time></trkpt>
   <trkpt lat="18.985375" lon="-99.483679"><ele>2067.3</ele><time>2020-02-09T15:48:11.000Z</time></trkpt>
   <trkpt lat="18.985858" lon="-99.485199"><ele>2071.6</ele><time>2020-02-09T15:48:38.000Z</time></trkpt>
   <trkpt lat="18.987028" lon="-99.486371"><ele>2077.7</ele><time>2020-02-09T15:49:14.000Z</time></trkpt>
   <trkpt lat="18.988102" lon="-99.487957"><ele>2084.8</ele><time>2020-02-09T15:49:46.000Z</time></trkpt>
   <trkpt lat="18.988565" lon="-99.488509"><ele>2088.0</ele><time>2020-02-09T15:50:01.000Z</time></trkpt>
   <trkpt lat="18.989281" lon="-99.488999"><ele>2093.2</ele><time>2020-02-09T15:50:21.000Z</time></trkpt>
   <trkpt lat="18.989427" lon="-99.489201"><ele>2094.7</ele><time>2020-02-09T15:50:35.000Z</time></trkpt>
   <trkpt lat="18.990174" lon="-99.491330"><ele>2116.7</ele><time>2020-02-09T15:51:51.000Z</time></trkpt>
   <trkpt lat="18.990100" lon="-99.492055"><ele>2120.3</ele><time>2020-02-09T15:52:09.000Z</time></trkpt>
   <trkpt lat="18.989583" lon="-99.492860"><ele>2127.2</ele><time>2020-02-09T15:52:37.000Z</time></trkpt>
   <trkpt lat="18.989396" lon="-99.493437"><ele>2132.4</ele><time>2020-02-09T15:52:58.000Z</time></trkpt>
   <trkpt lat="18.989076" lon="-99.493972"><ele>2137.5</ele><time>2020-02-09T15:53:19.000Z</time></trkpt>
   <trkpt lat="18.988876" lon="-99.493839"><ele>2139.7</ele><time>2020-02-09T15:53:31.000Z</time></trkpt>
   <trkpt lat="18.988636" lon="-99.493330"><ele>2145.6</ele><time>2020-02-09T15:53:51.000Z</time></trkpt>
   <trkpt lat="18.988692" lon="-99.493148"><ele>2147.5</ele><time>2020-02-09T15:54:00.000Z</time></trkpt>
   <trkpt lat="18.989091" lon="-99.492640"><ele>2156.2</ele><time>2020-02-09T15:54:30.000Z</time></trkpt>
   <trkpt lat="18.989105" lon="-99.492544"><ele>2157.5</ele><time>2020-02-09T15:54:31.000Z</time></trkpt>
   <trkpt lat="18.989031" lon="-99.492503"><ele>2158.9</ele><time>2020-02-09T15:54:37.000Z</time></trkpt>
   <trkpt lat="18.988554" lon="-99.492725"><ele>2165.3</ele><time>2020-02-09T15:55:00.000Z</time></trkpt>
   <trkpt lat="18.987763" lon="-99.492777"><ele>2174.2</ele><time>2020-02-09T15:55:43.000Z</time></trkpt>
   <trkpt lat="18.987291" lon="-99.493696"><ele>2183.9</ele><time>2020-02-09T15:56:43.000Z</time></trkpt>
   <trkpt lat="18.986996" lon="-99.493551"><ele>2195.1</ele><time>2020-02-09T15:57:17.000Z</time></trkpt>
   <trkpt lat="18.986822" lon="-99.493661"><ele>2203.0</ele><time>2020-02-09T15:57:37.000Z</time></trkpt>
   <trkpt lat="18.986732" lon="-99.494441"><ele>2218.2</ele><time>2020-02-09T15:58:17.000Z</time></trkpt>
   <trkpt lat="18.986522" lon="-99.494228"><ele>2223.0</ele><time>2020-02-09T15:58:32.000Z</time></trkpt>
   <trkpt lat="18.986404" lon="-99.493956"><ele>2227.5</ele><time>2020-02-09T15:58:48.000Z</time></trkpt>
   <trkpt lat="18.986252" lon="-99.493868"><ele>2229.9</ele><time>2020-02-09T15:58:58.000Z</time></trkpt>
   <trkpt lat="18.986157" lon="-99.493909"><ele>2231.4</ele><time>2020-02-09T15:59:03.000Z</time></trkpt>
   <trkpt lat="18.986097" lon="-99.494087"><ele>2234.3</ele><time>2020-02-09T15:59:15.000Z</time></trkpt>
   <trkpt lat="18.986329" lon="-99.494530"><ele>2241.5</ele><time>2020-02-09T16:00:01.000Z</time></trkpt>
   <trkpt lat="18.986397" lon="-99.495350"><ele>2252.7</ele><time>2020-02-09T16:00:54.000Z</time></trkpt>
   <trkpt lat="18.986565" lon="-99.495598"><ele>2257.2</ele><time>2020-02-09T16:01:17.000Z</time></trkpt>
   <trkpt lat="18.987510" lon="-99.496362"><ele>2273.7</ele><time>2020-02-09T16:02:06.000Z</time></trkpt>
   <trkpt lat="18.987775" lon="-99.497454"><ele>2286.5</ele><time>2020-02-09T16:03:05.000Z</time></trkpt>
   <trkpt lat="18.988188" lon="-99.498541"><ele>2300.5</ele><time>2020-02-09T16:03:53.000Z</time></trkpt>
   <trkpt lat="18.988264" lon="-99.498934"><ele>2305.1</ele><time>2020-02-09T16:04:18.000Z</time></trkpt>
   <trkpt lat="18.988829" lon="-99.499983"><ele>2318.2</ele><time>2020-02-09T16:05:02.000Z</time></trkpt>
   <trkpt lat="18.989556" lon="-99.500712"><ele>2330.0</ele><time>2020-02-09T16:05:46.000Z</time></trkpt>
   <trkpt lat="18.990097" lon="-99.501119"><ele>2337.8</ele><time>2020-02-09T16:06:20.000Z</time></trkpt>
   <trkpt lat="18.990483" lon="-99.501562"><ele>2345.1</ele><time>2020-02-09T16:06:56.000Z</time></trkpt>
   <trkpt lat="18.990832" lon="-99.502315"><ele>2355.4</ele><time>2020-02-09T16:07:21.000Z</time></trkpt>
   <trkpt lat="18.992639" lon="-99.504579"><ele>2382.2</ele><time>2020-02-09T16:09:47.000Z</time></trkpt>
   <trkpt lat="18.993270" lon="-99.505099"><ele>2390.4</ele><time>2020-02-09T16:10:02.000Z</time></trkpt>
   <trkpt lat="18.994806" lon="-99.504487"><ele>2410.3</ele><time>2020-02-09T16:11:14.000Z</time></trkpt>
   <trkpt lat="18.995366" lon="-99.504114"><ele>2409.2</ele><time>2020-02-09T16:11:46.000Z</time></trkpt>
   <trkpt lat="18.995417" lon="-99.504003"><ele>2409.1</ele><time>2020-02-09T16:12:17.000Z</time></trkpt>
   <trkpt lat="18.995556" lon="-99.504011"><ele>2409.1</ele><time>2020-02-09T16:13:23.000Z</time></trkpt>
   <trkpt lat="18.995454" lon="-99.503928"><ele>2409.1</ele><time>2020-02-09T16:15:21.000Z</time></trkpt>
   <trkpt lat="18.995486" lon="-99.503980"><ele>2409.1</ele><time>2020-02-09T16:16:16.000Z</time></trkpt>
   <trkpt lat="18.995343" lon="-99.503959"><ele>2409.1</ele><time>2020-02-09T16:20:43.000Z</time></trkpt>
   <trkpt lat="18.995483" lon="-99.503986"><ele>2409.5</ele><time>2020-02-09T16:23:34.000Z</time></trkpt>
   <trkpt lat="18.995286" lon="-99.504003"><ele>2409.4</ele><time>2020-02-09T16:28:53.000Z</time></trkpt>
   <trkpt lat="18.995519" lon="-99.504094"><ele>2409.5</ele><time>2020-02-09T16:31:00.000Z</time></trkpt>
   <trkpt lat="18.995822" lon="-99.505321"><ele>2406.5</ele><time>2020-02-09T16:32:52.000Z</time></trkpt>
   <trkpt lat="18.995720" lon="-99.506145"><ele>2405.8</ele><time>2020-02-09T16:33:12.000Z</time></trkpt>
   <trkpt lat="18.995712" lon="-99.507326"><ele>2405.4</ele><time>2020-02-09T16:33:39.000Z</time></trkpt>
   <trkpt lat="18.996247" lon="-99.510330"><ele>2398.0</ele><time>2020-02-09T16:34:42.000Z</time></trkpt>
   <trkpt lat="18.996615" lon="-99.511683"><ele>2386.5</ele><time>2020-02-09T16:35:01.000Z</time></trkpt>
   <trkpt lat="18.997297" lon="-99.512906"><ele>2373.4</ele><time>2020-02-09T16:35:19.000Z</time></trkpt>
   <trkpt lat="18.997523" lon="-99.514221"><ele>2358.0</ele><time>2020-02-09T16:35:36.000Z</time></trkpt>
   <trkpt lat="18.997924" lon="-99.515010"><ele>2348.3</ele><time>2020-02-09T16:35:48.000Z</time></trkpt>
   <trkpt lat="18.997805" lon="-99.516714"><ele>2328.0</ele><time>2020-02-09T16:36:08.000Z</time></trkpt>
   <trkpt lat="18.997903" lon="-99.518124"><ele>2311.7</ele><time>2020-02-09T16:36:19.000Z</time></trkpt>
   <trkpt lat="18.997732" lon="-99.518785"><ele>2303.3</ele><time>2020-02-09T16:36:25.000Z</time></trkpt>
   <trkpt lat="18.997432" lon="-99.519065"><ele>2297.8</ele><time>2020-02-09T16:36:29.000Z</time></trkpt>
   <trkpt lat="18.996634" lon="-99.519317"><ele>2288.3</ele><time>2020-02-09T16:36:36.000Z</time></trkpt>
   <trkpt lat="18.995619" lon="-99.519941"><ele>2275.9</ele><time>2020-02-09T16:36:46.000Z</time></trkpt>
   <trkpt lat="18.995215" lon="-99.520600"><ele>2265.3</ele><time>2020-02-09T16:36:53.000Z</time></trkpt>
   <trkpt lat="18.994929" lon="-99.520817"><ele>2261.2</ele><time>2020-02-09T16:36:57.000Z</time></trkpt>
   <trkpt lat="18.994772" lon="-99.521772"><ele>2252.7</ele><time>2020-02-09T16:37:06.000Z</time></trkpt>
   <trkpt lat="18.994635" lon="-99.522010"><ele>2249.8</ele><time>2020-02-09T16:37:09.000Z</time></trkpt>
   <trkpt lat="18.994496" lon="-99.522081"><ele>2247.7</ele><time>2020-02-09T16:37:11.000Z</time></trkpt>
   <trkpt lat="18.994203" lon="-99.521937"><ele>2244.7</ele><time>2020-02-09T16:37:15.000Z</time></trkpt>
   <trkpt lat="18.993912" lon="-99.521306"><ele>2237.1</ele><time>2020-02-09T16:37:24.000Z</time></trkpt>
   <trkpt lat="18.993694" lon="-99.521200"><ele>2233.9</ele><time>2020-02-09T16:37:27.000Z</time></trkpt>
   <trkpt lat="18.992949" lon="-99.521656"><ele>2227.1</ele><time>2020-02-09T16:37:37.000Z</time></trkpt>
   <trkpt lat="18.992277" lon="-99.521847"><ele>2218.1</ele><time>2020-02-09T16:37:44.000Z</time></trkpt>
   <trkpt lat="18.990478" lon="-99.521662"><ele>2201.1</ele><time>2020-02-09T16:38:01.000Z</time></trkpt>
   <trkpt lat="18.989925" lon="-99.521796"><ele>2195.3</ele><time>2020-02-09T16:38:07.000Z</time></trkpt>
   <trkpt lat="18.986824" lon="-99.525017"><ele>2138.0</ele><time>2020-02-09T16:38:52.000Z</time></trkpt>
   <trkpt lat="18.984268" lon="-99.528045"><ele>2107.1</ele><time>2020-02-09T16:39:30.000Z</time></trkpt>
   <trkpt lat="18.983687" lon="-99.528341"><ele>2108.9</ele><time>2020-02-09T16:39:41.000Z</time></trkpt>
   <trkpt lat="18.982788" lon="-99.528536"><ele>2109.5</ele><time>2020-02-09T16:40:01.000Z</time></trkpt>
   <trkpt lat="18.982157" lon="-99.529002"><ele>2098.5</ele><time>2020-02-09T16:40:18.000Z</time></trkpt>
   <trkpt lat="18.981612" lon="-99.529137"><ele>2094.4</ele><time>2020-02-09T16:40:30.000Z</time></trkpt>
   <trkpt lat="18.979008" lon="-99.529304"><ele>2086.2</ele><time>2020-02-09T16:42:02.000Z</time></trkpt>
   <trkpt lat="18.975236" lon="-99.529714"><ele>2079.4</ele><time>2020-02-09T16:43:04.000Z</time></trkpt>
   <trkpt lat="18.969959" lon="-99.529935"><ele>2078.3</ele><time>2020-02-09T16:44:08.000Z</time></trkpt>
   <trkpt lat="18.969069" lon="-99.529992"><ele>2078.1</ele><time>2020-02-09T16:44:19.000Z</time></trkpt>
   <trkpt lat="18.968668" lon="-99.530110"><ele>2077.5</ele><time>2020-02-09T16:44:24.000Z</time></trkpt>
   <trkpt lat="18.967242" lon="-99.531125"><ele>2074.8</ele><time>2020-02-09T16:44:44.000Z</time></trkpt>
   <trkpt lat="18.961686" lon="-99.537313"><ele>2063.1</ele><time>2020-02-09T16:46:31.000Z</time></trkpt>
   <trkpt lat="18.958975" lon="-99.538923"><ele>2063.7</ele><time>2020-02-09T16:47:20.000Z</time></trkpt>
   <trkpt lat="18.951637" lon="-99.542805"><ele>2062.3</ele><time>2020-02-09T16:49:23.000Z</time></trkpt>
   <trkpt lat="18.951536" lon="-99.542987"><ele>2061.8</ele><time>2020-02-09T16:49:27.000Z</time></trkpt>
   <trkpt lat="18.951833" lon="-99.544508"><ele>2060.1</ele><time>2020-02-09T16:49:48.000Z</time></trkpt>
   <trkpt lat="18.952355" lon="-99.546314"><ele>2059.9</ele><time>2020-02-09T16:50:11.000Z</time></trkpt>
   <trkpt lat="18.952506" lon="-99.550048"><ele>2055.7</ele><time>2020-02-09T16:51:00.000Z</time></trkpt>
   <trkpt lat="18.952873" lon="-99.552755"><ele>2053.0</ele><time>2020-02-09T16:51:33.000Z</time></trkpt>
   <trkpt lat="18.953901" lon="-99.555862"><ele>2048.3</ele><time>2020-02-09T16:52:14.000Z</time></trkpt>
   <trkpt lat="18.954270" lon="-99.557805"><ele>2047.1</ele><time>2020-02-09T16:52:40.000Z</time></trkpt>
   <trkpt lat="18.956175" lon="-99.564349"><ele>2042.9</ele><time>2020-02-09T16:54:10.000Z</time></trkpt>
   <trkpt lat="18.956709" lon="-99.566101"><ele>2042.4</ele><time>2020-02-09T16:54:32.000Z</time></trkpt>
   <trkpt lat="18.959064" lon="-99.571508"><ele>2039.8</ele><time>2020-02-09T16:55:48.000Z</time></trkpt>
   <trkpt lat="18.959667" lon="-99.573377"><ele>2041.7</ele><time>2020-02-09T16:56:12.000Z</time></trkpt>
   <trkpt lat="18.959872" lon="-99.573684"><ele>2042.2</ele><time>2020-02-09T16:56:17.000Z</time></trkpt>
   <trkpt lat="18.960914" lon="-99.574692"><ele>2044.9</ele><time>2020-02-09T16:56:39.000Z</time></trkpt>
   <trkpt lat="18.961261" lon="-99.575140"><ele>2045.3</ele><time>2020-02-09T16:56:48.000Z</time></trkpt>
   <trkpt lat="18.961614" lon="-99.576404"><ele>2046.0</ele><time>2020-02-09T16:57:09.000Z</time></trkpt>
   <trkpt lat="18.962103" lon="-99.578874"><ele>2036.0</ele><time>2020-02-09T16:57:46.000Z</time></trkpt>
   <trkpt lat="18.962629" lon="-99.580266"><ele>2032.1</ele><time>2020-02-09T16:58:07.000Z</time></trkpt>
   <trkpt lat="18.962692" lon="-99.580626"><ele>2030.3</ele><time>2020-02-09T16:58:11.000Z</time></trkpt>
   <trkpt lat="18.962644" lon="-99.581432"><ele>2028.4</ele><time>2020-02-09T16:58:20.000Z</time></trkpt>
   <trkpt lat="18.962216" lon="-99.586005"><ele>2023.7</ele><time>2020-02-09T16:59:48.000Z</time></trkpt>
   <trkpt lat="18.963212" lon="-99.586204"><ele>2026.6</ele><time>2020-02-09T17:00:06.000Z</time></trkpt>
   <trkpt lat="18.964205" lon="-99.586277"><ele>2027.5</ele><time>2020-02-09T17:00:24.000Z</time></trkpt>
   <trkpt lat="18.971302" lon="-99.586534"><ele>2043.3</ele><time>2020-02-09T17:02:30.000Z</time></trkpt>
   <trkpt lat="18.972175" lon="-99.586525"><ele>2043.0</ele><time>2020-02-09T17:02:46.000Z</time></trkpt>
   <trkpt lat="18.973022" lon="-99.586281"><ele>2044.4</ele><time>2020-02-09T17:03:05.000Z</time></trkpt>
   <trkpt lat="18.973694" lon="-99.586393"><ele>2046.0</ele><time>2020-02-09T17:03:34.000Z</time></trkpt>
   <trkpt lat="18.974258" lon="-99.586329"><ele>2050.5</ele><time>2020-02-09T17:03:58.000Z</time></trkpt>
   <trkpt lat="18.974745" lon="-99.586046"><ele>2055.4</ele><time>2020-02-09T17:04:17.000Z</time></trkpt>
   <trkpt lat="18.974976" lon="-99.585794"><ele>2058.5</ele><time>2020-02-09T17:04:29.000Z</time></trkpt>
   <trkpt lat="18.977211" lon="-99.580671"><ele>2089.3</ele><time>2020-02-09T17:07:20.000Z</time></trkpt>
   <trkpt lat="18.977629" lon="-99.580077"><ele>2093.8</ele><time>2020-02-09T17:07:40.000Z</time></trkpt>
   <trkpt lat="18.978192" lon="-99.579635"><ele>2099.0</ele><time>2020-02-09T17:08:06.000Z</time></trkpt>
   <trkpt lat="18.978754" lon="-99.579377"><ele>2102.5</ele><time>2020-02-09T17:08:22.000Z</time></trkpt>
   <trkpt lat="18.983715" lon="-99.578117"><ele>2125.5</ele><time>2020-02-09T17:10:39.000Z</time></trkpt>
   <trkpt lat="18.984272" lon="-99.577850"><ele>2129.0</ele><time>2020-02-09T17:10:54.000Z</time></trkpt>
   <trkpt lat="18.984589" lon="-99.577312"><ele>2132.7</ele><time>2020-02-09T17:11:09.000Z</time></trkpt>
   <trkpt lat="18.984749" lon="-99.575927"><ele>2140.4</ele><time>2020-02-09T17:11:45.000Z</time></trkpt>
   <trkpt lat="18.985152" lon="-99.574671"><ele>2148.2</ele><time>2020-02-09T17:12:16.000Z</time></trkpt>
   <trkpt lat="18.985467" lon="-99.574200"><ele>2151.0</ele><time>2020-02-09T17:12:29.000Z</time></trkpt>
   <trkpt lat="18.985976" lon="-99.573898"><ele>2154.4</ele><time>2020-02-09T17:12:42.000Z</time></trkpt>
   <trkpt lat="18.986281" lon="-99.573836"><ele>2156.1</ele><time>2020-02-09T17:12:48.000Z</time></trkpt>
   <trkpt lat="18.986715" lon="-99.573901"><ele>2158.1</ele><time>2020-02-09T17:12:56.000Z</time></trkpt>
   <trkpt lat="18.989406" lon="-99.574874"><ele>2173.7</ele><time>2020-02-09T17:13:56.000Z</time></trkpt>
   <trkpt lat="18.991458" lon="-99.575149"><ele>2188.3</ele><time>2020-02-09T17:14:55.000Z</time></trkpt>
   <trkpt lat="18.993302" lon="-99.576755"><ele>2200.5</ele><time>2020-02-09T17:15:54.000Z</time></trkpt>
   <trkpt lat="18.993552" lon="-99.576911"><ele>2201.6</ele><time>2020-02-09T17:16:01.000Z</time></trkpt>
   <trkpt lat="18.994112" lon="-99.577024"><ele>2205.4</ele><time>2020-02-09T17:16:14.000Z</time></trkpt>
   <trkpt lat="18.994912" lon="-99.576950"><ele>2207.9</ele><time>2020-02-09T17:16:30.000Z</time></trkpt>
   <trkpt lat="18.998098" lon="-99.576368"><ele>2224.9</ele><time>2020-02-09T17:17:42.000Z</time></trkpt>
   <trkpt lat="18.998497" lon="-99.576077"><ele>2226.6</ele><time>2020-02-09T17:17:51.000Z</time></trkpt>
   <trkpt lat="18.998996" lon="-99.575326"><ele>2229.7</ele><time>2020-02-09T17:18:09.000Z</time></trkpt>
   <trkpt lat="18.999399" lon="-99.575078"><ele>2232.3</ele><time>2020-02-09T17:18:20.000Z</time></trkpt>
   <trkpt lat="19.002196" lon="-99.575264"><ele>2241.8</ele><time>2020-02-09T17:19:09.000Z</time></trkpt>
   <trkpt lat="19.002597" lon="-99.575154"><ele>2242.0</ele><time>2020-02-09T17:19:14.000Z</time></trkpt>
   <trkpt lat="19.002819" lon="-99.574861"><ele>2241.3</ele><time>2020-02-09T17:19:18.000Z</time></trkpt>
   <trkpt lat="19.002866" lon="-99.574433"><ele>2241.5</ele><time>2020-02-09T17:19:23.000Z</time></trkpt>
   <trkpt lat="19.002624" lon="-99.573512"><ele>2244.8</ele><time>2020-02-09T17:19:37.000Z</time></trkpt>
   <trkpt lat="19.002294" lon="-99.573232"><ele>2246.5</ele><time>2020-02-09T17:19:45.000Z</time></trkpt>
   <trkpt lat="19.001186" lon="-99.573379"><ele>2253.5</ele><time>2020-02-09T17:20:12.000Z</time></trkpt>
   <trkpt lat="18.998868" lon="-99.572529"><ele>2268.0</ele><time>2020-02-09T17:21:16.000Z</time></trkpt>
   <trkpt lat="18.998589" lon="-99.572492"><ele>2269.9</ele><time>2020-02-09T17:21:22.000Z</time></trkpt>
   <trkpt lat="18.998166" lon="-99.572618"><ele>2272.6</ele><time>2020-02-09T17:21:36.000Z</time></trkpt>
   <trkpt lat="18.997627" lon="-99.573253"><ele>2277.3</ele><time>2020-02-09T17:21:59.000Z</time></trkpt>
   <trkpt lat="18.997426" lon="-99.573384"><ele>2279.8</ele><time>2020-02-09T17:22:05.000Z</time></trkpt>
   <trkpt lat="18.997168" lon="-99.573407"><ele>2282.7</ele><time>2020-02-09T17:22:13.000Z</time></trkpt>
   <trkpt lat="18.996818" lon="-99.573174"><ele>2285.3</ele><time>2020-02-09T17:22:22.000Z</time></trkpt>
   <trkpt lat="18.996720" lon="-99.572771"><ele>2286.8</ele><time>2020-02-09T17:22:31.000Z</time></trkpt>
   <trkpt lat="18.996781" lon="-99.572229"><ele>2288.8</ele><time>2020-02-09T17:22:44.000Z</time></trkpt>
   <trkpt lat="18.997042" lon="-99.571269"><ele>2293.2</ele><time>2020-02-09T17:23:06.000Z</time></trkpt>
   <trkpt lat="18.997444" lon="-99.568502"><ele>2310.3</ele><time>2020-02-09T17:24:20.000Z</time></trkpt>
   <trkpt lat="18.997654" lon="-99.568261"><ele>2312.0</ele><time>2020-02-09T17:24:28.000Z</time></trkpt>
   <trkpt lat="18.997913" lon="-99.568236"><ele>2313.1</ele><time>2020-02-09T17:24:35.000Z</time></trkpt>
   <trkpt lat="18.999038" lon="-99.568814"><ele>2321.6</ele><time>2020-02-09T17:25:07.000Z</time></trkpt>
   <trkpt lat="19.000117" lon="-99.568738"><ele>2327.6</ele><time>2020-02-09T17:25:35.000Z</time></trkpt>
   <trkpt lat="19.000635" lon="-99.568787"><ele>2329.9</ele><time>2020-02-09T17:25:47.000Z</time></trkpt>
   <trkpt lat="19.001782" lon="-99.569039"><ele>2335.1</ele><time>2020-02-09T17:26:13.000Z</time></trkpt>
   <trkpt lat="19.002471" lon="-99.569538"><ele>2341.1</ele><time>2020-02-09T17:26:34.000Z</time></trkpt>
   <trkpt lat="19.002682" lon="-99.569595"><ele>2342.1</ele><time>2020-02-09T17:26:41.000Z</time></trkpt>
   <trkpt lat="19.004503" lon="-99.569219"><ele>2353.1</ele><time>2020-02-09T17:27:25.000Z</time></trkpt>
   <trkpt lat="19.004672" lon="-99.569110"><ele>2354.1</ele><time>2020-02-09T17:27:30.000Z</time></trkpt>
   <trkpt lat="19.004750" lon="-99.568930"><ele>2355.1</ele><time>2020-02-09T17:27:35.000Z</time></trkpt>
   <trkpt lat="19.004575" lon="-99.568191"><ele>2359.4</ele><time>2020-02-09T17:27:54.000Z</time></trkpt>
   <trkpt lat="19.004726" lon="-99.567822"><ele>2362.3</ele><time>2020-02-09T17:28:05.000Z</time></trkpt>
   <trkpt lat="19.006020" lon="-99.567097"><ele>2371.5</ele><time>2020-02-09T17:28:48.000Z</time></trkpt>
   <trkpt lat="19.006336" lon="-99.567053"><ele>2373.6</ele><time>2020-02-09T17:28:56.000Z</time></trkpt>
   <trkpt lat="19.007089" lon="-99.567150"><ele>2378.7</ele><time>2020-02-09T17:29:17.000Z</time></trkpt>
   <trkpt lat="19.007347" lon="-99.566951"><ele>2381.1</ele><time>2020-02-09T17:29:26.000Z</time></trkpt>
   <trkpt lat="19.007368" lon="-99.566752"><ele>2382.2</ele><time>2020-02-09T17:29:33.000Z</time></trkpt>
   <trkpt lat="19.007268" lon="-99.566530"><ele>2383.3</ele><time>2020-02-09T17:29:38.000Z</time></trkpt>
   <trkpt lat="19.006609" lon="-99.565731"><ele>2391.8</ele><time>2020-02-09T17:30:08.000Z</time></trkpt>
   <trkpt lat="19.005839" lon="-99.565317"><ele>2397.4</ele><time>2020-02-09T17:30:36.000Z</time></trkpt>
   <trkpt lat="19.005654" lon="-99.565114"><ele>2399.1</ele><time>2020-02-09T17:30:42.000Z</time></trkpt>
   <trkpt lat="19.005586" lon="-99.564864"><ele>2400.4</ele><time>2020-02-09T17:30:51.000Z</time></trkpt>
   <trkpt lat="19.005742" lon="-99.564282"><ele>2404.4</ele><time>2020-02-09T17:31:08.000Z</time></trkpt>
   <trkpt lat="19.005987" lon="-99.563778"><ele>2407.0</ele><time>2020-02-09T17:31:26.000Z</time></trkpt>
   <trkpt lat="19.007072" lon="-99.562939"><ele>2416.2</ele><time>2020-02-09T17:32:01.000Z</time></trkpt>
   <trkpt lat="19.007345" lon="-99.562873"><ele>2417.8</ele><time>2020-02-09T17:32:07.000Z</time></trkpt>
   <trkpt lat="19.007600" lon="-99.562918"><ele>2419.4</ele><time>2020-02-09T17:32:12.000Z</time></trkpt>
   <trkpt lat="19.008962" lon="-99.563737"><ele>2422.6</ele><time>2020-02-09T17:32:37.000Z</time></trkpt>
   <trkpt lat="19.009512" lon="-99.563876"><ele>2424.3</ele><time>2020-02-09T17:32:46.000Z</time></trkpt>
   <trkpt lat="19.012147" lon="-99.563347"><ele>2439.7</ele><time>2020-02-09T17:33:50.000Z</time></trkpt>
   <trkpt lat="19.013701" lon="-99.562724"><ele>2448.8</ele><time>2020-02-09T17:34:33.000Z</time></trkpt>
   <trkpt lat="19.014750" lon="-99.562526"><ele>2455.7</ele><time>2020-02-09T17:35:05.000Z</time></trkpt>
   <trkpt lat="19.016967" lon="-99.562784"><ele>2467.4</ele><time>2020-02-09T17:36:00.000Z</time></trkpt>
   <trkpt lat="19.017311" lon="-99.562553"><ele>2464.9</ele><time>2020-02-09T17:36:05.000Z</time></trkpt>
   <trkpt lat="19.019113" lon="-99.560534"><ele>2463.1</ele><time>2020-02-09T17:36:30.000Z</time></trkpt>
   <trkpt lat="19.020025" lon="-99.559915"><ele>2460.6</ele><time>2020-02-09T17:36:41.000Z</time></trkpt>
   <trkpt lat="19.020605" lon="-99.559687"><ele>2458.9</ele><time>2020-02-09T17:36:46.000Z</time></trkpt>
   <trkpt lat="19.021003" lon="-99.559735"><ele>2455.6</ele><time>2020-02-09T17:36:49.000Z</time></trkpt>
   <trkpt lat="19.021402" lon="-99.559914"><ele>2457.8</ele><time>2020-02-09T17:36:52.000Z</time></trkpt>
   <trkpt lat="19.022547" lon="-99.560937"><ele>2448.4</ele><time>2020-02-09T17:37:02.000Z</time></trkpt>
   <trkpt lat="19.023392" lon="-99.561554"><ele>2460.9</ele><time>2020-02-09T17:37:12.000Z</time></trkpt>
   <trkpt lat="19.023933" lon="-99.561714"><ele>2468.2</ele><time>2020-02-09T17:37:22.000Z</time></trkpt>
   <trkpt lat="19.024445" lon="-99.561690"><ele>2471.2</ele><time>2020-02-09T17:37:36.000Z</time></trkpt>
   <trkpt lat="19.024777" lon="-99.561607"><ele>2471.2</ele><time>2020-02-09T17:37:45.000Z</time></trkpt>
   <trkpt lat="19.025106" lon="-99.561370"><ele>2475.8</ele><time>2020-02-09T17:37:56.000Z</time></trkpt>
   <trkpt lat="19.025645" lon="-99.560596"><ele>2472.2</ele><time>2020-02-09T17:38:18.000Z</time></trkpt>
   <trkpt lat="19.025988" lon="-99.560298"><ele>2469.5</ele><time>2020-02-09T17:38:24.000Z</time></trkpt>
   <trkpt lat="19.027936" lon="-99.559485"><ele>2461.7</ele><time>2020-02-09T17:38:43.000Z</time></trkpt>
   <trkpt lat="19.028093" lon="-99.559308"><ele>2460.9</ele><time>2020-02-09T17:38:45.000Z</time></trkpt>
   <trkpt lat="19.028121" lon="-99.559086"><ele>2462.5</ele><time>2020-02-09T17:38:47.000Z</time></trkpt>
   <trkpt lat="19.027825" lon="-99.558499"><ele>2468.0</ele><time>2020-02-09T17:38:56.000Z</time></trkpt>
   <trkpt lat="19.027872" lon="-99.558228"><ele>2471.4</ele><time>2020-02-09T17:39:02.000Z</time></trkpt>
   <trkpt lat="19.029806" lon="-99.557805"><ele>2490.8</ele><time>2020-02-09T17:40:07.000Z</time></trkpt>
   <trkpt lat="19.030146" lon="-99.557635"><ele>2494.5</ele><time>2020-02-09T17:40:20.000Z</time></trkpt>
   <trkpt lat="19.031512" lon="-99.556018"><ele>2504.1</ele><time>2020-02-09T17:41:16.000Z</time></trkpt>
   <trkpt lat="19.031984" lon="-99.554993"><ele>2504.1</ele><time>2020-02-09T17:41:38.000Z</time></trkpt>
   <trkpt lat="19.031984" lon="-99.554537"><ele>2504.1</ele><time>2020-02-09T17:41:44.000Z</time></trkpt>
   <trkpt lat="19.031870" lon="-99.554414"><ele>2504.1</ele><time>2020-02-09T17:41:46.000Z</time></trkpt>
   <trkpt lat="19.031530" lon="-99.554313"><ele>2504.1</ele><time>2020-02-09T17:41:51.000Z</time></trkpt>
   <trkpt lat="19.031317" lon="-99.553991"><ele>2504.1</ele><time>2020-02-09T17:41:57.000Z</time></trkpt>
   <trkpt lat="19.031108" lon="-99.549514"><ele>2504.0</ele><time>2020-02-09T17:44:15.000Z</time></trkpt>
   <trkpt lat="19.031152" lon="-99.548933"><ele>2504.5</ele><time>2020-02-09T17:44:40.000Z</time></trkpt>
   <trkpt lat="19.031286" lon="-99.548680"><ele>2505.7</ele><time>2020-02-09T17:44:54.000Z</time></trkpt>
   <trkpt lat="19.031805" lon="-99.548162"><ele>2511.5</ele><time>2020-02-09T17:45:27.000Z</time></trkpt>
   <trkpt lat="19.032362" lon="-99.547750"><ele>2524.9</ele><time>2020-02-09T17:45:57.000Z</time></trkpt>
   <trkpt lat="19.033518" lon="-99.547360"><ele>2558.2</ele><time>2020-02-09T17:46:43.000Z</time></trkpt>
   <trkpt lat="19.033779" lon="-99.547190"><ele>2566.9</ele><time>2020-02-09T17:46:50.000Z</time></trkpt>
   <trkpt lat="19.035527" lon="-99.544858"><ele>2644.1</ele><time>2020-02-09T17:48:07.000Z</time></trkpt>
   <trkpt lat="19.036448" lon="-99.544359"><ele>2666.0</ele><time>2020-02-09T17:48:22.000Z</time></trkpt>
   <trkpt lat="19.037639" lon="-99.543388"><ele>2667.9</ele><time>2020-02-09T17:49:30.000Z</time></trkpt>
   <trkpt lat="19.039099" lon="-99.542617"><ele>2667.9</ele><time>2020-02-09T17:50:25.000Z</time></trkpt>
   <trkpt lat="19.039490" lon="-99.542556"><ele>2667.9</ele><time>2020-02-09T17:50:40.000Z</time></trkpt>
   <trkpt lat="19.040186" lon="-99.542606"><ele>2667.9</ele><time>2020-02-09T17:51:05.000Z</time></trkpt>
   <trkpt lat="19.041813" lon="-99.542919"><ele>2667.8</ele><time>2020-02-09T17:52:00.000Z</time></trkpt>
   <trkpt lat="19.042038" lon="-99.542847"><ele>2667.8</ele><time>2020-02-09T17:52:06.000Z</time></trkpt>
   <trkpt lat="19.042699" lon="-99.542361"><ele>2667.8</ele><time>2020-02-09T17:52:32.000Z</time></trkpt>
   <trkpt lat="19.042946" lon="-99.542297"><ele>2667.8</ele><time>2020-02-09T17:52:40.000Z</time></trkpt>
   <trkpt lat="19.043203" lon="-99.542391"><ele>2667.8</ele><time>2020-02-09T17:52:49.000Z</time></trkpt>
   <trkpt lat="19.043920" lon="-99.542944"><ele>2667.8</ele><time>2020-02-09T17:53:19.000Z</time></trkpt>
   <trkpt lat="19.044896" lon="-99.543012"><ele>2667.8</ele><time>2020-02-09T17:53:57.000Z</time></trkpt>
   <trkpt lat="19.045766" lon="-99.542886"><ele>2667.8</ele><time>2020-02-09T17:54:30.000Z</time></trkpt>
   <trkpt lat="19.046338" lon="-99.542619"><ele>2667.8</ele><time>2020-02-09T17:54:50.000Z</time></trkpt>
   <trkpt lat="19.049361" lon="-99.539129"><ele>2654.5</ele><time>2020-02-09T17:56:16.000Z</time></trkpt>
   <trkpt lat="19.050513" lon="-99.537670"><ele>2641.6</ele><time>2020-02-09T17:56:42.000Z</time></trkpt>
   <trkpt lat="19.050609" lon="-99.537125"><ele>2641.7</ele><time>2020-02-09T17:56:49.000Z</time></trkpt>
   <trkpt lat="19.050398" lon="-99.536564"><ele>2641.7</ele><time>2020-02-09T17:56:57.000Z</time></trkpt>
   <trkpt lat="19.050362" lon="-99.536249"><ele>2640.4</ele><time>2020-02-09T17:57:01.000Z</time></trkpt>
   <trkpt lat="19.050551" lon="-99.533301"><ele>2632.8</ele><time>2020-02-09T17:57:42.000Z</time></trkpt>
   <trkpt lat="19.052591" lon="-99.533371"><ele>2630.9</ele><time>2020-02-09T17:58:32.000Z</time></trkpt>
   <trkpt lat="19.053114" lon="-99.533544"><ele>2629.1</ele><time>2020-02-09T17:58:42.000Z</time></trkpt>
   <trkpt lat="19.054794" lon="-99.533636"><ele>2632.2</ele><time>2020-02-09T17:59:27.000Z</time></trkpt>
   <trkpt lat="19.054895" lon="-99.533732"><ele>2631.6</ele><time>2020-02-09T17:59:32.000Z</time></trkpt>
   <trkpt lat="19.054862" lon="-99.534069"><ele>2630.9</ele><time>2020-02-09T17:59:48.000Z</time></trkpt>
   <trkpt lat="19.054996" lon="-99.534071"><ele>2630.6</ele><time>2020-02-09T18:00:14.000Z</time></trkpt>
   <trkpt lat="19.054933" lon="-99.534035"><ele>2630.5</ele><time>2020-02-09T18:00:21.000Z</time></trkpt>
   <trkpt lat="19.054994" lon="-99.533907"><ele>2630.5</ele><time>2020-02-09T18:00:36.000Z</time></trkpt>
   <trkpt lat="19.054880" lon="-99.534022"><ele>2630.7</ele><time>2020-02-09T18:02:21.000Z</time></trkpt>
   <trkpt lat="19.055064" lon="-99.534162"><ele>2630.9</ele><time>2020-02-09T18:03:24.000Z</time></trkpt>
   <trkpt lat="19.054932" lon="-99.533970"><ele>2630.6</ele><time>2020-02-09T18:19:01.000Z</time></trkpt>
   <trkpt lat="19.054922" lon="-99.533605"><ele>2633.9</ele><time>2020-02-09T18:21:52.000Z</time></trkpt>
   <trkpt lat="19.056147" lon="-99.533679"><ele>2645.9</ele><time>2020-02-09T18:23:07.000Z</time></trkpt>
   <trkpt lat="19.057161" lon="-99.533930"><ele>2657.1</ele><time>2020-02-09T18:24:06.000Z</time></trkpt>
   <trkpt lat="19.057779" lon="-99.534383"><ele>2664.0</ele><time>2020-02-09T18:24:48.000Z</time></trkpt>
   <trkpt lat="19.058659" lon="-99.534792"><ele>2672.4</ele><time>2020-02-09T18:25:38.000Z</time></trkpt>
   <trkpt lat="19.059974" lon="-99.534981"><ele>2682.6</ele><time>2020-02-09T18:26:34.000Z</time></trkpt>
   <trkpt lat="19.060184" lon="-99.534862"><ele>2684.7</ele><time>2020-02-09T18:26:48.000Z</time></trkpt>
   <trkpt lat="19.060162" lon="-99.534623"><ele>2686.7</ele><time>2020-02-09T18:26:59.000Z</time></trkpt>
   <trkpt lat="19.059565" lon="-99.534130"><ele>2692.2</ele><time>2020-02-09T18:27:23.000Z</time></trkpt>
   <trkpt lat="19.058776" lon="-99.533169"><ele>2701.6</ele><time>2020-02-09T18:28:06.000Z</time></trkpt>
   <trkpt lat="19.058859" lon="-99.532881"><ele>2704.1</ele><time>2020-02-09T18:28:19.000Z</time></trkpt>
   <trkpt lat="19.059135" lon="-99.532837"><ele>2706.5</ele><time>2020-02-09T18:28:29.000Z</time></trkpt>
   <trkpt lat="19.060634" lon="-99.533151"><ele>2717.5</ele><time>2020-02-09T18:29:36.000Z</time></trkpt>
   <trkpt lat="19.061286" lon="-99.533437"><ele>2721.8</ele><time>2020-02-09T18:30:03.000Z</time></trkpt>
   <trkpt lat="19.062102" lon="-99.534009"><ele>2727.5</ele><time>2020-02-09T18:30:40.000Z</time></trkpt>
   <trkpt lat="19.062366" lon="-99.534585"><ele>2731.0</ele><time>2020-02-09T18:30:57.000Z</time></trkpt>
   <trkpt lat="19.062650" lon="-99.534880"><ele>2733.2</ele><time>2020-02-09T18:31:13.000Z</time></trkpt>
   <trkpt lat="19.063204" lon="-99.535189"><ele>2735.6</ele><time>2020-02-09T18:31:31.000Z</time></trkpt>
   <trkpt lat="19.063620" lon="-99.535280"><ele>2736.8</ele><time>2020-02-09T18:31:42.000Z</time></trkpt>
   <trkpt lat="19.064381" lon="-99.534946"><ele>2738.8</ele><time>2020-02-09T18:31:56.000Z</time></trkpt>
   <trkpt lat="19.066629" lon="-99.535064"><ele>2749.2</ele><time>2020-02-09T18:33:06.000Z</time></trkpt>
   <trkpt lat="19.067735" lon="-99.534858"><ele>2755.3</ele><time>2020-02-09T18:33:40.000Z</time></trkpt>
   <trkpt lat="19.068765" lon="-99.534198"><ele>2757.5</ele><time>2020-02-09T18:34:02.000Z</time></trkpt>
   <trkpt lat="19.069530" lon="-99.534045"><ele>2758.4</ele><time>2020-02-09T18:34:20.000Z</time></trkpt>
   <trkpt lat="19.069932" lon="-99.533826"><ele>2759.8</ele><time>2020-02-09T18:34:33.000Z</time></trkpt>
   <trkpt lat="19.071585" lon="-99.533389"><ele>2766.7</ele><time>2020-02-09T18:35:23.000Z</time></trkpt>
   <trkpt lat="19.072025" lon="-99.533442"><ele>2768.3</ele><time>2020-02-09T18:35:28.000Z</time></trkpt>
   <trkpt lat="19.072670" lon="-99.533708"><ele>2769.1</ele><time>2020-02-09T18:35:38.000Z</time></trkpt>
   <trkpt lat="19.073557" lon="-99.533795"><ele>2770.4</ele><time>2020-02-09T18:35:57.000Z</time></trkpt>
   <trkpt lat="19.073663" lon="-99.533871"><ele>2770.7</ele><time>2020-02-09T18:36:02.000Z</time></trkpt>
   <trkpt lat="19.074399" lon="-99.533858"><ele>2772.8</ele><time>2020-02-09T18:36:22.000Z</time></trkpt>
   <trkpt lat="19.075027" lon="-99.534014"><ele>2775.4</ele><time>2020-02-09T18:36:39.000Z</time></trkpt>
   <trkpt lat="19.076192" lon="-99.533861"><ele>2780.6</ele><time>2020-02-09T18:37:07.000Z</time></trkpt>
   <trkpt lat="19.076981" lon="-99.533574"><ele>2785.3</ele><time>2020-02-09T18:37:35.000Z</time></trkpt>
   <trkpt lat="19.078823" lon="-99.532239"><ele>2795.6</ele><time>2020-02-09T18:38:55.000Z</time></trkpt>
   <trkpt lat="19.079454" lon="-99.531944"><ele>2797.2</ele><time>2020-02-09T18:39:09.000Z</time></trkpt>
   <trkpt lat="19.080110" lon="-99.531793"><ele>2796.0</ele><time>2020-02-09T18:39:23.000Z</time></trkpt>
   <trkpt lat="19.083486" lon="-99.531533"><ele>2782.8</ele><time>2020-02-09T18:39:59.000Z</time></trkpt>
   <trkpt lat="19.086400" lon="-99.531604"><ele>2763.7</ele><time>2020-02-09T18:40:24.000Z</time></trkpt>
   <trkpt lat="19.086985" lon="-99.531786"><ele>2759.3</ele><time>2020-02-09T18:40:29.000Z</time></trkpt>
   <trkpt lat="19.087393" lon="-99.532059"><ele>2755.5</ele><time>2020-02-09T18:40:33.000Z</time></trkpt>
   <trkpt lat="19.087833" lon="-99.532572"><ele>2750.8</ele><time>2020-02-09T18:40:38.000Z</time></trkpt>
   <trkpt lat="19.088023" lon="-99.532942"><ele>2748.5</ele><time>2020-02-09T18:40:41.000Z</time></trkpt>
   <trkpt lat="19.088452" lon="-99.534399"><ele>2742.2</ele><time>2020-02-09T18:40:53.000Z</time></trkpt>
   <trkpt lat="19.088525" lon="-99.534891"><ele>2740.0</ele><time>2020-02-09T18:40:57.000Z</time></trkpt>
   <trkpt lat="19.088215" lon="-99.535971"><ele>2733.7</ele><time>2020-02-09T18:41:08.000Z</time></trkpt>
   <trkpt lat="19.088378" lon="-99.536119"><ele>2732.4</ele><time>2020-02-09T18:41:10.000Z</time></trkpt>
   <trkpt lat="19.088633" lon="-99.536191"><ele>2731.0</ele><time>2020-02-09T18:41:12.000Z</time></trkpt>
   <trkpt lat="19.089348" lon="-99.536163"><ele>2726.7</ele><time>2020-02-09T18:41:18.000Z</time></trkpt>
   <trkpt lat="19.089777" lon="-99.536282"><ele>2724.0</ele><time>2020-02-09T18:41:22.000Z</time></trkpt>
   <trkpt lat="19.093310" lon="-99.537980"><ele>2704.8</ele><time>2020-02-09T18:41:52.000Z</time></trkpt>
   <trkpt lat="19.094306" lon="-99.538820"><ele>2697.2</ele><time>2020-02-09T18:42:02.000Z</time></trkpt>
   <trkpt lat="19.094811" lon="-99.539892"><ele>2691.1</ele><time>2020-02-09T18:42:11.000Z</time></trkpt>
   <trkpt lat="19.095136" lon="-99.540334"><ele>2688.4</ele><time>2020-02-09T18:42:15.000Z</time></trkpt>
   <trkpt lat="19.096205" lon="-99.541324"><ele>2679.6</ele><time>2020-02-09T18:42:27.000Z</time></trkpt>
   <trkpt lat="19.096686" lon="-99.541983"><ele>2675.6</ele><time>2020-02-09T18:42:33.000Z</time></trkpt>
   <trkpt lat="19.097014" lon="-99.542206"><ele>2673.8</ele><time>2020-02-09T18:42:36.000Z</time></trkpt>
   <trkpt lat="19.097229" lon="-99.542153"><ele>2673.0</ele><time>2020-02-09T18:42:38.000Z</time></trkpt>
   <trkpt lat="19.097809" lon="-99.541502"><ele>2670.3</ele><time>2020-02-09T18:42:48.000Z</time></trkpt>
   <trkpt lat="19.098840" lon="-99.538403"><ele>2645.3</ele><time>2020-02-09T18:43:23.000Z</time></trkpt>
   <trkpt lat="19.099395" lon="-99.537335"><ele>2637.1</ele><time>2020-02-09T18:43:35.000Z</time></trkpt>
   <trkpt lat="19.099927" lon="-99.536675"><ele>2632.6</ele><time>2020-02-09T18:43:43.000Z</time></trkpt>
   <trkpt lat="19.102872" lon="-99.533644"><ele>2605.6</ele><time>2020-02-09T18:44:18.000Z</time></trkpt>
   <trkpt lat="19.103557" lon="-99.533285"><ele>2599.9</ele><time>2020-02-09T18:44:24.000Z</time></trkpt>
   <trkpt lat="19.105421" lon="-99.532836"><ele>2588.5</ele><time>2020-02-09T18:44:39.000Z</time></trkpt>
   <trkpt lat="19.105989" lon="-99.532629"><ele>2586.1</ele><time>2020-02-09T18:44:44.000Z</time></trkpt>
   <trkpt lat="19.106664" lon="-99.532259"><ele>2582.1</ele><time>2020-02-09T18:44:50.000Z</time></trkpt>
   <trkpt lat="19.108568" lon="-99.530883"><ele>2576.0</ele><time>2020-02-09T18:45:09.000Z</time></trkpt>
   <trkpt lat="19.109170" lon="-99.530558"><ele>2576.1</ele><time>2020-02-09T18:45:16.000Z</time></trkpt>
   <trkpt lat="19.109630" lon="-99.530446"><ele>2576.6</ele><time>2020-02-09T18:45:21.000Z</time></trkpt>
   <trkpt lat="19.112273" lon="-99.530237"><ele>2577.7</ele><time>2020-02-09T18:45:54.000Z</time></trkpt>
   <trkpt lat="19.112549" lon="-99.530124"><ele>2578.1</ele><time>2020-02-09T18:45:59.000Z</time></trkpt>
   <trkpt lat="19.112881" lon="-99.528036"><ele>2579.3</ele><time>2020-02-09T18:46:49.000Z</time></trkpt>
   <trkpt lat="19.112228" lon="-99.523103"><ele>2587.7</ele><time>2020-02-09T18:48:36.000Z</time></trkpt>
   <trkpt lat="19.112231" lon="-99.522748"><ele>2588.7</ele><time>2020-02-09T18:48:42.000Z</time></trkpt>
   <trkpt lat="19.112361" lon="-99.522475"><ele>2589.6</ele><time>2020-02-09T18:48:47.000Z</time></trkpt>
   <trkpt lat="19.114567" lon="-99.520820"><ele>2582.5</ele><time>2020-02-09T18:49:21.000Z</time></trkpt>
   <trkpt lat="19.116908" lon="-99.519630"><ele>2581.3</ele><time>2020-02-09T18:49:56.000Z</time></trkpt>
   <trkpt lat="19.117698" lon="-99.519278"><ele>2584.4</ele><time>2020-02-09T18:50:14.000Z</time></trkpt>
   <trkpt lat="19.122282" lon="-99.517683"><ele>2592.3</ele><time>2020-02-09T18:51:43.000Z</time></trkpt>
   <trkpt lat="19.122831" lon="-99.517301"><ele>2591.3</ele><time>2020-02-09T18:51:53.000Z</time></trkpt>
   <trkpt lat="19.123085" lon="-99.516923"><ele>2590.4</ele><time>2020-02-09T18:51:59.000Z</time></trkpt>
   <trkpt lat="19.123206" lon="-99.516551"><ele>2589.4</ele><time>2020-02-09T18:52:04.000Z</time></trkpt>
   <trkpt lat="19.123435" lon="-99.514081"><ele>2589.3</ele><time>2020-02-09T18:52:42.000Z</time></trkpt>
   <trkpt lat="19.123583" lon="-99.513523"><ele>2588.1</ele><time>2020-02-09T18:52:52.000Z</time></trkpt>
   <trkpt lat="19.127246" lon="-99.508674"><ele>2592.6</ele><time>2020-02-09T18:54:44.000Z</time></trkpt>
   <trkpt lat="19.129377" lon="-99.504427"><ele>2589.9</ele><time>2020-02-09T18:55:58.000Z</time></trkpt>
   <trkpt lat="19.129697" lon="-99.503452"><ele>2593.8</ele><time>2020-02-09T18:56:14.000Z</time></trkpt>
   <trkpt lat="19.130094" lon="-99.501522"><ele>2599.5</ele><time>2020-02-09T18:56:50.000Z</time></trkpt>
   <trkpt lat="19.131166" lon="-99.499017"><ele>2592.1</ele><time>2020-02-09T18:57:39.000Z</time></trkpt>
   <trkpt lat="19.132862" lon="-99.496124"><ele>2591.9</ele><time>2020-02-09T18:58:35.000Z</time></trkpt>
   <trkpt lat="19.133835" lon="-99.494626"><ele>2588.1</ele><time>2020-02-09T18:59:05.000Z</time></trkpt>
   <trkpt lat="19.134559" lon="-99.493862"><ele>2587.4</ele><time>2020-02-09T18:59:20.000Z</time></trkpt>
   <trkpt lat="19.154978" lon="-99.475309"><ele>2631.6</ele><time>2020-02-09T19:07:23.000Z</time></trkpt>
   <trkpt lat="19.155765" lon="-99.474464"><ele>2633.7</ele><time>2020-02-09T19:07:47.000Z</time></trkpt>
   <trkpt lat="19.156431" lon="-99.473599"><ele>2632.4</ele><time>2020-02-09T19:08:05.000Z</time></trkpt>
   <trkpt lat="19.159037" lon="-99.469330"><ele>2632.1</ele><time>2020-02-09T19:09:25.000Z</time></trkpt>
   <trkpt lat="19.159783" lon="-99.468329"><ele>2635.7</ele><time>2020-02-09T19:09:48.000Z</time></trkpt>
   <trkpt lat="19.162293" lon="-99.467946"><ele>2635.0</ele><time>2020-02-09T19:10:24.000Z</time></trkpt>
   <trkpt lat="19.164170" lon="-99.467802"><ele>2632.9</ele><time>2020-02-09T19:10:46.000Z</time></trkpt>
   <trkpt lat="19.164772" lon="-99.467819"><ele>2632.5</ele><time>2020-02-09T19:10:53.000Z</time></trkpt>
   <trkpt lat="19.165274" lon="-99.468000"><ele>2632.6</ele><time>2020-02-09T19:10:59.000Z</time></trkpt>
   <trkpt lat="19.177279" lon="-99.476132"><ele>2622.0</ele><time>2020-02-09T19:14:07.000Z</time></trkpt>
   <trkpt lat="19.177670" lon="-99.476280"><ele>2622.0</ele><time>2020-02-09T19:16:10.000Z</time></trkpt>
   <trkpt lat="19.177546" lon="-99.476286"><ele>2621.9</ele><time>2020-02-09T19:16:24.000Z</time></trkpt>
   <trkpt lat="19.177885" lon="-99.476527"><ele>2622.0</ele><time>2020-02-09T19:17:33.000Z</time></trkpt>
   <trkpt lat="19.185296" lon="-99.481536"><ele>2594.3</ele><time>2020-02-09T19:19:28.000Z</time></trkpt>
   <trkpt lat="19.188821" lon="-99.483893"><ele>2587.3</ele><time>2020-02-09T19:20:11.000Z</time></trkpt>
   <trkpt lat="19.189192" lon="-99.484038"><ele>2587.9</ele><time>2020-02-09T19:20:16.000Z</time></trkpt>
   <trkpt lat="19.189653" lon="-99.483912"><ele>2587.5</ele><time>2020-02-09T19:20:23.000Z</time></trkpt>
   <trkpt lat="19.190141" lon="-99.483348"><ele>2586.7</ele><time>2020-02-09T19:20:37.000Z</time></trkpt>
   <trkpt lat="19.196382" lon="-99.473848"><ele>2585.2</ele><time>2020-02-09T19:23:29.000Z</time></trkpt>
   <trkpt lat="19.197455" lon="-99.472489"><ele>2585.8</ele><time>2020-02-09T19:24:03.000Z</time></trkpt>
   <trkpt lat="19.199362" lon="-99.471120"><ele>2583.0</ele><time>2020-02-09T19:24:42.000Z</time></trkpt>
   <trkpt lat="19.204358" lon="-99.467960"><ele>2585.9</ele><time>2020-02-09T19:26:12.000Z</time></trkpt>
   <trkpt lat="19.206435" lon="-99.466494"><ele>2591.7</ele><time>2020-02-09T19:27:40.000Z</time></trkpt>
   <trkpt lat="19.209546" lon="-99.464624"><ele>2596.6</ele><time>2020-02-09T19:28:51.000Z</time></trkpt>
   <trkpt lat="19.211117" lon="-99.464730"><ele>2591.9</ele><time>2020-02-09T19:29:14.000Z</time></trkpt>
   <trkpt lat="19.214569" lon="-99.465229"><ele>2579.4</ele><time>2020-02-09T19:29:49.000Z</time></trkpt>
   <trkpt lat="19.217224" lon="-99.465903"><ele>2577.5</ele><time>2020-02-09T19:30:31.000Z</time></trkpt>
   <trkpt lat="19.224301" lon="-99.468626"><ele>2579.3</ele><time>2020-02-09T19:32:39.000Z</time></trkpt>
   <trkpt lat="19.228056" lon="-99.470331"><ele>2585.0</ele><time>2020-02-09T19:33:41.000Z</time></trkpt>
   <trkpt lat="19.230286" lon="-99.471682"><ele>2581.2</ele><time>2020-02-09T19:34:27.000Z</time></trkpt>
   <trkpt lat="19.232095" lon="-99.472145"><ele>2585.3</ele><time>2020-02-09T19:34:58.000Z</time></trkpt>
   <trkpt lat="19.232660" lon="-99.472254"><ele>2583.3</ele><time>2020-02-09T19:35:07.000Z</time></trkpt>
   <trkpt lat="19.236929" lon="-99.472465"><ele>2585.4</ele><time>2020-02-09T19:36:14.000Z</time></trkpt>
   <trkpt lat="19.237567" lon="-99.472440"><ele>2585.9</ele><time>2020-02-09T19:36:25.000Z</time></trkpt>
   <trkpt lat="19.238772" lon="-99.472225"><ele>2586.9</ele><time>2020-02-09T19:36:54.000Z</time></trkpt>
   <trkpt lat="19.241788" lon="-99.472487"><ele>2584.4</ele><time>2020-02-09T19:37:42.000Z</time></trkpt>
   <trkpt lat="19.248938" lon="-99.473866"><ele>2579.7</ele><time>2020-02-09T19:39:34.000Z</time></trkpt>
   <trkpt lat="19.249305" lon="-99.473745"><ele>2579.0</ele><time>2020-02-09T19:39:39.000Z</time></trkpt>
   <trkpt lat="19.251050" lon="-99.472775"><ele>2580.0</ele><time>2020-02-09T19:40:07.000Z</time></trkpt>
   <trkpt lat="19.251747" lon="-99.472717"><ele>2580.1</ele><time>2020-02-09T19:40:18.000Z</time></trkpt>
   <trkpt lat="19.253004" lon="-99.472874"><ele>2577.9</ele><time>2020-02-09T19:40:35.000Z</time></trkpt>
   <trkpt lat="19.254727" lon="-99.472498"><ele>2576.3</ele><time>2020-02-09T19:41:13.000Z</time></trkpt>
   <trkpt lat="19.255614" lon="-99.472178"><ele>2575.9</ele><time>2020-02-09T19:41:28.000Z</time></trkpt>
   <trkpt lat="19.272200" lon="-99.463249"><ele>2585.6</ele><time>2020-02-09T19:46:53.000Z</time></trkpt>
   <trkpt lat="19.272300" lon="-99.463080"><ele>2586.3</ele><time>2020-02-09T19:46:59.000Z</time></trkpt>
   <trkpt lat="19.272514" lon="-99.461431"><ele>2586.8</ele><time>2020-02-09T19:47:40.000Z</time></trkpt>
   <trkpt lat="19.272287" lon="-99.459912"><ele>2585.6</ele><time>2020-02-09T19:48:24.000Z</time></trkpt>
   <trkpt lat="19.272175" lon="-99.456868"><ele>2597.2</ele><time>2020-02-09T19:49:32.000Z</time></trkpt>
   <trkpt lat="19.271990" lon="-99.455485"><ele>2600.5</ele><time>2020-02-09T19:50:13.000Z</time></trkpt>
   <trkpt lat="19.271882" lon="-99.453145"><ele>2607.8</ele><time>2020-02-09T19:51:14.000Z</time></trkpt>
   <trkpt lat="19.271825" lon="-99.452787"><ele>2608.8</ele><time>2020-02-09T19:51:22.000Z</time></trkpt>
   <trkpt lat="19.270879" lon="-99.450024"><ele>2615.2</ele><time>2020-02-09T19:52:30.000Z</time></trkpt>
   <trkpt lat="19.270715" lon="-99.449284"><ele>2617.9</ele><time>2020-02-09T19:52:49.000Z</time></trkpt>
   <trkpt lat="19.270324" lon="-99.442288"><ele>2642.0</ele><time>2020-02-09T19:55:41.000Z</time></trkpt>
   <trkpt lat="19.269705" lon="-99.434178"><ele>2667.8</ele><time>2020-02-09T19:59:00.000Z</time></trkpt>
   <trkpt lat="19.266947" lon="-99.425497"><ele>2709.8</ele><time>2020-02-09T20:03:12.000Z</time></trkpt>
   <trkpt lat="19.266192" lon="-99.420770"><ele>2723.8</ele><time>2020-02-09T20:06:19.000Z</time></trkpt>
   <trkpt lat="19.266225" lon="-99.420471"><ele>2725.1</ele><time>2020-02-09T20:07:08.000Z</time></trkpt>
   <trkpt lat="19.267128" lon="-99.420108"><ele>2728.8</ele><time>2020-02-09T20:07:33.000Z</time></trkpt>
   <trkpt lat="19.267314" lon="-99.419878"><ele>2729.5</ele><time>2020-02-09T20:07:40.000Z</time></trkpt>
   <trkpt lat="19.267466" lon="-99.418136"><ele>2727.0</ele><time>2020-02-09T20:08:08.000Z</time></trkpt>
   <trkpt lat="19.267689" lon="-99.417306"><ele>2722.4</ele><time>2020-02-09T20:08:19.000Z</time></trkpt>
   <trkpt lat="19.267636" lon="-99.416457"><ele>2715.7</ele><time>2020-02-09T20:08:29.000Z</time></trkpt>
   <trkpt lat="19.267928" lon="-99.415662"><ele>2715.1</ele><time>2020-02-09T20:08:39.000Z</time></trkpt>
   <trkpt lat="19.267940" lon="-99.415189"><ele>2719.3</ele><time>2020-02-09T20:08:46.000Z</time></trkpt>
   <trkpt lat="19.267734" lon="-99.414662"><ele>2724.2</ele><time>2020-02-09T20:08:57.000Z</time></trkpt>
   <trkpt lat="19.267422" lon="-99.414234"><ele>2726.0</ele><time>2020-02-09T20:09:09.000Z</time></trkpt>
   <trkpt lat="19.267165" lon="-99.413595"><ele>2727.3</ele><time>2020-02-09T20:09:25.000Z</time></trkpt>
   <trkpt lat="19.266805" lon="-99.413050"><ele>2727.2</ele><time>2020-02-09T20:09:38.000Z</time></trkpt>
   <trkpt lat="19.266769" lon="-99.412846"><ele>2727.8</ele><time>2020-02-09T20:09:42.000Z</time></trkpt>
   <trkpt lat="19.267130" lon="-99.412266"><ele>2730.5</ele><time>2020-02-09T20:09:56.000Z</time></trkpt>
   <trkpt lat="19.267262" lon="-99.412233"><ele>2731.9</ele><time>2020-02-09T20:10:05.000Z</time></trkpt>
   <trkpt lat="19.267450" lon="-99.412030"><ele>2734.0</ele><time>2020-02-09T20:10:10.000Z</time></trkpt>
   <trkpt lat="19.267639" lon="-99.412035"><ele>2735.5</ele><time>2020-02-09T20:10:17.000Z</time></trkpt>
   <trkpt lat="19.269283" lon="-99.413355"><ele>2743.1</ele><time>2020-02-09T20:11:12.000Z</time></trkpt>
   <trkpt lat="19.271078" lon="-99.414248"><ele>2759.6</ele><time>2020-02-09T20:12:15.000Z</time></trkpt>
   <trkpt lat="19.271257" lon="-99.414266"><ele>2762.4</ele><time>2020-02-09T20:12:24.000Z</time></trkpt>
   <trkpt lat="19.271348" lon="-99.414176"><ele>2764.3</ele><time>2020-02-09T20:12:31.000Z</time></trkpt>
   <trkpt lat="19.271237" lon="-99.413951"><ele>2767.0</ele><time>2020-02-09T20:12:46.000Z</time></trkpt>
   <trkpt lat="19.270326" lon="-99.413191"><ele>2775.7</ele><time>2020-02-09T20:13:38.000Z</time></trkpt>
   <trkpt lat="19.270190" lon="-99.412942"><ele>2778.1</ele><time>2020-02-09T20:13:51.000Z</time></trkpt>
   <trkpt lat="19.270204" lon="-99.412447"><ele>2783.7</ele><time>2020-02-09T20:14:12.000Z</time></trkpt>
   <trkpt lat="19.270358" lon="-99.412191"><ele>2786.5</ele><time>2020-02-09T20:14:26.000Z</time></trkpt>
   <trkpt lat="19.270656" lon="-99.411926"><ele>2790.5</ele><time>2020-02-09T20:14:43.000Z</time></trkpt>
   <trkpt lat="19.271560" lon="-99.411433"><ele>2800.1</ele><time>2020-02-09T20:15:25.000Z</time></trkpt>
   <trkpt lat="19.272194" lon="-99.410634"><ele>2807.8</ele><time>2020-02-09T20:15:59.000Z</time></trkpt>
   <trkpt lat="19.272449" lon="-99.409234"><ele>2819.9</ele><time>2020-02-09T20:16:54.000Z</time></trkpt>
   <trkpt lat="19.272451" lon="-99.408762"><ele>2824.0</ele><time>2020-02-09T20:17:15.000Z</time></trkpt>
   <trkpt lat="19.272906" lon="-99.407718"><ele>2836.2</ele><time>2020-02-09T20:18:05.000Z</time></trkpt>
   <trkpt lat="19.273955" lon="-99.407328"><ele>2849.6</ele><time>2020-02-09T20:18:56.000Z</time></trkpt>
   <trkpt lat="19.274229" lon="-99.407039"><ele>2853.9</ele><time>2020-02-09T20:19:18.000Z</time></trkpt>
   <trkpt lat="19.274228" lon="-99.406885"><ele>2856.0</ele><time>2020-02-09T20:19:27.000Z</time></trkpt>
   <trkpt lat="19.273943" lon="-99.406684"><ele>2862.1</ele><time>2020-02-09T20:19:51.000Z</time></trkpt>
   <trkpt lat="19.273838" lon="-99.406461"><ele>2864.9</ele><time>2020-02-09T20:20:04.000Z</time></trkpt>
   <trkpt lat="19.273938" lon="-99.405879"><ele>2870.2</ele><time>2020-02-09T20:20:37.000Z</time></trkpt>
   <trkpt lat="19.274221" lon="-99.405227"><ele>2881.3</ele><time>2020-02-09T20:21:22.000Z</time></trkpt>
   <trkpt lat="19.274722" lon="-99.404757"><ele>2891.7</ele><time>2020-02-09T20:22:08.000Z</time></trkpt>
   <trkpt lat="19.274746" lon="-99.404103"><ele>2901.7</ele><time>2020-02-09T20:22:52.000Z</time></trkpt>
   <trkpt lat="19.275326" lon="-99.402948"><ele>2918.2</ele><time>2020-02-09T20:24:16.000Z</time></trkpt>
   <trkpt lat="19.275048" lon="-99.402359"><ele>2926.0</ele><time>2020-02-09T20:25:14.000Z</time></trkpt>
   <trkpt lat="19.274732" lon="-99.402303"><ele>2931.3</ele><time>2020-02-09T20:25:39.000Z</time></trkpt>
   <trkpt lat="19.274042" lon="-99.402713"><ele>2939.3</ele><time>2020-02-09T20:26:32.000Z</time></trkpt>
   <trkpt lat="19.273423" lon="-99.402945"><ele>2943.3</ele><time>2020-02-09T20:26:55.000Z</time></trkpt>
   <trkpt lat="19.272757" lon="-99.403110"><ele>2944.1</ele><time>2020-02-09T20:27:13.000Z</time></trkpt>
   <trkpt lat="19.272152" lon="-99.403082"><ele>2950.8</ele><time>2020-02-09T20:27:46.000Z</time></trkpt>
   <trkpt lat="19.271810" lon="-99.402639"><ele>2954.0</ele><time>2020-02-09T20:28:21.000Z</time></trkpt>
   <trkpt lat="19.271782" lon="-99.402270"><ele>2958.1</ele><time>2020-02-09T20:28:47.000Z</time></trkpt>
   <trkpt lat="19.272654" lon="-99.400593"><ele>2984.5</ele><time>2020-02-09T20:30:14.000Z</time></trkpt>
   <trkpt lat="19.274256" lon="-99.398844"><ele>3013.1</ele><time>2020-02-09T20:32:41.000Z</time></trkpt>
   <trkpt lat="19.274618" lon="-99.397861"><ele>3022.8</ele><time>2020-02-09T20:33:47.000Z</time></trkpt>
   <trkpt lat="19.274731" lon="-99.396703"><ele>3038.6</ele><time>2020-02-09T20:35:20.000Z</time></trkpt>
   <trkpt lat="19.274875" lon="-99.396201"><ele>3042.5</ele><time>2020-02-09T20:35:31.000Z</time></trkpt>
   <trkpt lat="19.275350" lon="-99.395513"><ele>3051.2</ele><time>2020-02-09T20:36:05.000Z</time></trkpt>
   <trkpt lat="19.275424" lon="-99.395176"><ele>3056.0</ele><time>2020-02-09T20:36:45.000Z</time></trkpt>
   <trkpt lat="19.275796" lon="-99.394431"><ele>3069.1</ele><time>2020-02-09T20:37:31.000Z</time></trkpt>
   <trkpt lat="19.276443" lon="-99.393554"><ele>3080.9</ele><time>2020-02-09T20:38:46.000Z</time></trkpt>
   <trkpt lat="19.276929" lon="-99.392671"><ele>3091.1</ele><time>2020-02-09T20:40:07.000Z</time></trkpt>
   <trkpt lat="19.277099" lon="-99.392021"><ele>3104.5</ele><time>2020-02-09T20:40:58.000Z</time></trkpt>
   <trkpt lat="19.277865" lon="-99.390319"><ele>3127.8</ele><time>2020-02-09T20:42:44.000Z</time></trkpt>
   <trkpt lat="19.278500" lon="-99.387783"><ele>3149.5</ele><time>2020-02-09T20:44:32.000Z</time></trkpt>
   <trkpt lat="19.278693" lon="-99.387673"><ele>3149.4</ele><time>2020-02-09T20:44:43.000Z</time></trkpt>
   <trkpt lat="19.279113" lon="-99.387647"><ele>3148.7</ele><time>2020-02-09T20:45:39.000Z</time></trkpt>
  </trkseg>
 </trk>
</gpx>
